{"type":"FeatureCollection","features":[{"type":"Feature","properties":{"name":"George Middle School Spanish Immersion","kind":"middle"},"geometry":{"type":"Point","coordinates":[-122.736155,45.596054]}},{"type":"Feature","properties":{"name":"Astor K-8 Neighborhood","kind":"k8"},"geometry":{"type":"Point","coordinates":[-122.729451,45.578812]}},{"type":"Feature","properties":{"name":"Ockley Green Middle School Neighborhood","kind":"middle"},"geometry":{"type":"Point","coordinates":[-122.68041,45.567061]}},{"type":"Feature","properties":{"name":"Beaumont Middle School Neighborhood","kind":"middle"},"geometry":{"type":"Point","coordinates":[-122.620928,45.548755]}},{"type":"Feature","properties":{"name":"Roseway Heights Middle School Spanish Immersion, Vietnamese Immersion","kind":"middle"},"geometry":{"type":"Point","coordinates":[-122.587481,45.544152]}},{"type":"Feature","properties":{"name":"Harriet Tubman Middle School Mandarin Immersion","kind":"middle"},"geometry":{"type":"Point","coordinates":[-122.669041,45.538996]}},{"type":"Feature","properties":{"name":"MLC & Odyssey K-8 Focus/Option","kind":"focus"},"geometry":{"type":"Point","coordinates":[-122.693209,45.526516]}},{"type":"Feature","properties":{"name":"da Vinci Middle School Focus/Option","kind":"focus"},"geometry":{"type":"Point","coordinates":[-122.639927,45.524531]}},{"type":"Feature","properties":{"name":"Mt Tabor Middle School Japanese Immersion","kind":"middle"},"geometry":{"type":"Point","coordinates":[-122.603787,45.521058]}},{"type":"Feature","properties":{"name":"Odyssey Building Closed","kind":"closed"},"geometry":{"type":"Point","coordinates":[-122.737438,45.510614]}},{"type":"Feature","properties":{"name":"Harrison Park Middle School Mandarin Immersion","kind":"middle"},"geometry":{"type":"Point","coordinates":[-122.574712,45.506758]}},{"type":"Feature","properties":{"name":"Hosford Middle School Neighborhood","kind":"middle"},"geometry":{"type":"Point","coordinates":[-122.637113,45.506291]}},{"type":"Feature","properties":{"name":"West Sylvan Middle School Spanish Immersion","kind":"middle"},"geometry":{"type":"Point","coordinates":[-122.760886,45.504704]}},{"type":"Feature","properties":{"name":"Kellogg Middle School Spanish Immersion","kind":"middle"},"geometry":{"type":"Point","coordinates":[-122.591733,45.498783]}},{"type":"Feature","properties":{"name":"Winterhaven K-8 Focus/Option","kind":"focus"},"geometry":{"type":"Point","coordinates":[-122.650906,45.495099]}},{"type":"Feature","properties":{"name":"Gray Middle School Neighborhood","kind":"middle"},"geometry":{"type":"Point","coordinates":[-122.701507,45.482137]}},{"type":"Feature","properties":{"name":"ACCESS 2-8 Focus/Option","kind":"focus"},"geometry":{"type":"Point","coordinates":[-122.675419,45.478344]}},{"type":"Feature","properties":{"name":"Brentwood Middle School Russian Immersion","kind":"middle"},"geometry":{"type":"Point","coordinates":[-122.601575,45.471368]}},{"type":"Feature","properties":{"name":"Sellwood School Closed","kind":"closed"},"geometry":{"type":"Point","coordinates":[-122.650258,45.462776]}},{"type":"Feature","properties":{"name":"Jackson Middle School Neighborhood","kind":"middle"},"geometry":{"type":"Point","coordinates":[-122.714292,45.44829]}},{"type":"Feature","properties":{"name":"Skyline K-8 Neighborhood","kind":"k8"},"geometry":{"type":"Point","coordinates":[-122.855865,45.607651]}}]}