{"type":"FeatureCollection","features":[{"type":"Feature","properties":{"name":"Astor K-8","school_label":"Astor K-8 Neighborhood","cluster":"Roosevelt","clusters":[{"name":"Roosevelt","share":1.0}],"level":"K-8","area_sqmi":7.99},"geometry":{"type":"MultiPolygon","coordinates":[[[[-122.721627,45.601349],[-122.725242,45.601561],[-122.726411,45.60176],[-122.727637,45.602323],[-122.729368,45.603311],[-122.729621,45.603405],[-122.730433,45.603602],[-122.730738,45.60365],[-122.73273,45.603756],[-122.73406,45.603867],[-122.734726,45.603969],[-122.736073,45.60427],[-122.737015,45.604762],[-122.737528,45.605133],[-122.738315,45.60585],[-122.738631,45.606179],[-122.739337,45.606752],[-122.739826,45.607055],[-122.740617,45.607299],[-122.740945,45.607346],[-122.743199,45.6075],[-122.744862,45.607818],[-122.746061,45.607916],[-122.7465,45.608053],[-122.74721,45.60845],[-122.747824,45.60888],[-122.748469,45.609279],[-122.748822,45.60944],[-122.749239,45.609546],[-122.750932,45.609795],[-122.751764,45.609962],[-122.752303,45.610142],[-122.753362,45.610571],[-122.753493,45.610591],[-122.75374,45.610525],[-122.756114,45.608916],[-122.756207,45.608792],[-122.756192,45.608663],[-122.754894,45.606478],[-122.755019,45.606339],[-122.755804,45.606133],[-122.756235,45.606025],[-122.757465,45.60581],[-122.758332,45.605748],[-122.759443,45.605825],[-122.760024,45.605966],[-122.762591,45.606921],[-122.763073,45.607034],[-122.763958,45.607176],[-122.76471,45.60723],[-122.765827,45.607178],[-122.766216,45.607117],[-122.766349,45.60719],[-122.766502,45.60721],[-122.767971,45.606701],[-122.774989,45.606707],[-122.77999,45.606813],[-122.781751,45.60626],[-122.782373,45.606316],[-122.787586,45.614657],[-122.788008,45.615183],[-122.788548,45.61566],[-122.789033,45.616153],[-122.789348,45.616718],[-122.789598,45.6173],[-122.79042,45.620066],[-122.790501,45.622213],[-122.790524,45.624835],[-122.790069,45.62633],[-122.790006,45.627543],[-122.789866,45.62814],[-122.788617,45.631046],[-122.788335,45.631623],[-122.787714,45.632756],[-122.786636,45.634424],[-122.785823,45.634478],[-122.759685,45.63453],[-122.743348,45.634492],[-122.742995,45.634956],[-122.742985,45.635566],[-122.742611,45.635444],[-122.74204,45.634983],[-122.739811,45.633494],[-122.738416,45.632515],[-122.737349,45.631561],[-122.735312,45.630267],[-122.73344,45.629007],[-122.732426,45.628029],[-122.731781,45.627622],[-122.731094,45.627254],[-122.730305,45.6265],[-122.72936,45.625924],[-122.728579,45.625664],[-122.727882,45.625305],[-122.726128,45.624302],[-122.723451,45.62302],[-122.717948,45.61991],[-122.716179,45.61906],[-122.712429,45.61754],[-122.712088,45.617424],[-122.710827,45.617106],[-122.709462,45.616332],[-122.708791,45.616108],[-122.707905,45.615622],[-122.706505,45.615085],[-122.705878,45.614876],[-122.70506,45.61448],[-122.7043,45.61419],[-122.704094,45.613897],[-122.704211,45.613826],[-122.70501,45.612492],[-122.705135,45.612345],[-122.718742,45.601161],[-122.719337,45.600792],[-122.720128,45.601043],[-122.721027,45.60127],[-122.721627,45.601349]]],[[[-122.7308,45.566814],[-122.737099,45.570723],[-122.746399,45.577081],[-122.741249,45.581419],[-122.74014,45.582271],[-122.735535,45.58608],[-122.732029,45.585226],[-122.730025,45.584488],[-122.72924,45.584396],[-122.728029,45.586028],[-122.727319,45.586217],[-122.72644,45.586227],[-122.725596,45.586312],[-122.726011,45.58577],[-122.725561,45.585344],[-122.721697,45.583925],[-122.720868,45.583812],[-122.71999,45.583852],[-122.715474,45.583893],[-122.713887,45.58384],[-122.708055,45.58383],[-122.708091,45.575248],[-122.709203,45.575371],[-122.710074,45.575423],[-122.712684,45.575541],[-122.713563,45.575539],[-122.71443,45.575492],[-122.718637,45.574755],[-122.720213,45.574191],[-122.721429,45.573596],[-122.721545,45.573494],[-122.721927,45.572961],[-122.724099,45.570892],[-122.7308,45.566814]]]]}},{"type":"Feature","properties":{"name":"Beaumont Middle School","school_label":"Beaumont Middle School Neighborhood","cluster":"Grant","clusters":[{"name":"Grant","share":1.0}],"level":"6-8","area_sqmi":2.82},"geometry":{"type":"MultiPolygon","coordinates":[[[[-122.634768,45.531037],[-122.635682,45.530806],[-122.636449,45.5307],[-122.644431,45.530315],[-122.64439,45.535034],[-122.644449,45.535162],[-122.644538,45.535229],[-122.644659,45.535265],[-122.664267,45.535339],[-122.664264,45.535582],[-122.663451,45.535598],[-122.663344,45.535646],[-122.663251,45.535762],[-122.663234,45.536524],[-122.663259,45.536607],[-122.663437,45.536734],[-122.663752,45.536751],[-122.663745,45.536857],[-122.661478,45.536854],[-122.661359,45.536887],[-122.661233,45.536989],[-122.661204,45.537081],[-122.661139,45.543834],[-122.661161,45.544459],[-122.658459,45.544449],[-122.658329,45.544467],[-122.65818,45.544553],[-122.65813,45.544676],[-122.658098,45.548053],[-122.654646,45.548042],[-122.654669,45.546235],[-122.655483,45.54622],[-122.655632,45.546133],[-122.655683,45.546048],[-122.655697,45.545217],[-122.655672,45.545134],[-122.655605,45.545059],[-122.655429,45.544994],[-122.642015,45.54494],[-122.640832,45.544962],[-122.640694,45.545049],[-122.640634,45.545179],[-122.640655,45.546711],[-122.640599,45.550378],[-122.640458,45.550365],[-122.640328,45.550398],[-122.639981,45.550709],[-122.639923,45.550901],[-122.639786,45.55101],[-122.638483,45.552856],[-122.633685,45.552839],[-122.63346,45.552911],[-122.633366,45.553028],[-122.633344,45.555185],[-122.630836,45.55517],[-122.630838,45.553654],[-122.630747,45.553533],[-122.630582,45.553468],[-122.620391,45.553489],[-122.620079,45.553548],[-122.615086,45.553526],[-122.615104,45.551857],[-122.615058,45.551774],[-122.614913,45.551685],[-122.609833,45.551641],[-122.609894,45.548371],[-122.609824,45.548227],[-122.609612,45.548079],[-122.604717,45.548031],[-122.604782,45.542375],[-122.607212,45.541416],[-122.607291,45.541483],[-122.607445,45.541541],[-122.610299,45.541565],[-122.610398,45.541601],[-122.610466,45.541691],[-122.610532,45.542033],[-122.610655,45.54213],[-122.610775,45.542158],[-122.610959,45.54214],[-122.61133,45.541889],[-122.611588,45.5418],[-122.611804,45.541796],[-122.612188,45.541896],[-122.612863,45.541983],[-122.613286,45.541975],[-122.613846,45.541835],[-122.614898,45.541831],[-122.615059,45.541774],[-122.615132,45.541697],[-122.615162,45.541613],[-122.61517,45.541216],[-122.615203,45.534013],[-122.621182,45.53404],[-122.622137,45.534068],[-122.623677,45.53404],[-122.624705,45.534272],[-122.624922,45.534268],[-122.632485,45.531209],[-122.634219,45.530536],[-122.634582,45.530987],[-122.634768,45.531037]]]]}},{"type":"Feature","properties":{"name":"Brentwood Middle School","school_label":"Brentwood Middle School Russian Immersion","cluster":"Cleveland","clusters":[{"name":"Cleveland","share":0.55},{"name":"Franklin","share":0.45}],"level":"6-8","area_sqmi":4.2},"geometry":{"type":"MultiPolygon","coordinates":[[[[-122.620235,45.461684],[-122.638667,45.46173],[-122.638212,45.463591],[-122.638153,45.464057],[-122.637145,45.464076],[-122.636955,45.464201],[-122.636925,45.464285],[-122.63836,45.470607],[-122.638609,45.471845],[-122.639186,45.474083],[-122.637693,45.474149],[-122.635818,45.474153],[-122.635397,45.474214],[-122.634903,45.474338],[-122.634657,45.474434],[-122.634255,45.474708],[-122.634182,45.474786],[-122.634121,45.475221],[-122.634158,45.475358],[-122.63433,45.475621],[-122.634482,45.475939],[-122.634516,45.476296],[-122.634487,45.476693],[-122.634356,45.476985],[-122.634105,45.477249],[-122.633884,45.477428],[-122.63374,45.477652],[-122.633758,45.477857],[-122.633919,45.478121],[-122.634351,45.478395],[-122.634354,45.478494],[-122.634261,45.47861],[-122.633108,45.478807],[-122.632433,45.479033],[-122.632249,45.479029],[-122.631387,45.478885],[-122.630922,45.478893],[-122.630231,45.47899],[-122.628832,45.478955],[-122.628196,45.479074],[-122.627624,45.47913],[-122.626622,45.478989],[-122.623652,45.478983],[-122.623416,45.479048],[-122.623324,45.47921],[-122.623328,45.479957],[-122.623375,45.48007],[-122.62338,45.480527],[-122.62332,45.480658],[-122.62331,45.482571],[-122.622606,45.482569],[-122.622445,45.482633],[-122.622372,45.48271],[-122.622343,45.482795],[-122.62234,45.486468],[-122.620594,45.486463],[-122.620369,45.486528],[-122.620276,45.486644],[-122.620242,45.487544],[-122.620215,45.48772],[-122.620145,45.487881],[-122.617739,45.487887],[-122.617567,45.487952],[-122.617475,45.488113],[-122.617478,45.49008],[-122.610161,45.490093],[-122.601629,45.490059],[-122.601694,45.485652],[-122.602182,45.485651],[-122.602353,45.485587],[-122.602436,45.485471],[-122.602483,45.483062],[-122.602459,45.482979],[-122.602391,45.482904],[-122.602215,45.482838],[-122.599917,45.482835],[-122.599953,45.480083],[-122.599928,45.479992],[-122.599861,45.479917],[-122.599696,45.479851],[-122.597376,45.479848],[-122.597384,45.479124],[-122.597338,45.479041],[-122.597128,45.478945],[-122.592034,45.47894],[-122.591916,45.478972],[-122.591375,45.479317],[-122.589283,45.479302],[-122.588007,45.479386],[-122.581515,45.479398],[-122.578985,45.479261],[-122.578855,45.479286],[-122.57876,45.479349],[-122.578699,45.479479],[-122.578627,45.482446],[-122.577616,45.482052],[-122.575178,45.481449],[-122.575201,45.480831],[-122.57596,45.48084],[-122.576131,45.480776],[-122.576225,45.48066],[-122.576256,45.479341],[-122.57621,45.479258],[-122.576066,45.479177],[-122.57574,45.479152],[-122.575862,45.476017],[-122.57712,45.476056],[-122.577291,45.475992],[-122.577385,45.475876],[-122.577389,45.472469],[-122.579146,45.472513],[-122.579317,45.472449],[-122.579411,45.472333],[-122.579431,45.461762],[-122.585541,45.461727],[-122.587558,45.461766],[-122.602346,45.461717],[-122.610907,45.461742],[-122.620235,45.461684]]]]}},{"type":"Feature","properties":{"name":"George Middle School","school_label":"George Middle School Spanish Immersion","cluster":"Roosevelt","clusters":[{"name":"Roosevelt","share":1.0}],"level":"6-8","area_sqmi":5.9},"geometry":{"type":"MultiPolygon","coordinates":[[[[-122.702943,45.573693],[-122.70343,45.573958],[-122.703926,45.574162],[-122.705551,45.574657],[-122.707436,45.575131],[-122.707412,45.584056],[-122.707425,45.58414],[-122.707549,45.584244],[-122.707735,45.584286],[-122.714338,45.584296],[-122.715447,45.584351],[-122.720245,45.584304],[-122.721199,45.584263],[-122.725283,45.585754],[-122.724807,45.586411],[-122.72479,45.586548],[-122.724815,45.586639],[-122.724939,45.586744],[-122.725059,45.586779],[-122.726167,45.586765],[-122.726468,45.586683],[-122.728085,45.586667],[-122.728225,45.586642],[-122.728374,45.586547],[-122.729637,45.584861],[-122.731751,45.585643],[-122.735586,45.586575],[-122.73578,45.586548],[-122.735887,45.586493],[-122.740882,45.582356],[-122.741696,45.581761],[-122.746972,45.577313],[-122.755536,45.581048],[-122.755574,45.581184],[-122.755708,45.58128],[-122.75682,45.581708],[-122.763911,45.585501],[-122.766965,45.587895],[-122.766916,45.588033],[-122.766986,45.588169],[-122.771374,45.591954],[-122.77796,45.599613],[-122.781969,45.605684],[-122.779865,45.606359],[-122.775352,45.60625],[-122.767813,45.606247],[-122.766548,45.606714],[-122.766405,45.606648],[-122.766231,45.606644],[-122.765702,45.60673],[-122.764725,45.606772],[-122.763843,45.606698],[-122.762858,45.606497],[-122.762341,45.606332],[-122.760422,45.605577],[-122.75959,45.60538],[-122.75851,45.605279],[-122.757816,45.605308],[-122.757189,45.605381],[-122.756066,45.605579],[-122.755475,45.605735],[-122.754719,45.605857],[-122.754227,45.606369],[-122.754198,45.606454],[-122.754223,45.606537],[-122.755498,45.608692],[-122.753452,45.610081],[-122.752614,45.609739],[-122.751602,45.609416],[-122.749725,45.609186],[-122.749078,45.609016],[-122.74868,45.608833],[-122.74742,45.607958],[-122.746756,45.607628],[-122.746284,45.607485],[-122.745509,45.607394],[-122.745063,45.60738],[-122.744254,45.607243],[-122.743422,45.607053],[-122.741058,45.606894],[-122.740544,45.606805],[-122.740259,45.606711],[-122.739803,45.606431],[-122.739312,45.606074],[-122.738837,45.605573],[-122.738005,45.604819],[-122.737135,45.604204],[-122.736329,45.603846],[-122.735124,45.603565],[-122.734151,45.603408],[-122.732789,45.603297],[-122.730852,45.603198],[-122.730219,45.603104],[-122.729701,45.602915],[-122.729148,45.602637],[-122.728059,45.601972],[-122.726656,45.601328],[-122.725639,45.601142],[-122.724571,45.601041],[-122.722286,45.600948],[-122.721741,45.600898],[-122.721217,45.600832],[-122.719934,45.600498],[-122.718943,45.600121],[-122.717511,45.599265],[-122.716832,45.598828],[-122.715826,45.59804],[-122.714746,45.597306],[-122.713019,45.596409],[-122.712205,45.596135],[-122.710084,45.595757],[-122.709481,45.595609],[-122.708282,45.595174],[-122.706699,45.594671],[-122.705912,45.594519],[-122.704802,45.594464],[-122.703554,45.594495],[-122.702334,45.594382],[-122.701733,45.594279],[-122.700951,45.593989],[-122.698648,45.593385],[-122.695809,45.592357],[-122.695202,45.592087],[-122.694366,45.591791],[-122.693313,45.591491],[-122.689298,45.590081],[-122.688662,45.58991],[-122.685519,45.589193],[-122.684969,45.588997],[-122.68424,45.588646],[-122.683294,45.588313],[-122.682408,45.588124],[-122.68107,45.588066],[-122.679017,45.583509],[-122.678817,45.582469],[-122.678717,45.581182],[-122.678758,45.577462],[-122.681903,45.577372],[-122.702642,45.57738],[-122.702813,45.577308],[-122.702946,45.577084],[-122.702943,45.573693]]]]}},{"type":"Feature","properties":{"name":"Gray Middle School","school_label":"Gray Middle School Neighborhood","cluster":"Wells-Barnett","clusters":[{"name":"Wells-Barnett","share":1.0}],"level":"6-8","area_sqmi":6.43},"geometry":{"type":"MultiPolygon","coordinates":[[[[-122.705249,45.461657],[-122.707542,45.460347],[-122.707529,45.460873],[-122.707559,45.461719],[-122.707584,45.461802],[-122.707652,45.461877],[-122.707882,45.461941],[-122.722949,45.462099],[-122.722942,45.465484],[-122.722967,45.465567],[-122.723035,45.465642],[-122.723211,45.465707],[-122.723653,45.465645],[-122.725614,45.465645],[-122.725883,45.465594],[-122.72614,45.465498],[-122.726792,45.464967],[-122.726937,45.464773],[-122.726976,45.464666],[-122.726969,45.464483],[-122.726898,45.464294],[-122.726574,45.463744],[-122.726647,45.463651],[-122.726807,45.463595],[-122.728079,45.464019],[-122.728574,45.464216],[-122.72911,45.464655],[-122.72931,45.464781],[-122.729879,45.464922],[-122.730301,45.464906],[-122.731288,45.464628],[-122.731698,45.464582],[-122.735381,45.465432],[-122.735835,45.465416],[-122.736986,45.465164],[-122.73718,45.465161],[-122.743448,45.465854],[-122.743448,45.473232],[-122.743475,45.47426],[-122.743436,45.474649],[-122.743422,45.475473],[-122.743448,45.475564],[-122.743636,45.47569],[-122.743638,45.475735],[-122.743468,45.475823],[-122.743417,45.475907],[-122.743404,45.476449],[-122.743463,45.476577],[-122.743477,45.47753],[-122.743437,45.478216],[-122.743473,45.480083],[-122.743465,45.484565],[-122.743535,45.489998],[-122.74353,45.492528],[-122.743309,45.492998],[-122.743205,45.493411],[-122.743162,45.493725],[-122.742969,45.494369],[-122.742749,45.494861],[-122.742472,45.495285],[-122.742066,45.495751],[-122.741584,45.49621],[-122.740962,45.496687],[-122.740164,45.497099],[-122.739963,45.497232],[-122.739681,45.497527],[-122.739527,45.497774],[-122.73952,45.498155],[-122.739581,45.49836],[-122.73978,45.498752],[-122.739813,45.499057],[-122.73991,45.499337],[-122.740137,45.499622],[-122.740317,45.499786],[-122.74042,45.499952],[-122.740915,45.501009],[-122.740911,45.501192],[-122.740791,45.501484],[-122.740187,45.502167],[-122.739998,45.502315],[-122.739741,45.502419],[-122.738131,45.502862],[-122.737596,45.503056],[-122.7364,45.503864],[-122.736129,45.504159],[-122.735996,45.50436],[-122.735409,45.504341],[-122.735507,45.504042],[-122.73561,45.503902],[-122.7359,45.503828],[-122.736103,45.50374],[-122.736229,45.503639],[-122.736426,45.503383],[-122.736441,45.503208],[-122.736371,45.503072],[-122.735653,45.502712],[-122.736891,45.501278],[-122.736932,45.501201],[-122.736928,45.50111],[-122.736837,45.500997],[-122.736607,45.500933],[-122.735696,45.500936],[-122.735568,45.500976],[-122.734457,45.502317],[-122.734236,45.502222],[-122.733914,45.502289],[-122.733906,45.500887],[-122.733859,45.500804],[-122.733715,45.500723],[-122.73327,45.500701],[-122.733273,45.500503],[-122.733127,45.500361],[-122.733018,45.500325],[-122.732551,45.500319],[-122.732462,45.500252],[-122.732276,45.50021],[-122.731072,45.500203],[-122.730912,45.500267],[-122.730818,45.500383],[-122.73081,45.500741],[-122.730625,45.500737],[-122.730547,45.500655],[-122.730436,45.500604],[-122.730044,45.500566],[-122.730036,45.498859],[-122.730073,45.498393],[-122.729981,45.498242],[-122.729368,45.497789],[-122.729203,45.497716],[-122.727794,45.497728],[-122.727161,45.497916],[-122.726396,45.49806],[-122.726201,45.498064],[-122.725667,45.497976],[-122.725396,45.497981],[-122.724576,45.498096],[-122.724265,45.498178],[-122.723848,45.498339],[-122.722385,45.498969],[-122.720425,45.498748],[-122.719489,45.498926],[-122.718836,45.499167],[-122.718104,45.499601],[-122.717904,45.499788],[-122.717687,45.500066],[-122.717202,45.499855],[-122.716908,45.499822],[-122.7168,45.499824],[-122.716135,45.500028],[-122.714688,45.500802],[-122.713981,45.501334],[-122.713779,45.501445],[-122.713177,45.501883],[-122.71225,45.501429],[-122.711856,45.501345],[-122.7114,45.501331],[-122.7113,45.501249],[-122.711242,45.501143],[-122.7113,45.500967],[-122.71129,45.500075],[-122.711353,45.499731],[-122.711342,45.499419],[-122.710981,45.498428],[-122.71052,45.497682],[-122.710224,45.497306],[-122.709481,45.496825],[-122.708898,45.496303],[-122.7085,45.496097],[-122.708094,45.495976],[-122.707472,45.495866],[-122.707167,45.495826],[-122.706375,45.495795],[-122.706394,45.495719],[-122.706531,45.495625],[-122.70705,45.49499],[-122.707087,45.494806],[-122.706993,45.494602],[-122.706694,45.494425],[-122.706497,45.494375],[-122.70604,45.494338],[-122.70551,45.494364],[-122.704779,45.49453],[-122.704691,45.494517],[-122.704646,45.494464],[-122.704744,45.494158],[-122.704748,45.49399],[-122.704666,45.493824],[-122.704587,45.493734],[-122.70441,45.49363],[-122.704093,45.493568],[-122.70379,45.493566],[-122.70387,45.493077],[-122.703853,45.492902],[-122.70376,45.492736],[-122.703544,45.492473],[-122.703309,45.492257],[-122.703,45.492103],[-122.702714,45.492009],[-122.70229,45.491964],[-122.701966,45.491993],[-122.701236,45.492205],[-122.701053,45.492224],[-122.700975,45.492172],[-122.70093,45.49212],[-122.700937,45.49202],[-122.701073,45.491599],[-122.701068,45.491446],[-122.701008,45.491287],[-122.700772,45.491071],[-122.700181,45.490899],[-122.700012,45.490712],[-122.699896,45.490516],[-122.699838,45.490098],[-122.699712,45.489918],[-122.699489,45.489747],[-122.698754,45.489517],[-122.698648,45.489267],[-122.698525,45.489163],[-122.698415,45.489127],[-122.695054,45.489115],[-122.694829,45.48918],[-122.694735,45.489289],[-122.694368,45.489342],[-122.692666,45.489344],[-122.692512,45.489286],[-122.691753,45.489285],[-122.691465,45.489092],[-122.691214,45.489051],[-122.691042,45.489108],[-122.690926,45.489187],[-122.690513,45.489156],[-122.690288,45.489237],[-122.690226,45.489322],[-122.689892,45.490266],[-122.686758,45.490242],[-122.686572,45.490192],[-122.686328,45.48945],[-122.685934,45.488741],[-122.685854,45.488331],[-122.685865,45.488026],[-122.686101,45.48735],[-122.686138,45.487159],[-122.686073,45.486863],[-122.685868,45.486577],[-122.685623,45.486414],[-122.684107,45.485841],[-122.683937,45.485654],[-122.683889,45.48551],[-122.683915,45.485327],[-122.684112,45.485079],[-122.684864,45.484584],[-122.685009,45.484391],[-122.685076,45.484138],[-122.685071,45.484009],[-122.685023,45.483873],[-122.684933,45.483798],[-122.684748,45.483756],[-122.681179,45.483702],[-122.681081,45.483368],[-122.680779,45.481888],[-122.680603,45.480306],[-122.679697,45.474356],[-122.679573,45.474236],[-122.679377,45.474194],[-122.677351,45.474217],[-122.677333,45.473707],[-122.677363,45.473036],[-122.677315,45.472907],[-122.677106,45.472812],[-122.676282,45.472805],[-122.676087,45.472519],[-122.675672,45.47213],[-122.675625,45.472025],[-122.675595,45.471781],[-122.675627,45.471476],[-122.675514,45.471325],[-122.675202,45.471095],[-122.675183,45.470852],[-122.674999,45.470565],[-122.674821,45.470432],[-122.674686,45.470289],[-122.674593,45.470131],[-122.674493,45.470064],[-122.674275,45.470008],[-122.673885,45.47003],[-122.673416,45.469932],[-122.673257,45.469417],[-122.67311,45.469252],[-122.672988,45.469178],[-122.673237,45.468259],[-122.674461,45.468541],[-122.675393,45.468546],[-122.675523,45.468536],[-122.675671,45.468449],[-122.675702,45.46841],[-122.675718,45.468227],[-122.677809,45.468233],[-122.677814,45.468378],[-122.677861,45.468461],[-122.678059,45.468556],[-122.678461,45.468571],[-122.678668,45.468613],[-122.680077,45.468617],[-122.680196,45.468607],[-122.680334,45.468528],[-122.680573,45.468531],[-122.680963,45.468844],[-122.681235,45.468877],[-122.681282,45.468967],[-122.681447,45.469056],[-122.681752,45.46908],[-122.681935,45.469054],[-122.682031,45.469006],[-122.682093,45.468929],[-122.682157,45.468608],[-122.682822,45.468412],[-122.682845,45.468427],[-122.682749,45.468474],[-122.682666,45.468598],[-122.682681,45.468689],[-122.682738,45.468772],[-122.683195,45.469137],[-122.68336,45.469202],[-122.68349,45.469207],[-122.683693,45.46912],[-122.684269,45.469459],[-122.684196,45.469544],[-122.684167,45.469636],[-122.684189,45.470261],[-122.684292,45.470419],[-122.684446,45.470477],[-122.684947,45.470559],[-122.685523,45.470601],[-122.685292,45.471094],[-122.68535,45.471222],[-122.685439,45.471281],[-122.685614,45.471316],[-122.686666,45.471334],[-122.687757,45.471229],[-122.688563,45.471046],[-122.688917,45.470948],[-122.689845,45.470542],[-122.697012,45.466411],[-122.699157,45.465196],[-122.699626,45.464973],[-122.700559,45.464399],[-122.702916,45.463058],[-122.705249,45.461657]]]]}},{"type":"Feature","properties":{"name":"Harriet Tubman Middle School","school_label":"Harriet Tubman Middle School Mandarin Immersion","cluster":"Jefferson","clusters":[{"name":"Jefferson","share":1.0}],"level":"6-8","area_sqmi":3.88},"geometry":{"type":"MultiPolygon","coordinates":[[[[-122.674091,45.532142],[-122.682747,45.538159],[-122.686854,45.540733],[-122.685433,45.541964],[-122.685071,45.542169],[-122.680551,45.545342],[-122.679207,45.546602],[-122.678387,45.547936],[-122.678358,45.548028],[-122.678325,45.553486],[-122.678282,45.554417],[-122.676318,45.554431],[-122.676211,45.554479],[-122.676128,45.554595],[-122.67611,45.555281],[-122.675177,45.555299],[-122.674489,45.555792],[-122.674457,45.558239],[-122.674529,45.558436],[-122.674499,45.560944],[-122.672795,45.560945],[-122.672558,45.561011],[-122.672466,45.561173],[-122.672448,45.562476],[-122.664601,45.56251],[-122.664418,45.562544],[-122.664282,45.562692],[-122.664244,45.566213],[-122.661291,45.566201],[-122.661083,45.566159],[-122.659464,45.566121],[-122.657174,45.566126],[-122.6498,45.566043],[-122.649671,45.566076],[-122.649587,45.566146],[-122.649487,45.566407],[-122.649475,45.568229],[-122.646436,45.568225],[-122.64621,45.56829],[-122.646116,45.568406],[-122.646112,45.568909],[-122.643627,45.568917],[-122.643624,45.568231],[-122.643599,45.56814],[-122.643476,45.568036],[-122.643301,45.568001],[-122.641488,45.568005],[-122.641493,45.566274],[-122.641468,45.566183],[-122.641345,45.566079],[-122.641224,45.566043],[-122.638283,45.566052],[-122.638284,45.562668],[-122.638193,45.562556],[-122.638028,45.56249],[-122.630474,45.562509],[-122.621228,45.562589],[-122.614324,45.562564],[-122.614367,45.560665],[-122.614736,45.560666],[-122.614854,45.560633],[-122.61495,45.560571],[-122.61501,45.56044],[-122.615024,45.559281],[-122.614963,45.559069],[-122.615007,45.555654],[-122.615057,45.555508],[-122.61508,45.553983],[-122.620116,45.554005],[-122.62044,45.553953],[-122.630185,45.553925],[-122.630184,45.555449],[-122.630319,45.555592],[-122.630505,45.555634],[-122.633793,45.555626],[-122.6339,45.555578],[-122.633994,45.555455],[-122.634016,45.553297],[-122.638781,45.553315],[-122.638975,45.553281],[-122.639091,45.553165],[-122.639107,45.553004],[-122.640347,45.551244],[-122.640527,45.551103],[-122.640585,45.550904],[-122.640903,45.551012],[-122.641129,45.550947],[-122.641203,45.550877],[-122.641232,45.550785],[-122.641283,45.549466],[-122.641293,45.545403],[-122.655043,45.545443],[-122.655033,45.545778],[-122.654284,45.545777],[-122.654166,45.54581],[-122.65404,45.545919],[-122.653992,45.548267],[-122.654051,45.548396],[-122.654195,45.548477],[-122.654315,45.548498],[-122.65845,45.548511],[-122.658687,45.548453],[-122.658781,45.548337],[-122.658753,45.54817],[-122.658779,45.544908],[-122.66134,45.544921],[-122.661684,45.54483],[-122.66182,45.544683],[-122.66179,45.543837],[-122.661852,45.537312],[-122.664131,45.537315],[-122.664302,45.537251],[-122.664395,45.537135],[-122.664406,45.536525],[-122.664382,45.536441],[-122.664314,45.536367],[-122.664204,45.536315],[-122.663888,45.536298],[-122.663901,45.536039],[-122.664584,45.536041],[-122.664821,45.535976],[-122.664913,45.535814],[-122.664918,45.535341],[-122.667641,45.535343],[-122.668443,45.535313],[-122.668912,45.535091],[-122.669921,45.534462],[-122.674091,45.532142]]]]}},{"type":"Feature","properties":{"name":"Harrison Park Middle School","school_label":"Harrison Park Middle School Mandarin Immersion","cluster":"McDaniel","clusters":[{"name":"McDaniel","share":0.54},{"name":"Franklin","share":0.46}],"level":"6-8","area_sqmi":5.4},"geometry":{"type":"MultiPolygon","coordinates":[[[[-122.553538,45.464439],[-122.55352,45.461299],[-122.558113,45.461286],[-122.568656,45.461606],[-122.578781,45.461758],[-122.578772,45.472047],[-122.576972,45.472004],[-122.576758,45.472099],[-122.576698,45.47223],[-122.576734,45.472328],[-122.576736,45.47559],[-122.575553,45.475551],[-122.575317,45.475616],[-122.575223,45.475732],[-122.575088,45.479408],[-122.575134,45.479491],[-122.575278,45.47958],[-122.575604,45.479604],[-122.575587,45.480382],[-122.574817,45.480373],[-122.574699,45.480406],[-122.574614,45.480468],[-122.574554,45.480599],[-122.574515,45.482032],[-122.574071,45.48204],[-122.573953,45.482073],[-122.573817,45.48222],[-122.573787,45.48357],[-122.573798,45.48581],[-122.573707,45.490179],[-122.573766,45.490307],[-122.57392,45.490396],[-122.574932,45.490492],[-122.576449,45.49048],[-122.576463,45.491524],[-122.576487,45.491615],[-122.576555,45.49169],[-122.576665,45.491741],[-122.576796,45.491754],[-122.578444,45.491755],[-122.578308,45.500529],[-122.57833,45.50216],[-122.578297,45.503425],[-122.578303,45.504881],[-122.578394,45.505001],[-122.578548,45.50506],[-122.580697,45.505424],[-122.582146,45.505627],[-122.593336,45.505621],[-122.593328,45.506978],[-122.592374,45.50698],[-122.592256,45.507013],[-122.592171,45.507075],[-122.59212,45.50716],[-122.592121,45.507823],[-122.592093,45.507968],[-122.591516,45.508512],[-122.590929,45.509438],[-122.590484,45.510063],[-122.590225,45.510723],[-122.590155,45.51122],[-122.590133,45.51186],[-122.590348,45.512436],[-122.590364,45.512596],[-122.590321,45.512909],[-122.590321,45.513221],[-122.590362,45.51348],[-122.590542,45.513995],[-122.59079,45.514585],[-122.591041,45.514938],[-122.591267,45.515193],[-122.591823,45.515617],[-122.591809,45.519009],[-122.588565,45.518992],[-122.588425,45.519018],[-122.588234,45.519135],[-122.588171,45.519205],[-122.588152,45.519282],[-122.588142,45.519937],[-122.588179,45.520066],[-122.587941,45.520093],[-122.587771,45.520196],[-122.587667,45.520312],[-122.587671,45.520441],[-122.587861,45.520613],[-122.589615,45.521458],[-122.590651,45.521926],[-122.59153,45.522269],[-122.591505,45.523123],[-122.59153,45.523214],[-122.591597,45.523289],[-122.591762,45.523354],[-122.592621,45.523392],[-122.597045,45.523357],[-122.598338,45.52312],[-122.601896,45.523116],[-122.601824,45.527972],[-122.601787,45.528788],[-122.599017,45.530264],[-122.591598,45.534103],[-122.590253,45.534745],[-122.589707,45.534961],[-122.588773,45.535245],[-122.588364,45.535336],[-122.587457,45.535459],[-122.587034,45.53549],[-122.585786,45.535459],[-122.585067,45.535365],[-122.58405,45.535132],[-122.582458,45.534582],[-122.581862,45.534303],[-122.57904,45.533295],[-122.573949,45.531619],[-122.572716,45.53139],[-122.571584,45.531281],[-122.570282,45.531274],[-122.568778,45.531393],[-122.568927,45.522641],[-122.568878,45.522474],[-122.568723,45.522378],[-122.567692,45.522358],[-122.567727,45.520505],[-122.567911,45.520495],[-122.568179,45.520413],[-122.568253,45.520351],[-122.568687,45.520351],[-122.568805,45.520318],[-122.568921,45.520217],[-122.56895,45.520125],[-122.568967,45.518357],[-122.56892,45.518274],[-122.568832,45.518214],[-122.568646,45.518172],[-122.564753,45.518189],[-122.564732,45.51402],[-122.564673,45.5139],[-122.564529,45.513811],[-122.563986,45.51379],[-122.564068,45.51106],[-122.564109,45.507775],[-122.567331,45.5078],[-122.567544,45.507705],[-122.567594,45.507575],[-122.567607,45.504419],[-122.567472,45.504277],[-122.567297,45.504234],[-122.553259,45.504029],[-122.553295,45.502184],[-122.553376,45.50203],[-122.553391,45.499889],[-122.558152,45.499895],[-122.558335,45.499861],[-122.558451,45.49976],[-122.55848,45.499675],[-122.558541,45.497289],[-122.563802,45.497362],[-122.564038,45.497297],[-122.564112,45.497219],[-122.564141,45.497135],[-122.564146,45.496632],[-122.564504,45.49664],[-122.564633,45.496608],[-122.564759,45.496499],[-122.565037,45.495396],[-122.565214,45.493564],[-122.5652,45.493473],[-122.565132,45.49339],[-122.564891,45.493318],[-122.563373,45.493315],[-122.561062,45.493257],[-122.561142,45.493065],[-122.561159,45.491617],[-122.561134,45.491526],[-122.561011,45.491422],[-122.560826,45.491387],[-122.558623,45.491327],[-122.558646,45.489765],[-122.5586,45.489682],[-122.558511,45.489615],[-122.558326,45.48958],[-122.55606,45.489575],[-122.556054,45.489079],[-122.55603,45.488996],[-122.555962,45.488921],[-122.555852,45.488877],[-122.555418,45.488855],[-122.555327,45.488742],[-122.555108,45.488677],[-122.553483,45.488684],[-122.55349,45.488264],[-122.558356,45.48823],[-122.558538,45.488166],[-122.558632,45.48805],[-122.558605,45.483684],[-122.55858,45.483592],[-122.558512,45.483517],[-122.558272,45.483453],[-122.553497,45.483607],[-122.55349,45.482769],[-122.5534,45.482649],[-122.553147,45.482532],[-122.553168,45.481868],[-122.55323,45.481776],[-122.553263,45.478566],[-122.558315,45.47859],[-122.558487,45.478549],[-122.558613,45.478447],[-122.558651,45.476991],[-122.558626,45.476893],[-122.558581,45.476848],[-122.558482,45.476788],[-122.558252,45.476732],[-122.555896,45.476286],[-122.555893,45.475555],[-122.556053,45.475468],[-122.556104,45.475383],[-122.556125,45.471793],[-122.556067,45.471664],[-122.555847,45.471569],[-122.553551,45.471611],[-122.55355,45.471588],[-122.555839,45.471356],[-122.556064,45.471261],[-122.556115,45.471176],[-122.556127,45.470223],[-122.556441,45.470217],[-122.556547,45.470162],[-122.55663,45.470046],[-122.556625,45.469559],[-122.5566,45.469475],[-122.556533,45.4694],[-122.556422,45.469349],[-122.55614,45.469331],[-122.556136,45.469202],[-122.556461,45.469196],[-122.556632,45.469132],[-122.556715,45.469016],[-122.556721,45.468871],[-122.556838,45.468823],[-122.556932,45.4687],[-122.556891,45.468121],[-122.556768,45.468024],[-122.556648,45.467988],[-122.556128,45.467998],[-122.556129,45.4677],[-122.556888,45.46771],[-122.556914,45.467846],[-122.557037,45.467951],[-122.557222,45.467986],[-122.557493,45.467981],[-122.557676,45.467939],[-122.55776,45.467877],[-122.557809,45.467708],[-122.558426,45.467705],[-122.558587,45.467641],[-122.55866,45.467563],[-122.55869,45.467479],[-122.558686,45.465764],[-122.559242,45.465869],[-122.559425,45.465827],[-122.559541,45.465726],[-122.559571,45.465642],[-122.559591,45.464635],[-122.559533,45.464507],[-122.559389,45.464425],[-122.559258,45.464405],[-122.553538,45.464439]]]]}},{"type":"Feature","properties":{"name":"Hosford Middle School","school_label":"Hosford Middle School Neighborhood","cluster":"Cleveland","clusters":[{"name":"Cleveland","share":1.0}],"level":"6-8","area_sqmi":9.81},"geometry":{"type":"MultiPolygon","coordinates":[[[[-122.652375,45.455605],[-122.652709,45.458327],[-122.652768,45.458455],[-122.652934,45.458544],[-122.659475,45.458154],[-122.661165,45.45784],[-122.663649,45.461589],[-122.665405,45.465595],[-122.666134,45.471175],[-122.668521,45.483454],[-122.668783,45.484448],[-122.668822,45.48463],[-122.668806,45.484783],[-122.669036,45.485769],[-122.668989,45.487782],[-122.66789,45.49166],[-122.666392,45.49527],[-122.665638,45.499065],[-122.666124,45.501167],[-122.669302,45.5076],[-122.670619,45.51323],[-122.66923,45.517784],[-122.667892,45.520423],[-122.667564,45.523097],[-122.668569,45.527575],[-122.668629,45.527741],[-122.673645,45.531808],[-122.670102,45.533773],[-122.66852,45.534725],[-122.66821,45.534875],[-122.645044,45.534808],[-122.645084,45.530074],[-122.645025,45.529938],[-122.64487,45.529857],[-122.64474,45.529844],[-122.63639,45.530244],[-122.635709,45.530326],[-122.634934,45.530508],[-122.634741,45.530252],[-122.634717,45.530176],[-122.634751,45.524338],[-122.634693,45.524217],[-122.634604,45.52415],[-122.634483,45.524114],[-122.631934,45.524108],[-122.631941,45.522134],[-122.631882,45.521998],[-122.631716,45.521917],[-122.629395,45.521915],[-122.628846,45.522031],[-122.628662,45.522042],[-122.627877,45.521928],[-122.627389,45.521937],[-122.626233,45.522057],[-122.624165,45.522476],[-122.623636,45.522547],[-122.623267,45.522562],[-122.6233,45.519749],[-122.623263,45.519307],[-122.623282,45.518598],[-122.623234,45.51661],[-122.623173,45.516421],[-122.623084,45.516354],[-122.622909,45.516311],[-122.622683,45.516361],[-122.619679,45.516356],[-122.619684,45.515258],[-122.620226,45.51524],[-122.620333,45.515193],[-122.620426,45.515069],[-122.620449,45.512287],[-122.62277,45.51229],[-122.623017,45.512216],[-122.623099,45.512085],[-122.622924,45.505496],[-122.622922,45.500748],[-122.626326,45.500738],[-122.626433,45.50069],[-122.626526,45.500567],[-122.62653,45.500041],[-122.628612,45.50004],[-122.628783,45.499976],[-122.628876,45.49986],[-122.628873,45.499151],[-122.628813,45.49897],[-122.628724,45.498903],[-122.628593,45.498867],[-122.626532,45.498867],[-122.626513,45.497054],[-122.626488,45.496963],[-122.626409,45.496888],[-122.626288,45.496837],[-122.626147,45.496832],[-122.626097,45.496627],[-122.626028,45.496514],[-122.625939,45.496454],[-122.624785,45.495996],[-122.624423,45.495896],[-122.62414,45.495863],[-122.622947,45.495854],[-122.622958,45.493347],[-122.622933,45.493256],[-122.622866,45.493181],[-122.622636,45.493117],[-122.619296,45.49311],[-122.619306,45.490267],[-122.619215,45.490147],[-122.619051,45.490089],[-122.618129,45.490083],[-122.618123,45.488338],[-122.620507,45.488324],[-122.620687,45.488191],[-122.620847,45.487799],[-122.620894,45.487593],[-122.620914,45.486922],[-122.622659,45.486927],[-122.622842,45.486886],[-122.622969,45.486785],[-122.62299,45.483027],[-122.623695,45.483029],[-122.623866,45.482965],[-122.623949,45.482849],[-122.623961,45.480715],[-122.624022,45.480584],[-122.624035,45.480035],[-122.623976,45.479876],[-122.623971,45.479442],[-122.626573,45.479447],[-122.627292,45.479571],[-122.627597,45.479588],[-122.627975,45.479573],[-122.629042,45.479401],[-122.629922,45.479461],[-122.630291,45.479446],[-122.631013,45.479349],[-122.63136,45.479343],[-122.632091,45.479474],[-122.632416,45.479491],[-122.63274,45.479446],[-122.633318,45.479245],[-122.634579,45.479024],[-122.634717,45.478945],[-122.634895,45.478774],[-122.634986,45.478589],[-122.635023,45.47839],[-122.634929,45.478179],[-122.634839,45.478081],[-122.634451,45.477852],[-122.634393,45.477731],[-122.634948,45.47718],[-122.63507,45.476949],[-122.635147,45.476673],[-122.635157,45.476033],[-122.635106,45.475797],[-122.63477,45.475179],[-122.634805,45.474957],[-122.634858,45.47491],[-122.635007,45.474824],[-122.635328,45.474711],[-122.63592,45.474609],[-122.637708,45.474606],[-122.639667,45.474516],[-122.639785,45.474468],[-122.639869,45.47439],[-122.639896,45.474252],[-122.639256,45.471764],[-122.638212,45.46699],[-122.637638,45.464531],[-122.638536,45.464499],[-122.638654,45.464459],[-122.638769,45.464342],[-122.638864,45.463632],[-122.639328,45.461733],[-122.641517,45.461723],[-122.641657,45.461697],[-122.641805,45.461595],[-122.64184,45.461351],[-122.641812,45.459941],[-122.641701,45.45893],[-122.643596,45.458902],[-122.646988,45.458937],[-122.647128,45.458912],[-122.647277,45.458825],[-122.647315,45.458687],[-122.64698,45.455935],[-122.652375,45.455605]]]]}},{"type":"Feature","properties":{"name":"Jackson Middle School","school_label":"Jackson Middle School Neighborhood","cluster":"Wells-Barnett","clusters":[{"name":"Wells-Barnett","share":1.0}],"level":"6-8","area_sqmi":8.71},"geometry":{"type":"MultiPolygon","coordinates":[[[[-122.718894,45.431043],[-122.719101,45.431085],[-122.71954,45.431244],[-122.719926,45.431442],[-122.720171,45.431613],[-122.720677,45.432129],[-122.721946,45.433659],[-122.722235,45.433867],[-122.722576,45.43402],[-122.722861,45.434099],[-122.724318,45.434261],[-122.724602,45.434324],[-122.725273,45.434623],[-122.725819,45.43475],[-122.726328,45.434748],[-122.726737,45.434671],[-122.73057,45.433453],[-122.733655,45.433423],[-122.735357,45.433466],[-122.743634,45.433518],[-122.743597,45.440462],[-122.743556,45.444663],[-122.743526,45.445311],[-122.743477,45.454878],[-122.7435,45.458147],[-122.743481,45.460579],[-122.743516,45.462102],[-122.743452,45.465389],[-122.737196,45.464703],[-122.736915,45.464709],[-122.7357,45.464969],[-122.735483,45.46498],[-122.732084,45.464178],[-122.731724,45.464124],[-122.731281,45.464148],[-122.730144,45.464459],[-122.729981,45.46447],[-122.729653,45.464385],[-122.729017,45.463879],[-122.728697,45.463725],[-122.72715,45.463192],[-122.72679,45.463138],[-122.726542,45.463165],[-122.726211,45.463309],[-122.726085,45.46341],[-122.725951,45.463596],[-122.725923,45.463711],[-122.725951,45.463886],[-122.726286,45.464451],[-122.726324,45.464602],[-122.726252,45.464718],[-122.725726,45.465148],[-122.725554,45.465189],[-122.723603,45.465189],[-122.723588,45.462399],[-122.723611,45.461835],[-122.723565,45.461752],[-122.723421,45.461663],[-122.719225,45.461592],[-122.715583,45.461579],[-122.708201,45.461485],[-122.708196,45.459854],[-122.708171,45.459756],[-122.708092,45.459681],[-122.707841,45.459625],[-122.707659,45.459674],[-122.699212,45.464615],[-122.698775,45.46483],[-122.696609,45.466053],[-122.689442,45.470184],[-122.689144,45.470334],[-122.688363,45.470616],[-122.687319,45.470819],[-122.686617,45.470878],[-122.686085,45.470865],[-122.686298,45.470449],[-122.686307,45.470404],[-122.686248,45.470267],[-122.686083,45.470187],[-122.684832,45.470073],[-122.684819,45.4697],[-122.685027,45.46946],[-122.685035,45.469376],[-122.684989,45.469293],[-122.684325,45.468909],[-122.683925,45.468635],[-122.68376,45.468577],[-122.683566,45.468596],[-122.683615,45.468466],[-122.683591,45.468382],[-122.683164,45.467964],[-122.682988,45.467898],[-122.682805,45.467917],[-122.681732,45.468235],[-122.681584,45.468321],[-122.681228,45.468382],[-122.681184,45.468344],[-122.681121,45.468117],[-122.681149,45.467971],[-122.681102,45.467888],[-122.680947,45.4678],[-122.680642,45.467752],[-122.680523,45.467755],[-122.680352,45.467819],[-122.680269,45.467935],[-122.680264,45.468072],[-122.679961,45.468086],[-122.679823,45.468164],[-122.678749,45.468154],[-122.678466,45.468114],[-122.678449,45.467924],[-122.678381,45.467849],[-122.678151,45.467777],[-122.675333,45.467777],[-122.67512,45.467873],[-122.675079,45.467957],[-122.675073,45.468087],[-122.674575,45.468089],[-122.673078,45.467744],[-122.672958,45.467731],[-122.672776,45.46778],[-122.672651,45.467927],[-122.672393,45.468892],[-122.672313,45.469397],[-122.672448,45.469539],[-122.672645,45.469581],[-122.672757,45.469991],[-122.67285,45.470164],[-122.672973,45.470269],[-122.673248,45.470385],[-122.673793,45.470482],[-122.674108,45.470491],[-122.674289,45.470701],[-122.674455,45.47082],[-122.674547,45.470963],[-122.67459,45.471252],[-122.674748,45.471431],[-122.674981,45.471595],[-122.674945,45.471778],[-122.674962,45.471961],[-122.675001,45.472151],[-122.675083,45.472317],[-122.675264,45.472534],[-122.675566,45.472795],[-122.675657,45.472923],[-122.675685,45.47309],[-122.675742,45.473173],[-122.67594,45.473261],[-122.67671,45.473261],[-122.676682,45.473712],[-122.676698,45.474443],[-122.676756,45.474572],[-122.6769,45.474653],[-122.67702,45.474673],[-122.67909,45.474657],[-122.679954,45.480357],[-122.68013,45.481946],[-122.680496,45.483692],[-122.680682,45.484047],[-122.680881,45.48415],[-122.684417,45.484212],[-122.684197,45.484414],[-122.683878,45.484588],[-122.683572,45.484823],[-122.683415,45.485001],[-122.683313,45.485155],[-122.683254,45.485339],[-122.683239,45.485522],[-122.683266,45.485659],[-122.683417,45.485953],[-122.683686,45.486192],[-122.683928,45.48631],[-122.685268,45.486802],[-122.685414,45.486929],[-122.685487,45.487164],[-122.685223,45.487946],[-122.685204,45.488343],[-122.685235,45.488579],[-122.685346,45.488965],[-122.685751,45.489689],[-122.685888,45.490182],[-122.685042,45.490175],[-122.685051,45.489512],[-122.685005,45.489429],[-122.684861,45.489348],[-122.682127,45.489301],[-122.681978,45.48938],[-122.681568,45.489716],[-122.681121,45.489945],[-122.68024,45.490183],[-122.679293,45.490384],[-122.678361,45.490691],[-122.67783,45.491014],[-122.677408,45.491334],[-122.677063,45.491684],[-122.676856,45.491962],[-122.676592,45.492463],[-122.676533,45.492929],[-122.676548,45.493363],[-122.676793,45.494448],[-122.6771,45.495166],[-122.677833,45.495953],[-122.678244,45.496539],[-122.678372,45.496765],[-122.67862,45.497355],[-122.67988,45.499526],[-122.680079,45.499934],[-122.678842,45.499912],[-122.676213,45.500076],[-122.6743,45.500265],[-122.666709,45.500835],[-122.666287,45.49903],[-122.667014,45.495388],[-122.668523,45.491777],[-122.669631,45.487854],[-122.669685,45.485727],[-122.669455,45.484732],[-122.669471,45.484587],[-122.669431,45.484367],[-122.669168,45.483374],[-122.666782,45.471125],[-122.666053,45.465529],[-122.664391,45.461735],[-122.67462,45.461754],[-122.674749,45.461729],[-122.674855,45.461666],[-122.674907,45.461581],[-122.675301,45.45287],[-122.67521,45.452757],[-122.674833,45.452505],[-122.673205,45.451218],[-122.673105,45.451128],[-122.673012,45.450962],[-122.673177,45.447064],[-122.67322,45.446751],[-122.673406,45.442556],[-122.673913,45.433034],[-122.702305,45.433208],[-122.702433,45.433167],[-122.702528,45.433089],[-122.702693,45.43285],[-122.702851,45.43245],[-122.703863,45.432583],[-122.703985,45.432642],[-122.704276,45.432903],[-122.704541,45.43305],[-122.705046,45.433246],[-122.707159,45.433876],[-122.707647,45.433898],[-122.70796,45.433846],[-122.708142,45.433797],[-122.708482,45.43363],[-122.70888,45.433843],[-122.709516,45.434052],[-122.710191,45.434169],[-122.710604,45.434199],[-122.710994,45.434191],[-122.71163,45.434126],[-122.71266,45.433846],[-122.713268,45.433903],[-122.713577,45.434042],[-122.713999,45.434331],[-122.714396,45.434529],[-122.715153,45.434804],[-122.715497,45.435019],[-122.715693,45.435053],[-122.715917,45.434965],[-122.716495,45.434466],[-122.716796,45.434125],[-122.716917,45.433871],[-122.716924,45.433772],[-122.716887,45.433643],[-122.716626,45.433312],[-122.719551,45.43334],[-122.719669,45.433307],[-122.719785,45.433213],[-122.720019,45.432507],[-122.720019,45.432202],[-122.719982,45.432081],[-122.719899,45.431885],[-122.71974,45.431674],[-122.718894,45.431043]]]]}},{"type":"Feature","properties":{"name":"Kellogg Middle School","school_label":"Kellogg Middle School Spanish Immersion","cluster":"Franklin","clusters":[{"name":"Franklin","share":1.0}],"level":"6-8","area_sqmi":3.3},"geometry":{"type":"MultiPolygon","coordinates":[[[[-122.596732,45.479395],[-122.596723,45.480073],[-122.596747,45.480164],[-122.596815,45.480239],[-122.596925,45.480283],[-122.5993,45.480308],[-122.599264,45.48306],[-122.599289,45.483151],[-122.599356,45.483226],[-122.599586,45.48329],[-122.60183,45.483295],[-122.601798,45.485193],[-122.601396,45.485178],[-122.601213,45.485204],[-122.601085,45.48529],[-122.601036,45.485421],[-122.600975,45.490292],[-122.601,45.490375],[-122.601067,45.49045],[-122.601298,45.490522],[-122.610134,45.49055],[-122.618654,45.490538],[-122.618623,45.493092],[-122.618742,45.493372],[-122.619029,45.493526],[-122.619204,45.493569],[-122.622305,45.493572],[-122.622294,45.49608],[-122.622353,45.496208],[-122.622497,45.496297],[-122.622627,45.49631],[-122.624069,45.496314],[-122.624276,45.496341],[-122.625485,45.496798],[-122.625585,45.4972],[-122.62574,45.497289],[-122.625871,45.497309],[-122.625879,45.4991],[-122.625927,45.499229],[-122.626082,45.49931],[-122.626202,45.499331],[-122.628229,45.499323],[-122.628227,45.499583],[-122.626081,45.4996],[-122.625974,45.499647],[-122.625881,45.499771],[-122.625877,45.500297],[-122.622538,45.500298],[-122.622324,45.500393],[-122.622275,45.500524],[-122.622259,45.501949],[-122.622257,45.504091],[-122.622285,45.504578],[-122.619466,45.504585],[-122.619079,45.504691],[-122.61857,45.505005],[-122.6183,45.505048],[-122.61108,45.50509],[-122.610897,45.505131],[-122.610781,45.50524],[-122.610763,45.505332],[-122.610847,45.505567],[-122.610911,45.50805],[-122.611181,45.511802],[-122.607049,45.511802],[-122.607035,45.511703],[-122.606933,45.511568],[-122.606822,45.511509],[-122.606681,45.511489],[-122.602122,45.511679],[-122.602082,45.509897],[-122.601979,45.509731],[-122.601749,45.509667],[-122.598072,45.509665],[-122.598019,45.507166],[-122.597961,45.507046],[-122.597872,45.506979],[-122.597686,45.506944],[-122.593979,45.506974],[-122.593988,45.50535],[-122.593897,45.50523],[-122.593733,45.505164],[-122.582184,45.505169],[-122.581313,45.505055],[-122.578957,45.504656],[-122.578948,45.503429],[-122.578981,45.502163],[-122.578958,45.500533],[-122.578986,45.50006],[-122.578994,45.49743],[-122.579092,45.491385],[-122.579046,45.491302],[-122.578957,45.491242],[-122.578772,45.4912],[-122.578599,45.491233],[-122.578493,45.491296],[-122.577116,45.491298],[-122.577101,45.490209],[-122.577011,45.490096],[-122.5769,45.490045],[-122.576781,45.490024],[-122.574949,45.490034],[-122.574361,45.489977],[-122.574448,45.485806],[-122.574455,45.482491],[-122.574943,45.482489],[-122.575156,45.482394],[-122.575206,45.482271],[-122.575159,45.482143],[-122.575173,45.481929],[-122.577316,45.482462],[-122.578874,45.483043],[-122.579069,45.483032],[-122.579187,45.482984],[-122.57926,45.482907],[-122.579279,45.482815],[-122.579347,45.479734],[-122.581487,45.479856],[-122.588055,45.479843],[-122.58932,45.479759],[-122.591553,45.479771],[-122.591714,45.479723],[-122.592234,45.479393],[-122.596732,45.479395]]]]}},{"type":"Feature","properties":{"name":"Mt Tabor Middle School","school_label":"Mt Tabor Middle School Japanese Immersion","cluster":"Franklin","clusters":[{"name":"Franklin","share":0.61},{"name":"Grant","share":0.39}],"level":"6-8","area_sqmi":2.45},"geometry":{"type":"MultiPolygon","coordinates":[[[[-122.61944,45.505073],[-122.619818,45.505028],[-122.62229,45.505035],[-122.622274,45.5055],[-122.622439,45.511831],[-122.62014,45.511828],[-122.62,45.511846],[-122.619851,45.511947],[-122.619793,45.512154],[-122.619777,45.514799],[-122.6193,45.5148],[-122.619181,45.514833],[-122.619055,45.514942],[-122.619022,45.516505],[-122.619093,45.516671],[-122.619161,45.516746],[-122.619391,45.516811],[-122.62259,45.516812],[-122.622631,45.518595],[-122.622612,45.519304],[-122.622649,45.519753],[-122.622614,45.522802],[-122.622639,45.522886],[-122.622706,45.522961],[-122.622882,45.523026],[-122.623922,45.522976],[-122.626378,45.522504],[-122.627448,45.522393],[-122.627828,45.522386],[-122.628395,45.522489],[-122.628678,45.522507],[-122.629002,45.522478],[-122.629476,45.52237],[-122.631287,45.522367],[-122.63128,45.524341],[-122.631339,45.524477],[-122.631559,45.524572],[-122.634098,45.524571],[-122.634062,45.530067],[-122.624764,45.533798],[-122.62378,45.53358],[-122.622154,45.53361],[-122.621198,45.533582],[-122.605193,45.533504],[-122.605214,45.532223],[-122.605282,45.531978],[-122.605304,45.53043],[-122.605352,45.530254],[-122.605363,45.528356],[-122.604949,45.527663],[-122.604805,45.527574],[-122.604609,45.527562],[-122.603526,45.527925],[-122.602459,45.52844],[-122.60255,45.522898],[-122.602525,45.522807],[-122.602458,45.522732],[-122.602228,45.52266],[-122.598453,45.52266],[-122.598204,45.522673],[-122.596997,45.5229],[-122.593125,45.522933],[-122.59217,45.522912],[-122.592192,45.522287],[-122.592119,45.52206],[-122.592029,45.521947],[-122.590962,45.521524],[-122.58867,45.520454],[-122.588838,45.520313],[-122.588887,45.520145],[-122.588792,45.519918],[-122.588798,45.519453],[-122.592193,45.519467],[-122.592365,45.519403],[-122.592458,45.519287],[-122.592457,45.515743],[-122.592516,45.515582],[-122.592356,45.515349],[-122.591789,45.514917],[-122.591391,45.514398],[-122.590999,45.513392],[-122.59097,45.513187],[-122.591016,45.512622],[-122.590997,45.512393],[-122.590783,45.511826],[-122.590786,45.511605],[-122.590796,45.511254],[-122.590857,45.510818],[-122.591076,45.510243],[-122.591511,45.50964],[-122.592087,45.508738],[-122.592372,45.508504],[-122.592717,45.508125],[-122.592772,45.507834],[-122.592769,45.50743],[-122.597377,45.507407],[-122.597431,45.509944],[-122.597488,45.510027],[-122.597687,45.510122],[-122.601428,45.51013],[-122.601481,45.511973],[-122.601583,45.512093],[-122.601693,45.512137],[-122.606393,45.511967],[-122.606409,45.512111],[-122.606477,45.512186],[-122.606707,45.512258],[-122.611435,45.512255],[-122.611565,45.512237],[-122.611672,45.512182],[-122.611838,45.511973],[-122.611561,45.508031],[-122.611497,45.505547],[-122.618381,45.505504],[-122.618919,45.505395],[-122.61944,45.505073]]]]}},{"type":"Feature","properties":{"name":"Ockley Green Middle School","school_label":"Ockley Green Middle School Neighborhood","cluster":"Jefferson","clusters":[{"name":"Jefferson","share":1.0}],"level":"6-8","area_sqmi":17.18},"geometry":{"type":"MultiPolygon","coordinates":[[[[-122.687289,45.541083],[-122.694479,45.547904],[-122.708584,45.554401],[-122.723177,45.562587],[-122.730279,45.566527],[-122.723642,45.570565],[-122.721365,45.572728],[-122.720782,45.573136],[-122.720722,45.573274],[-122.720758,45.573365],[-122.719916,45.573785],[-122.718297,45.574358],[-122.714046,45.575087],[-122.712004,45.575066],[-122.708892,45.57489],[-122.707856,45.574742],[-122.705796,45.574233],[-122.704237,45.57376],[-122.703808,45.573585],[-122.702821,45.573032],[-122.70257,45.572984],[-122.702398,45.573048],[-122.702294,45.573164],[-122.7023,45.576922],[-122.681887,45.576915],[-122.678405,45.577004],[-122.678276,45.577029],[-122.678138,45.577139],[-122.678109,45.577231],[-122.678066,45.581187],[-122.678168,45.582527],[-122.678392,45.583635],[-122.680505,45.588351],[-122.680606,45.588455],[-122.680782,45.588513],[-122.682326,45.588583],[-122.683071,45.588744],[-122.683929,45.589048],[-122.684614,45.589385],[-122.685285,45.589624],[-122.68902,45.590498],[-122.693034,45.591907],[-122.694077,45.5922],[-122.694891,45.592489],[-122.695509,45.59276],[-122.698381,45.59381],[-122.700706,45.594413],[-122.701542,45.594717],[-122.70222,45.594834],[-122.703419,45.594948],[-122.704775,45.594922],[-122.705787,45.594963],[-122.706487,45.59511],[-122.706927,45.595246],[-122.707992,45.595584],[-122.709148,45.596011],[-122.709904,45.596195],[-122.711949,45.59656],[-122.712707,45.596812],[-122.714346,45.597664],[-122.71536,45.598361],[-122.716377,45.599157],[-122.718089,45.600229],[-122.718654,45.600531],[-122.704614,45.612065],[-122.704416,45.612305],[-122.703781,45.613377],[-122.703066,45.613116],[-122.70287,45.61312],[-122.70271,45.613199],[-122.702458,45.613433],[-122.702396,45.613518],[-122.702423,45.613662],[-122.702546,45.613767],[-122.702866,45.613898],[-122.703254,45.614111],[-122.703501,45.614343],[-122.703735,45.614498],[-122.704737,45.614875],[-122.705004,45.61503],[-122.705523,45.615264],[-122.706403,45.61556],[-122.707527,45.615995],[-122.70848,45.616511],[-122.709063,45.616698],[-122.70923,45.616824],[-122.709516,45.616918],[-122.710106,45.617302],[-122.710593,45.617545],[-122.710945,45.61766],[-122.712052,45.61792],[-122.713771,45.618588],[-122.714467,45.618903],[-122.715347,45.619214],[-122.717549,45.620276],[-122.723052,45.623386],[-122.72575,45.624675],[-122.72807,45.626002],[-122.729181,45.626369],[-122.729828,45.626814],[-122.730683,45.62762],[-122.731802,45.628201],[-122.732874,45.629262],[-122.735136,45.630781],[-122.736883,45.63189],[-122.737916,45.632807],[-122.739356,45.633823],[-122.741718,45.635408],[-122.742998,45.636496],[-122.742888,45.64574],[-122.73689,45.64373],[-122.727806,45.641009],[-122.713102,45.636719],[-122.707972,45.634562],[-122.703636,45.632245],[-122.69894,45.629364],[-122.695657,45.62766],[-122.69317,45.62614],[-122.689321,45.623965],[-122.682663,45.621028],[-122.668063,45.615614],[-122.660803,45.613525],[-122.648996,45.609758],[-122.643586,45.608354],[-122.63536,45.607083],[-122.635249,45.600976],[-122.635377,45.599381],[-122.635533,45.598235],[-122.635704,45.596296],[-122.635727,45.595724],[-122.635825,45.595417],[-122.635831,45.59435],[-122.635807,45.594267],[-122.635739,45.594192],[-122.635563,45.594127],[-122.630741,45.594125],[-122.630744,45.590497],[-122.630653,45.590377],[-122.630543,45.590325],[-122.62054,45.589063],[-122.620542,45.578774],[-122.622224,45.577828],[-122.622362,45.577719],[-122.622376,45.575638],[-122.624318,45.57529],[-122.624457,45.575211],[-122.624507,45.575088],[-122.624456,45.571758],[-122.624806,45.571531],[-122.62488,45.571453],[-122.624909,45.571361],[-122.624905,45.570005],[-122.624814,45.569885],[-122.624649,45.569827],[-122.624639,45.56828],[-122.624614,45.568189],[-122.624513,45.568099],[-122.624517,45.566643],[-122.624731,45.566548],[-122.624781,45.566417],[-122.62478,45.56516],[-122.624734,45.565077],[-122.624667,45.565033],[-122.624686,45.564636],[-122.624604,45.56447],[-122.624603,45.564134],[-122.627545,45.564118],[-122.627694,45.564031],[-122.627745,45.563947],[-122.627755,45.562986],[-122.637631,45.562947],[-122.637629,45.566286],[-122.637654,45.566377],[-122.637776,45.566473],[-122.637897,45.566509],[-122.640839,45.5665],[-122.640834,45.568238],[-122.640882,45.568359],[-122.640971,45.568426],[-122.641092,45.568462],[-122.64297,45.568457],[-122.642974,45.569189],[-122.643065,45.569309],[-122.643295,45.569373],[-122.646497,45.569367],[-122.646669,45.569303],[-122.646752,45.569187],[-122.646767,45.568683],[-122.649969,45.568669],[-122.650107,45.56859],[-122.650168,45.568467],[-122.650127,45.568239],[-122.650142,45.566509],[-122.657168,45.566583],[-122.659437,45.566578],[-122.661012,45.566617],[-122.66122,45.566659],[-122.664564,45.566672],[-122.664736,45.566639],[-122.664863,45.566537],[-122.664892,45.566445],[-122.664932,45.562961],[-122.672844,45.562934],[-122.673004,45.56287],[-122.673098,45.562754],[-122.673115,45.561404],[-122.674884,45.561394],[-122.675098,45.561298],[-122.675149,45.561213],[-122.675179,45.5584],[-122.675107,45.558204],[-122.675125,45.55597],[-122.675442,45.555736],[-122.676505,45.555731],[-122.676624,45.555698],[-122.676759,45.555551],[-122.676768,45.554872],[-122.678656,45.554874],[-122.678775,45.554842],[-122.678911,45.554702],[-122.678976,45.553496],[-122.67896,45.55275],[-122.67901,45.548069],[-122.67979,45.546804],[-122.681029,45.545653],[-122.685496,45.542519],[-122.685868,45.542306],[-122.687289,45.541083]]]]}},{"type":"Feature","properties":{"name":"Roseway Heights Middle School","school_label":"Roseway Heights Middle School Spanish Immersion, Vietnamese Immersion","cluster":"McDaniel","clusters":[{"name":"McDaniel","share":1.0}],"level":"6-8","area_sqmi":6.97},"geometry":{"type":"MultiPolygon","coordinates":[[[[-122.604715,45.528445],[-122.604708,45.530137],[-122.604662,45.530358],[-122.604628,45.531914],[-122.604562,45.532197],[-122.604539,45.533729],[-122.604553,45.533821],[-122.604676,45.533925],[-122.604797,45.533961],[-122.614551,45.534002],[-122.614514,45.541381],[-122.613786,45.541371],[-122.613441,45.541431],[-122.613238,45.541518],[-122.612934,45.541524],[-122.612346,45.541451],[-122.611908,45.541345],[-122.611539,45.541344],[-122.611227,45.541403],[-122.611045,45.541475],[-122.610831,45.541258],[-122.610621,45.541155],[-122.610435,45.541113],[-122.607841,45.541084],[-122.607826,45.540955],[-122.607758,45.54088],[-122.607659,45.540828],[-122.607474,45.540809],[-122.607355,45.540834],[-122.604155,45.54212],[-122.604094,45.542251],[-122.604133,45.54244],[-122.604076,45.54834],[-122.604144,45.548415],[-122.60432,45.548488],[-122.609237,45.548512],[-122.609191,45.551912],[-122.609237,45.551995],[-122.609381,45.552076],[-122.614462,45.552128],[-122.614403,45.555444],[-122.614365,45.555589],[-122.614312,45.559096],[-122.614374,45.559301],[-122.614362,45.560208],[-122.613928,45.560224],[-122.613779,45.560303],[-122.613728,45.560387],[-122.613669,45.562789],[-122.613694,45.56288],[-122.613762,45.562955],[-122.613992,45.56302],[-122.620235,45.563049],[-122.627104,45.562991],[-122.627095,45.563677],[-122.624273,45.563683],[-122.624047,45.563748],[-122.623954,45.563872],[-122.623956,45.564543],[-122.624037,45.564709],[-122.624021,45.565166],[-122.624134,45.565302],[-122.624132,45.566193],[-122.623961,45.566257],[-122.623888,45.566335],[-122.623869,45.566419],[-122.623867,45.568241],[-122.623991,45.568376],[-122.623995,45.570052],[-122.62402,45.570143],[-122.624088,45.570218],[-122.624263,45.570276],[-122.624254,45.571267],[-122.623915,45.571494],[-122.623811,45.571618],[-122.623849,45.57491],[-122.621907,45.57525],[-122.621769,45.575337],[-122.621719,45.57546],[-122.621735,45.577509],[-122.62001,45.578486],[-122.619906,45.57861],[-122.619897,45.588983],[-122.619548,45.588944],[-122.61901,45.588451],[-122.618337,45.588158],[-122.617345,45.588032],[-122.616542,45.588062],[-122.615369,45.588365],[-122.615395,45.5863],[-122.615368,45.585203],[-122.615389,45.57986],[-122.61533,45.579731],[-122.615186,45.57965],[-122.613992,45.579634],[-122.613808,45.579668],[-122.612716,45.580427],[-122.611582,45.579648],[-122.60486,45.579634],[-122.602437,45.578634],[-122.599478,45.577835],[-122.597969,45.577855],[-122.596027,45.578508],[-122.596032,45.577083],[-122.595986,45.577],[-122.595897,45.576933],[-122.595711,45.576898],[-122.586397,45.576953],[-122.575408,45.576916],[-122.575419,45.57338],[-122.575373,45.573297],[-122.575228,45.573208],[-122.565703,45.573075],[-122.565729,45.56998],[-122.566728,45.57],[-122.566922,45.569959],[-122.567017,45.569889],[-122.567068,45.569796],[-122.567359,45.568747],[-122.568042,45.568735],[-122.568149,45.568687],[-122.568243,45.568563],[-122.568292,45.562961],[-122.578288,45.562917],[-122.57846,45.562876],[-122.578576,45.562775],[-122.578612,45.562546],[-122.57881,45.552406],[-122.57873,45.552293],[-122.578631,45.552241],[-122.578381,45.552231],[-122.576122,45.553148],[-122.576169,45.551341],[-122.578394,45.551346],[-122.578707,45.551295],[-122.578791,45.551217],[-122.57885,45.551018],[-122.578857,45.549951],[-122.57881,45.54986],[-122.578722,45.549801],[-122.578536,45.549759],[-122.569279,45.549751],[-122.56913,45.549837],[-122.569079,45.54996],[-122.569048,45.552552],[-122.568403,45.552426],[-122.568415,45.552129],[-122.568367,45.552008],[-122.568278,45.551941],[-122.565923,45.550962],[-122.565547,45.550755],[-122.563807,45.549377],[-122.563285,45.549013],[-122.563218,45.548945],[-122.563158,45.548779],[-122.563196,45.548633],[-122.563301,45.548509],[-122.563568,45.548406],[-122.563796,45.548401],[-122.564319,45.548461],[-122.564804,45.548368],[-122.567267,45.548362],[-122.567503,45.548266],[-122.567742,45.547965],[-122.567882,45.547604],[-122.567948,45.547313],[-122.568444,45.546572],[-122.568472,45.546427],[-122.568578,45.546349],[-122.568691,45.546179],[-122.568708,45.546027],[-122.568582,45.545503],[-122.568623,45.544809],[-122.568551,45.544604],[-122.568414,45.544386],[-122.56827,45.544304],[-122.56815,45.544284],[-122.563277,45.544272],[-122.563298,45.542618],[-122.56473,45.542615],[-122.564848,45.542583],[-122.564975,45.542481],[-122.565029,45.54088],[-122.564971,45.540751],[-122.564827,45.54067],[-122.562938,45.540651],[-122.562767,45.540715],[-122.562674,45.540869],[-122.562642,45.542158],[-122.559885,45.542139],[-122.560271,45.538115],[-122.560374,45.537641],[-122.560501,45.537212],[-122.560661,45.536828],[-122.560825,45.536528],[-122.561384,45.535717],[-122.562148,45.534911],[-122.562582,45.534568],[-122.563737,45.533755],[-122.568411,45.533708],[-122.568648,45.533643],[-122.568741,45.53352],[-122.568772,45.531858],[-122.570319,45.531731],[-122.571556,45.531739],[-122.572056,45.531775],[-122.57259,45.531842],[-122.573704,45.53205],[-122.574602,45.532324],[-122.57875,45.533704],[-122.581518,45.534691],[-122.582146,45.534984],[-122.583376,45.535427],[-122.584275,45.535685],[-122.585268,45.535865],[-122.586399,45.535943],[-122.587526,45.535915],[-122.588509,45.535783],[-122.589488,45.535544],[-122.590314,45.535255],[-122.591969,45.534478],[-122.599399,45.53063],[-122.602297,45.529091],[-122.603865,45.528315],[-122.604508,45.52809],[-122.604715,45.528445]]],[[[-122.596029,45.578904],[-122.596807,45.579736],[-122.596014,45.579735],[-122.596029,45.578904]]]]}},{"type":"Feature","properties":{"name":"Skyline K-8","school_label":"Skyline K-8 Neighborhood","cluster":"Roosevelt","clusters":[{"name":"Roosevelt","share":1.0}],"level":"K-8","area_sqmi":39.5},"geometry":{"type":"MultiPolygon","coordinates":[[[[-122.736447,45.54768],[-122.736751,45.547667],[-122.73748,45.547424],[-122.737505,45.547218],[-122.737737,45.547045],[-122.737776,45.54693],[-122.738571,45.546694],[-122.738809,45.546674],[-122.739033,45.546586],[-122.739096,45.546516],[-122.739133,45.54634],[-122.739345,45.545916],[-122.739473,45.545861],[-122.739546,45.545783],[-122.739614,45.545545],[-122.73951,45.545395],[-122.738807,45.545157],[-122.739189,45.545203],[-122.739535,45.545173],[-122.740347,45.544845],[-122.740463,45.544744],[-122.740492,45.544659],[-122.74056,45.542379],[-122.742141,45.543453],[-122.743689,45.544239],[-122.743809,45.544267],[-122.74463,45.544159],[-122.744821,45.544034],[-122.745177,45.543684],[-122.745785,45.543992],[-122.746131,45.544237],[-122.74644,45.544391],[-122.746953,45.544754],[-122.746902,45.547804],[-122.747108,45.548364],[-122.747228,45.548384],[-122.763373,45.548295],[-122.763268,45.554532],[-122.763399,45.555116],[-122.773641,45.562566],[-122.774029,45.563061],[-122.774117,45.569767],[-122.774735,45.570052],[-122.779071,45.570164],[-122.779893,45.570079],[-122.779924,45.57004],[-122.779947,45.569476],[-122.779819,45.557405],[-122.780878,45.557849],[-122.781117,45.557845],[-122.781362,45.557733],[-122.782391,45.55708],[-122.78259,45.556893],[-122.782728,45.556829],[-122.783254,45.556369],[-122.78351,45.555968],[-122.784714,45.555944],[-122.804576,45.555912],[-122.805074,45.556177],[-122.805036,45.562885],[-122.805707,45.563123],[-122.81786,45.563267],[-122.820322,45.563217],[-122.821895,45.563233],[-122.8219,45.563577],[-122.825014,45.563606],[-122.824975,45.565132],[-122.825144,45.572553],[-122.825209,45.577018],[-122.825236,45.577631],[-122.82546,45.577906],[-122.825864,45.578065],[-122.836789,45.578025],[-122.845839,45.578078],[-122.845728,45.585096],[-122.845755,45.591031],[-122.846213,45.592417],[-122.846401,45.592469],[-122.865216,45.592466],[-122.866461,45.593091],[-122.866414,45.605001],[-122.866418,45.606266],[-122.866423,45.606378],[-122.86648,45.60647],[-122.868375,45.60682],[-122.87753,45.606739],[-122.88683,45.606933],[-122.886839,45.611808],[-122.886778,45.619234],[-122.886793,45.620722],[-122.886881,45.620925],[-122.886991,45.621016],[-122.887262,45.62114],[-122.887555,45.62119],[-122.890838,45.621195],[-122.890943,45.621174],[-122.89121,45.621206],[-122.90339,45.621226],[-122.907761,45.621281],[-122.908069,45.628011],[-122.908033,45.633612],[-122.908051,45.634579],[-122.90882,45.635773],[-122.918414,45.635921],[-122.927865,45.635829],[-122.927932,45.637279],[-122.92802,45.643232],[-122.928079,45.664053],[-122.928121,45.66554],[-122.928168,45.670005],[-122.928152,45.670824],[-122.919084,45.670721],[-122.918742,45.670766],[-122.918381,45.672132],[-122.918523,45.672929],[-122.91818,45.673532],[-122.918011,45.675043],[-122.917737,45.678305],[-122.917773,45.678527],[-122.917968,45.678728],[-122.918239,45.678852],[-122.918559,45.678901],[-122.927414,45.678953],[-122.928019,45.680019],[-122.928164,45.692353],[-122.920288,45.692299],[-122.909675,45.692116],[-122.888486,45.691934],[-122.88728,45.692816],[-122.887408,45.703233],[-122.88741,45.70621],[-122.885455,45.706363],[-122.883334,45.706371],[-122.876992,45.706263],[-122.874872,45.706289],[-122.873057,45.706029],[-122.872301,45.702212],[-122.872181,45.70013],[-122.871947,45.699056],[-122.871649,45.697164],[-122.871742,45.695693],[-122.872262,45.693114],[-122.872272,45.692741],[-122.870989,45.691931],[-122.868866,45.691883],[-122.868238,45.690296],[-122.867207,45.686819],[-122.866817,45.684632],[-122.866868,45.681654],[-122.86736,45.68021],[-122.867998,45.678485],[-122.868289,45.677307],[-122.868303,45.675855],[-122.868241,45.675652],[-122.868155,45.675505],[-122.867396,45.674535],[-122.866305,45.673255],[-122.862962,45.671408],[-122.861381,45.670418],[-122.860057,45.669274],[-122.859421,45.668673],[-122.859045,45.667974],[-122.858216,45.666614],[-122.85754,45.665735],[-122.857255,45.665276],[-122.856114,45.664053],[-122.855346,45.663474],[-122.851736,45.660963],[-122.849557,45.659631],[-122.848541,45.658834],[-122.843221,45.6542],[-122.840803,45.652836],[-122.835863,45.651357],[-122.832119,45.649964],[-122.829558,45.648957],[-122.828655,45.648305],[-122.827255,45.647199],[-122.826453,45.646434],[-122.826087,45.645958],[-122.82481,45.644031],[-122.823889,45.64178],[-122.822908,45.638778],[-122.822936,45.640815],[-122.82166,45.636801],[-122.820469,45.633243],[-122.820154,45.632677],[-122.818775,45.630441],[-122.816749,45.627746],[-122.815246,45.626252],[-122.809696,45.622629],[-122.805245,45.62044],[-122.804515,45.620119],[-122.802048,45.619528],[-122.801206,45.619393],[-122.798613,45.619201],[-122.797744,45.619218],[-122.796888,45.619281],[-122.794313,45.619576],[-122.793459,45.6197],[-122.792359,45.619913],[-122.792252,45.619968],[-122.79219,45.620046],[-122.791818,45.620846],[-122.791363,45.622028],[-122.79119,45.622619],[-122.791083,45.620373],[-122.790995,45.619765],[-122.790113,45.616825],[-122.789496,45.615747],[-122.788373,45.614771],[-122.782755,45.605791],[-122.778528,45.599388],[-122.772066,45.591872],[-122.771559,45.591379],[-122.767721,45.588071],[-122.76742,45.587566],[-122.765104,45.585745],[-122.764522,45.585291],[-122.763867,45.5849],[-122.757652,45.581578],[-122.756944,45.581226],[-122.756261,45.580965],[-122.756258,45.580904],[-122.755593,45.580536],[-122.746764,45.576685],[-122.736797,45.569898],[-122.731332,45.566521],[-122.724108,45.562523],[-122.7237,45.562051],[-122.723639,45.557128],[-122.72366,45.554133],[-122.724064,45.553591],[-122.725341,45.552019],[-122.726509,45.552492],[-122.726694,45.552496],[-122.726812,45.552456],[-122.728525,45.55035],[-122.728544,45.550265],[-122.72881,45.549826],[-122.72915,45.549636],[-122.72927,45.549634],[-122.729419,45.549578],[-122.733296,45.546987],[-122.733522,45.547509],[-122.733643,45.547567],[-122.733829,45.547602],[-122.73436,45.547591],[-122.734689,45.547684],[-122.734649,45.547761],[-122.734687,45.547905],[-122.734842,45.548001],[-122.735095,45.54808],[-122.735955,45.547873],[-122.736447,45.54768]]]]}},{"type":"Feature","properties":{"name":"West Sylvan Middle School","school_label":"West Sylvan Middle School Spanish Immersion","cluster":"Lincoln","clusters":[{"name":"Lincoln","share":1.0}],"level":"6-8","area_sqmi":16.29},"geometry":{"type":"MultiPolygon","coordinates":[[[[-122.692247,45.48974],[-122.692455,45.489797],[-122.69446,45.489797],[-122.695119,45.489708],[-122.695237,45.489676],[-122.695352,45.489574],[-122.698084,45.489583],[-122.6982,45.489787],[-122.698377,45.48989],[-122.699112,45.490127],[-122.699202,45.490217],[-122.699272,45.490658],[-122.699423,45.490914],[-122.699615,45.491131],[-122.699782,45.491265],[-122.700101,45.491381],[-122.700297,45.491415],[-122.700419,45.491482],[-122.700422,45.491565],[-122.700285,45.49198],[-122.700282,45.492201],[-122.700409,45.492404],[-122.700612,45.492621],[-122.700787,45.492686],[-122.701339,45.492661],[-122.701566,45.492618],[-122.702176,45.492423],[-122.702491,45.49244],[-122.702799,45.492556],[-122.703001,45.492728],[-122.703216,45.49299],[-122.703138,45.493541],[-122.703155,45.493693],[-122.703213,45.493798],[-122.703391,45.49394],[-122.703512,45.493991],[-122.704034,45.494026],[-122.7041,45.494056],[-122.703997,45.4945],[-122.704069,45.494689],[-122.704204,45.494823],[-122.704469,45.494956],[-122.704709,45.494989],[-122.704979,45.494969],[-122.705645,45.494811],[-122.705992,45.494797],[-122.706427,45.494842],[-122.70599,45.495361],[-122.705842,45.495455],[-122.70578,45.495548],[-122.705706,45.495884],[-122.705833,45.496103],[-122.705999,45.496207],[-122.706218,45.496263],[-122.707065,45.496277],[-122.708035,45.496442],[-122.708189,45.4965],[-122.70841,45.496617],[-122.708993,45.497124],[-122.709737,45.497613],[-122.710357,45.498562],[-122.710706,45.499515],[-122.710649,45.500042],[-122.710649,45.500957],[-122.710566,45.501057],[-122.710618,45.501285],[-122.710722,45.501466],[-122.710857,45.501601],[-122.711112,45.501748],[-122.711961,45.501838],[-122.713164,45.502417],[-122.713348,45.502406],[-122.713454,45.502358],[-122.713844,45.502046],[-122.714438,45.501661],[-122.715134,45.501137],[-122.716464,45.500425],[-122.716979,45.500286],[-122.717564,45.500556],[-122.71789,45.500573],[-122.718113,45.500447],[-122.71856,45.499927],[-122.719218,45.499541],[-122.719743,45.499348],[-122.720431,45.499205],[-122.722522,45.499439],[-122.724177,45.498736],[-122.724755,45.498534],[-122.725586,45.498434],[-122.726099,45.498516],[-122.726467,45.498516],[-122.727394,45.498346],[-122.72793,45.498183],[-122.728992,45.49817],[-122.729393,45.498475],[-122.729401,45.500769],[-122.72946,45.500897],[-122.729615,45.500978],[-122.729996,45.501024],[-122.730042,45.501099],[-122.730131,45.501159],[-122.730252,45.501187],[-122.731141,45.5012],[-122.731324,45.501158],[-122.73144,45.501057],[-122.731469,45.500972],[-122.731468,45.50066],[-122.731989,45.500665],[-122.732199,45.500775],[-122.732622,45.500782],[-122.732629,45.500973],[-122.732676,45.501056],[-122.732765,45.501122],[-122.732885,45.501158],[-122.733265,45.501158],[-122.733267,45.502698],[-122.733325,45.502788],[-122.733414,45.502848],[-122.733545,45.502883],[-122.733675,45.502873],[-122.733996,45.50276],[-122.734173,45.502863],[-122.734326,45.502891],[-122.734533,45.502917],[-122.734726,45.502868],[-122.734811,45.502798],[-122.735952,45.501388],[-122.736038,45.501386],[-122.734946,45.502658],[-122.734896,45.50275],[-122.73491,45.502841],[-122.734978,45.502931],[-122.73574,45.503313],[-122.735646,45.503406],[-122.735334,45.503481],[-122.735175,45.50356],[-122.735027,45.503685],[-122.734804,45.504086],[-122.734713,45.504583],[-122.734749,45.504674],[-122.734839,45.504748],[-122.734959,45.504784],[-122.736294,45.504819],[-122.736412,45.504778],[-122.736496,45.504708],[-122.736711,45.504361],[-122.736899,45.504159],[-122.73801,45.503413],[-122.738374,45.503284],[-122.739652,45.502947],[-122.74038,45.502689],[-122.740718,45.502431],[-122.741363,45.501709],[-122.741496,45.50147],[-122.741553,45.501263],[-122.741551,45.500913],[-122.741021,45.499772],[-122.740895,45.499577],[-122.740533,45.499187],[-122.740461,45.498983],[-122.740404,45.498626],[-122.740181,45.498165],[-122.740171,45.497884],[-122.740451,45.497535],[-122.741397,45.497029],[-122.742282,45.496326],[-122.742617,45.495999],[-122.743033,45.495511],[-122.743351,45.495024],[-122.743532,45.494647],[-122.743526,45.498001],[-122.74355,45.498084],[-122.743618,45.498159],[-122.743783,45.498224],[-122.746398,45.498272],[-122.746592,45.49823],[-122.746984,45.498291],[-122.74721,45.498234],[-122.74747,45.498228],[-122.7477,45.4983],[-122.750293,45.498341],[-122.75044,45.498506],[-122.750692,45.498577],[-122.750996,45.498578],[-122.751125,45.498545],[-122.751251,45.498436],[-122.751301,45.498313],[-122.751543,45.498415],[-122.75182,45.498585],[-122.752895,45.498915],[-122.753142,45.498841],[-122.753474,45.498438],[-122.753869,45.49856],[-122.754041,45.498541],[-122.754285,45.498392],[-122.755177,45.498451],[-122.757411,45.498483],[-122.75753,45.498473],[-122.757626,45.498425],[-122.757835,45.49849],[-122.758377,45.498502],[-122.758549,45.498445],[-122.758642,45.498329],[-122.75868,45.497894],[-122.759174,45.498075],[-122.760112,45.498513],[-122.76053,45.49865],[-122.760977,45.49874],[-122.761172,45.498736],[-122.762657,45.498433],[-122.763549,45.498484],[-122.763631,45.501005],[-122.763689,45.501095],[-122.763855,45.501176],[-122.764343,45.501197],[-122.764337,45.501601],[-122.764186,45.501619],[-122.764079,45.501674],[-122.764006,45.501752],[-122.763947,45.501906],[-122.764012,45.502209],[-122.764059,45.502292],[-122.764137,45.502352],[-122.764313,45.502409],[-122.76398,45.502499],[-122.763906,45.50257],[-122.763877,45.502662],[-122.763974,45.502934],[-122.763956,45.505076],[-122.764015,45.505197],[-122.764159,45.505285],[-122.764116,45.505858],[-122.761671,45.505746],[-122.759534,45.505705],[-122.758191,45.505754],[-122.758042,45.505841],[-122.757992,45.505964],[-122.758002,45.507678],[-122.75103,45.507701],[-122.750911,45.507734],[-122.750796,45.507835],[-122.750767,45.507927],[-122.750766,45.508186],[-122.747286,45.508224],[-122.747156,45.508242],[-122.74705,45.508297],[-122.746988,45.508375],[-122.746969,45.508467],[-122.746796,45.50847],[-122.746649,45.508298],[-122.746527,45.508247],[-122.746212,45.50823],[-122.745997,45.507967],[-122.745766,45.507888],[-122.744949,45.508072],[-122.744843,45.508142],[-122.744782,45.508273],[-122.74487,45.512113],[-122.743795,45.512096],[-122.743624,45.51216],[-122.743531,45.512276],[-122.74353,45.519601],[-122.743498,45.523161],[-122.743589,45.523281],[-122.743754,45.523346],[-122.758986,45.523383],[-122.758991,45.526736],[-122.759039,45.526865],[-122.759183,45.526953],[-122.759314,45.526966],[-122.761734,45.526979],[-122.761723,45.527574],[-122.761815,45.527702],[-122.761991,45.527767],[-122.762837,45.527758],[-122.762828,45.529846],[-122.76293,45.529966],[-122.763116,45.530016],[-122.763116,45.531197],[-122.763141,45.531281],[-122.763265,45.531385],[-122.763385,45.531413],[-122.76408,45.531422],[-122.764171,45.531542],[-122.764281,45.531593],[-122.765703,45.531603],[-122.765711,45.533859],[-122.76577,45.53398],[-122.765914,45.534069],[-122.771849,45.534073],[-122.774788,45.534046],[-122.774949,45.533981],[-122.775022,45.533904],[-122.77504,45.53382],[-122.775048,45.53055],[-122.778118,45.53055],[-122.779552,45.530582],[-122.779474,45.531978],[-122.779438,45.533923],[-122.779452,45.534006],[-122.779575,45.534111],[-122.779751,45.534153],[-122.784495,45.534241],[-122.784378,45.542102],[-122.782381,45.542096],[-122.782145,45.542161],[-122.782053,45.542316],[-122.782091,45.542444],[-122.782976,45.543494],[-122.782816,45.543558],[-122.782616,45.543417],[-122.782441,45.543383],[-122.782311,45.543393],[-122.782142,45.543511],[-122.782008,45.543711],[-122.779761,45.542239],[-122.779585,45.542174],[-122.779401,45.542193],[-122.779295,45.542249],[-122.779212,45.542365],[-122.779215,45.542456],[-122.780378,45.545954],[-122.780258,45.545956],[-122.780181,45.54592],[-122.777424,45.54445],[-122.777293,45.544445],[-122.777122,45.544502],[-122.776546,45.545055],[-122.776485,45.545185],[-122.776534,45.545314],[-122.776579,45.545351],[-122.778083,45.546122],[-122.778016,45.548379],[-122.77803,45.54847],[-122.778153,45.548574],[-122.778329,45.548617],[-122.784386,45.548656],[-122.784382,45.555493],[-122.783222,45.555516],[-122.783115,45.555549],[-122.782999,45.555643],[-122.782537,45.556368],[-122.782175,45.556535],[-122.781934,45.556761],[-122.780979,45.55736],[-122.780075,45.556974],[-122.779687,45.556775],[-122.779567,45.556763],[-122.779384,45.556804],[-122.779216,45.55693],[-122.779166,45.557053],[-122.779293,45.56971],[-122.774762,45.569594],[-122.774679,45.562751],[-122.774654,45.562668],[-122.774586,45.562593],[-122.76392,45.554839],[-122.764026,45.548069],[-122.764001,45.547978],[-122.763933,45.547903],[-122.763823,45.547852],[-122.754816,45.547869],[-122.747558,45.54792],[-122.74761,45.544345],[-122.747551,45.544216],[-122.747396,45.544128],[-122.74708,45.544088],[-122.746729,45.543981],[-122.746363,45.543759],[-122.745771,45.543314],[-122.745594,45.543218],[-122.745419,45.543176],[-122.745223,45.543164],[-122.744932,45.543231],[-122.744699,45.543365],[-122.744258,45.543785],[-122.744194,45.543817],[-122.743977,45.543821],[-122.742551,45.543095],[-122.740436,45.541657],[-122.740316,45.541622],[-122.740131,45.541633],[-122.739994,45.541719],[-122.739933,45.541843],[-122.739844,45.544436],[-122.739576,45.544517],[-122.739269,45.544744],[-122.7377,45.544569],[-122.737342,45.544576],[-122.737193,45.544655],[-122.737016,45.544849],[-122.736816,45.54531],[-122.736856,45.545523],[-122.737048,45.54571],[-122.737257,45.54579],[-122.737626,45.545798],[-122.737882,45.545671],[-122.738038,45.5455],[-122.738275,45.54545],[-122.738356,45.545585],[-122.738588,45.545703],[-122.738322,45.545837],[-122.73823,45.545984],[-122.738212,45.546083],[-122.738282,45.546234],[-122.738141,45.546237],[-122.737926,45.546295],[-122.737694,45.546467],[-122.737457,45.546525],[-122.737256,45.546643],[-122.737151,45.546752],[-122.737132,45.546836],[-122.736972,45.546893],[-122.736888,45.546963],[-122.736807,45.547124],[-122.736821,45.547208],[-122.736279,45.547241],[-122.73601,45.547308],[-122.735669,45.547459],[-122.735564,45.547263],[-122.735397,45.547144],[-122.735243,45.547094],[-122.73496,45.547077],[-122.733932,45.54715],[-122.734093,45.546514],[-122.734063,45.546301],[-122.733951,45.546189],[-122.73383,45.546146],[-122.733581,45.546174],[-122.729153,45.549125],[-122.728927,45.549176],[-122.727694,45.54987],[-122.727611,45.549994],[-122.727626,45.550085],[-122.727829,45.550294],[-122.726489,45.551959],[-122.725322,45.551494],[-122.725073,45.551506],[-122.724935,45.551601],[-122.723024,45.553947],[-122.723005,45.554031],[-122.722988,45.557133],[-122.723044,45.561934],[-122.708983,45.554035],[-122.694923,45.547568],[-122.687564,45.540567],[-122.68319,45.537823],[-122.674357,45.53168],[-122.669264,45.527577],[-122.669206,45.527479],[-122.668213,45.523047],[-122.668525,45.520541],[-122.669843,45.517925],[-122.671269,45.513195],[-122.669926,45.507466],[-122.666877,45.501282],[-122.674382,45.500721],[-122.676283,45.500532],[-122.67888,45.500368],[-122.68054,45.50039],[-122.680723,45.500356],[-122.680859,45.500216],[-122.680854,45.500087],[-122.680481,45.499355],[-122.679221,45.497176],[-122.678949,45.496549],[-122.678684,45.496112],[-122.6784,45.495736],[-122.677712,45.495002],[-122.677417,45.494329],[-122.677197,45.49332],[-122.677183,45.492932],[-122.677224,45.492565],[-122.677448,45.492141],[-122.677614,45.491925],[-122.677917,45.491622],[-122.678075,45.491482],[-122.6787,45.491081],[-122.679525,45.490806],[-122.680429,45.490621],[-122.681406,45.490359],[-122.682003,45.490058],[-122.682393,45.489753],[-122.6844,45.489784],[-122.684378,45.490401],[-122.684471,45.490567],[-122.684581,45.490619],[-122.686382,45.490645],[-122.68659,45.490695],[-122.690135,45.490718],[-122.690254,45.490708],[-122.690434,45.490591],[-122.69078,45.489639],[-122.691062,45.489656],[-122.691266,45.489592],[-122.691564,45.489731],[-122.692247,45.48974]]]]}}]}