{"type":"FeatureCollection","features":[{"type":"Feature","properties":{"name":"Cleveland High School","school_label":"Cleveland High School Mandarin Immersion","cluster":"Cleveland","level":"9-12","area_sqmi":12.51},"geometry":{"type":"MultiPolygon","coordinates":[[[[-122.646625,45.455727],[-122.652668,45.455355],[-122.653033,45.45832],[-122.659444,45.457925],[-122.661349,45.457569],[-122.66198,45.458563],[-122.663948,45.461506],[-122.665727,45.46555],[-122.666457,45.471154],[-122.668843,45.48341],[-122.669106,45.484411],[-122.669146,45.484624],[-122.669129,45.484746],[-122.66936,45.485755],[-122.669313,45.487806],[-122.668205,45.491714],[-122.666697,45.495333],[-122.66596,45.499028],[-122.666434,45.501084],[-122.669624,45.50754],[-122.670944,45.513239],[-122.669535,45.517846],[-122.668197,45.520494],[-122.667887,45.52306],[-122.668929,45.527644],[-122.674122,45.531837],[-122.671366,45.533352],[-122.669718,45.53429],[-122.66872,45.534904],[-122.668315,45.535102],[-122.665614,45.535115],[-122.644715,45.535035],[-122.644758,45.530073],[-122.636418,45.530472],[-122.635587,45.530587],[-122.634792,45.530807],[-122.634428,45.530326],[-122.634391,45.530205],[-122.634425,45.524344],[-122.631605,45.524343],[-122.631614,45.522132],[-122.629424,45.522142],[-122.628918,45.522259],[-122.628658,45.522279],[-122.628004,45.522169],[-122.627407,45.522165],[-122.626175,45.522302],[-122.624236,45.522696],[-122.62348,45.522786],[-122.622938,45.522804],[-122.622973,45.519747],[-122.622936,45.519306],[-122.622955,45.518597],[-122.622894,45.51654],[-122.622777,45.516588],[-122.619393,45.516582],[-122.619346,45.516499],[-122.619361,45.515028],[-122.620098,45.515029],[-122.620136,45.512056],[-122.622771,45.512061],[-122.622598,45.505502],[-122.622599,45.500525],[-122.626199,45.500527],[-122.626206,45.49981],[-122.628548,45.499813],[-122.628534,45.499096],[-122.626203,45.499102],[-122.626186,45.497059],[-122.625873,45.49708],[-122.625806,45.496716],[-122.62576,45.496648],[-122.624628,45.496196],[-122.624354,45.496118],[-122.624093,45.496092],[-122.622618,45.496081],[-122.622631,45.493345],[-122.619205,45.49334],[-122.619018,45.493252],[-122.618947,45.493093],[-122.618981,45.490311],[-122.601299,45.490293],[-122.601359,45.485407],[-122.602119,45.485423],[-122.602157,45.483068],[-122.599588,45.483061],[-122.599626,45.480081],[-122.597047,45.480074],[-122.59707,45.479167],[-122.608754,45.479174],[-122.608769,45.475843],[-122.610021,45.472238],[-122.610082,45.466764],[-122.610127,45.466489],[-122.610103,45.462961],[-122.611762,45.462991],[-122.611671,45.462871],[-122.611761,45.462351],[-122.611765,45.462137],[-122.611406,45.462106],[-122.611127,45.461882],[-122.610909,45.461513],[-122.620778,45.461453],[-122.641507,45.461494],[-122.641486,45.459955],[-122.641356,45.45873],[-122.641431,45.458698],[-122.643597,45.458673],[-122.646989,45.458708],[-122.646625,45.455727]]]]}},{"type":"Feature","properties":{"name":"Franklin High School","school_label":"Franklin High School Russian Immersion, Spanish Immersion","cluster":"Franklin","level":"9-12","area_sqmi":9.62},"geometry":{"type":"MultiPolygon","coordinates":[[[[-122.559265,45.464633],[-122.553209,45.464673],[-122.553196,45.461068],[-122.558126,45.461056],[-122.568668,45.461377],[-122.579216,45.461536],[-122.585554,45.461497],[-122.587061,45.461538],[-122.602359,45.461487],[-122.610909,45.461513],[-122.611127,45.461882],[-122.611406,45.462106],[-122.611765,45.462137],[-122.611761,45.462351],[-122.611671,45.462871],[-122.611762,45.462991],[-122.610103,45.462961],[-122.610127,45.466489],[-122.610082,45.466764],[-122.610021,45.472238],[-122.608769,45.475843],[-122.608754,45.479174],[-122.59707,45.479167],[-122.597047,45.480074],[-122.599626,45.480081],[-122.599588,45.483061],[-122.602157,45.483068],[-122.602119,45.485423],[-122.601359,45.485407],[-122.601299,45.490293],[-122.618981,45.490311],[-122.618947,45.493093],[-122.619018,45.493252],[-122.619205,45.49334],[-122.622631,45.493345],[-122.622618,45.496081],[-122.624093,45.496092],[-122.624354,45.496118],[-122.624628,45.496196],[-122.62576,45.496648],[-122.625806,45.496716],[-122.625873,45.49708],[-122.626186,45.497059],[-122.626203,45.499102],[-122.628534,45.499096],[-122.628548,45.499813],[-122.626206,45.49981],[-122.626199,45.500527],[-122.622599,45.500525],[-122.622598,45.505502],[-122.622771,45.512061],[-122.620136,45.512056],[-122.620098,45.515029],[-122.619361,45.515028],[-122.619346,45.516499],[-122.619393,45.516582],[-122.622777,45.516588],[-122.622894,45.51654],[-122.622955,45.518597],[-122.622936,45.519306],[-122.622973,45.519747],[-122.622955,45.521721],[-122.622597,45.52172],[-122.622606,45.521362],[-122.61971,45.521362],[-122.619268,45.521431],[-122.61845,45.521622],[-122.617214,45.521637],[-122.617216,45.521995],[-122.616055,45.521986],[-122.616084,45.523136],[-122.6154,45.523111],[-122.614918,45.52299],[-122.614901,45.523753],[-122.614924,45.524408],[-122.613361,45.524398],[-122.61335,45.524688],[-122.612612,45.524687],[-122.612626,45.525098],[-122.611932,45.525095],[-122.611929,45.524379],[-122.607536,45.524376],[-122.607337,45.524288],[-122.605331,45.524287],[-122.605309,45.526505],[-122.604691,45.526509],[-122.604681,45.52779],[-122.603705,45.52812],[-122.603054,45.528414],[-122.602105,45.528904],[-122.602149,45.527973],[-122.602224,45.522888],[-122.598449,45.522889],[-122.597036,45.523128],[-122.592644,45.523163],[-122.59183,45.523132],[-122.591866,45.522285],[-122.591806,45.522119],[-122.590795,45.521725],[-122.588854,45.520816],[-122.588049,45.520426],[-122.587982,45.520367],[-122.58811,45.520288],[-122.58837,45.520291],[-122.588499,45.520258],[-122.588551,45.520196],[-122.58856,45.520135],[-122.588466,45.519916],[-122.588477,45.519283],[-122.588561,45.519221],[-122.578949,45.519151],[-122.578899,45.517674],[-122.578672,45.513532],[-122.578597,45.511331],[-122.578622,45.503427],[-122.578654,45.502154],[-122.578632,45.500523],[-122.578673,45.499188],[-122.578667,45.497428],[-122.578713,45.4962],[-122.578767,45.491428],[-122.578619,45.49153],[-122.576787,45.491525],[-122.576776,45.490252],[-122.574934,45.490263],[-122.574053,45.49018],[-122.574028,45.490089],[-122.574031,45.49018],[-122.571405,45.490091],[-122.566611,45.490017],[-122.558321,45.489808],[-122.555741,45.489801],[-122.555728,45.489085],[-122.555099,45.489081],[-122.555104,45.488906],[-122.553175,45.48891],[-122.553167,45.488033],[-122.558315,45.488002],[-122.558278,45.483681],[-122.553157,45.483849],[-122.553166,45.482813],[-122.552824,45.482651],[-122.552836,45.481721],[-122.552902,45.481728],[-122.55294,45.478335],[-122.558306,45.478361],[-122.558325,45.476989],[-122.555565,45.476459],[-122.555571,45.475362],[-122.555777,45.475343],[-122.555799,45.471798],[-122.553232,45.471844],[-122.553217,45.471387],[-122.555787,45.471128],[-122.555804,45.470007],[-122.556302,45.470006],[-122.556298,45.469564],[-122.55581,45.46955],[-122.555802,45.468971],[-122.556397,45.468968],[-122.556398,45.468663],[-122.556604,45.468659],[-122.556589,45.468217],[-122.555798,45.468232],[-122.555806,45.467477],[-122.557204,45.467482],[-122.557213,45.467756],[-122.557484,45.467752],[-122.557475,45.467485],[-122.558363,45.467477],[-122.558358,45.465404],[-122.558666,45.46552],[-122.559244,45.465639],[-122.559265,45.464633]]]]}},{"type":"Feature","properties":{"name":"Grant High School","school_label":"Grant High School Japanese Immersion","cluster":"Grant","level":"9-12","area_sqmi":3.97},"geometry":{"type":"MultiPolygon","coordinates":[[[[-122.617216,45.521995],[-122.617214,45.521637],[-122.61845,45.521622],[-122.619268,45.521431],[-122.61971,45.521362],[-122.622606,45.521362],[-122.622597,45.52172],[-122.622955,45.521721],[-122.622938,45.522804],[-122.62348,45.522786],[-122.624236,45.522696],[-122.626175,45.522302],[-122.627407,45.522165],[-122.628004,45.522169],[-122.628658,45.522279],[-122.628918,45.522259],[-122.629424,45.522142],[-122.631614,45.522132],[-122.631605,45.524343],[-122.634425,45.524344],[-122.634391,45.530205],[-122.634428,45.530326],[-122.634792,45.530807],[-122.635587,45.530587],[-122.636418,45.530472],[-122.644758,45.530073],[-122.644715,45.535035],[-122.664594,45.535111],[-122.664586,45.535813],[-122.663566,45.535809],[-122.663559,45.536525],[-122.66408,45.536523],[-122.664067,45.537087],[-122.661528,45.537082],[-122.661464,45.543836],[-122.661492,45.544643],[-122.661342,45.544692],[-122.658455,45.544678],[-122.658417,45.548215],[-122.658463,45.548282],[-122.654317,45.548269],[-122.654346,45.546005],[-122.655366,45.546008],[-122.655371,45.545216],[-122.640958,45.545173],[-122.640968,45.548244],[-122.640905,45.550784],[-122.640497,45.550593],[-122.640256,45.550841],[-122.640229,45.551002],[-122.64007,45.551112],[-122.638779,45.552957],[-122.638783,45.553087],[-122.633692,45.553067],[-122.633666,45.555415],[-122.630507,45.555405],[-122.630513,45.553698],[-122.620388,45.553718],[-122.620118,45.553776],[-122.614756,45.553753],[-122.614779,45.551901],[-122.609514,45.551868],[-122.609567,45.548369],[-122.609467,45.548287],[-122.604387,45.548258],[-122.604457,45.542419],[-122.604419,45.54226],[-122.607513,45.541029],[-122.607501,45.541311],[-122.610268,45.541329],[-122.610509,45.54137],[-122.61063,45.541437],[-122.610766,45.541602],[-122.610821,45.541929],[-122.611128,45.54171],[-122.611535,45.541573],[-122.611828,45.541567],[-122.612255,45.541674],[-122.61292,45.541753],[-122.613353,45.541737],[-122.613492,45.541666],[-122.613815,45.541599],[-122.614835,45.541603],[-122.614868,45.533783],[-122.604864,45.533731],[-122.604887,45.532199],[-122.604954,45.531938],[-122.604979,45.530467],[-122.605033,45.530138],[-122.605038,45.5284],[-122.604681,45.52779],[-122.604691,45.526509],[-122.605309,45.526505],[-122.605331,45.524287],[-122.607337,45.524288],[-122.607536,45.524376],[-122.611929,45.524379],[-122.611932,45.525095],[-122.612626,45.525098],[-122.612612,45.524687],[-122.61335,45.524688],[-122.613361,45.524398],[-122.614924,45.524408],[-122.614901,45.523753],[-122.614918,45.52299],[-122.6154,45.523111],[-122.616084,45.523136],[-122.616055,45.521986],[-122.617216,45.521995]]]]}},{"type":"Feature","properties":{"name":"Jefferson High School","school_label":"Jefferson High School Mandarin Immersion","cluster":"Jefferson","level":"9-12","area_sqmi":21.62},"geometry":{"type":"MultiPolygon","coordinates":[[[[-122.671366,45.533352],[-122.674122,45.531837],[-122.68289,45.537935],[-122.687296,45.540702],[-122.6947,45.54774],[-122.708771,45.554215],[-122.723375,45.562408],[-122.730788,45.566517],[-122.723853,45.570737],[-122.721619,45.572876],[-122.721047,45.57326],[-122.721237,45.573409],[-122.720085,45.57398],[-122.718391,45.574577],[-122.714086,45.575315],[-122.71199,45.575295],[-122.708846,45.575119],[-122.707765,45.574965],[-122.70667,45.574704],[-122.705673,45.574441],[-122.704344,45.57404],[-122.703629,45.573771],[-122.702621,45.573212],[-122.702618,45.577045],[-122.702568,45.577153],[-122.681895,45.577144],[-122.678434,45.577232],[-122.678391,45.581189],[-122.678492,45.58249],[-122.678693,45.583561],[-122.680816,45.588284],[-122.682394,45.588353],[-122.683193,45.588536],[-122.684095,45.588847],[-122.684802,45.589199],[-122.685385,45.589409],[-122.688561,45.590126],[-122.689153,45.59029],[-122.693178,45.591699],[-122.694221,45.591992],[-122.695653,45.592551],[-122.698503,45.593594],[-122.700839,45.594205],[-122.70162,45.594495],[-122.702418,45.594624],[-122.70354,45.594725],[-122.704777,45.594693],[-122.705854,45.594741],[-122.706598,45.594895],[-122.707005,45.595016],[-122.708137,45.595383],[-122.709336,45.595817],[-122.709994,45.595972],[-122.71206,45.596344],[-122.712874,45.596618],[-122.714556,45.597493],[-122.715592,45.598204],[-122.716598,45.598985],[-122.718288,45.60005],[-122.718765,45.600315],[-122.719162,45.600475],[-122.704858,45.612213],[-122.704723,45.612391],[-122.703945,45.613694],[-122.702976,45.613339],[-122.702723,45.613573],[-122.703509,45.613962],[-122.703723,45.614179],[-122.70389,45.614297],[-122.704915,45.614682],[-122.70517,45.614837],[-122.705976,45.61518],[-122.706371,45.615294],[-122.707704,45.615809],[-122.708136,45.616015],[-122.708624,45.61631],[-122.709251,45.616504],[-122.709429,45.616638],[-122.709682,45.616717],[-122.710538,45.617249],[-122.711056,45.617445],[-122.712196,45.617712],[-122.713948,45.618395],[-122.714269,45.618564],[-122.715514,45.61902],[-122.717748,45.62009],[-122.723251,45.623207],[-122.72595,45.624489],[-122.728281,45.625823],[-122.729369,45.626175],[-122.730072,45.626665],[-122.730883,45.627434],[-122.732035,45.628044],[-122.733095,45.629098],[-122.735357,45.630609],[-122.737127,45.631733],[-122.738172,45.632673],[-122.739578,45.633659],[-122.741951,45.635252],[-122.743332,45.636421],[-122.743207,45.645846],[-122.73689,45.64373],[-122.727806,45.641009],[-122.713102,45.636719],[-122.706194,45.633813],[-122.69894,45.629364],[-122.691619,45.625563],[-122.68911,45.624145],[-122.682679,45.621291],[-122.674969,45.618207],[-122.668063,45.615614],[-122.660803,45.613525],[-122.648996,45.609758],[-122.643586,45.608354],[-122.635166,45.607035],[-122.635031,45.606926],[-122.634922,45.600967],[-122.635051,45.599364],[-122.635206,45.598211],[-122.635377,45.596279],[-122.6354,45.5957],[-122.635499,45.595416],[-122.635505,45.594356],[-122.630411,45.594352],[-122.63042,45.590541],[-122.620221,45.589259],[-122.620222,45.578665],[-122.622054,45.577633],[-122.622044,45.575461],[-122.62418,45.575086],[-122.624137,45.571665],[-122.624583,45.571367],[-122.624581,45.570049],[-122.62432,45.570054],[-122.624313,45.568278],[-122.62419,45.568197],[-122.624194,45.566421],[-122.624454,45.566416],[-122.624455,45.565204],[-122.624344,45.565122],[-122.624361,45.564672],[-122.624279,45.564506],[-122.62428,45.563912],[-122.627417,45.563907],[-122.627421,45.562764],[-122.620237,45.56282],[-122.613994,45.562791],[-122.614043,45.560435],[-122.614684,45.560438],[-122.614698,45.55928],[-122.614637,45.559098],[-122.614691,45.555629],[-122.614729,45.555468],[-122.614756,45.553753],[-122.620118,45.553776],[-122.620388,45.553718],[-122.630513,45.553698],[-122.630507,45.555405],[-122.633666,45.555415],[-122.633692,45.553067],[-122.638783,45.553087],[-122.638779,45.552957],[-122.64007,45.551112],[-122.640229,45.551002],[-122.640256,45.550841],[-122.640497,45.550593],[-122.640905,45.550784],[-122.640968,45.548244],[-122.640958,45.545173],[-122.655371,45.545216],[-122.655366,45.546008],[-122.654346,45.546005],[-122.654317,45.548269],[-122.658463,45.548282],[-122.658417,45.548215],[-122.658455,45.544678],[-122.661342,45.544692],[-122.661492,45.544643],[-122.661464,45.543836],[-122.661528,45.537082],[-122.664067,45.537087],[-122.66408,45.536523],[-122.663559,45.536525],[-122.663566,45.535809],[-122.664586,45.535813],[-122.664594,45.535111],[-122.668315,45.535102],[-122.66872,45.534904],[-122.669718,45.53429],[-122.671366,45.533352]]]]}},{"type":"Feature","properties":{"name":"Lincoln High School","school_label":"Lincoln High School Spanish Immersion","cluster":"Lincoln","level":"9-12","area_sqmi":16.76},"geometry":{"type":"MultiPolygon","coordinates":[[[[-122.690137,45.490489],[-122.690541,45.489384],[-122.691031,45.489428],[-122.691264,45.489279],[-122.691641,45.489508],[-122.692454,45.489515],[-122.692456,45.489569],[-122.694397,45.489569],[-122.695055,45.489481],[-122.69505,45.489344],[-122.698346,45.489357],[-122.698465,45.489644],[-122.698905,45.489826],[-122.699332,45.489947],[-122.699433,45.490037],[-122.699512,45.490135],[-122.699549,45.490263],[-122.699571,45.490575],[-122.699721,45.490816],[-122.699958,45.491071],[-122.700572,45.491257],[-122.700729,45.491399],[-122.700746,45.491589],[-122.700609,45.491988],[-122.700605,45.492179],[-122.700829,45.492388],[-122.700832,45.492457],[-122.701437,45.492407],[-122.702102,45.492204],[-122.702253,45.492193],[-122.70258,45.492217],[-122.702986,45.49237],[-122.703277,45.492608],[-122.703515,45.492908],[-122.703553,45.493052],[-122.703463,45.493565],[-122.703511,45.493701],[-122.703644,45.493782],[-122.704264,45.493831],[-122.704387,45.493936],[-122.704423,45.494026],[-122.704416,45.494126],[-122.70432,45.49447],[-122.704402,45.494652],[-122.70459,45.49474],[-122.704807,45.494758],[-122.705409,45.494609],[-122.706004,45.494568],[-122.70646,45.494604],[-122.70668,45.494692],[-122.706762,45.494858],[-122.706732,45.494919],[-122.706244,45.495516],[-122.706095,45.495595],[-122.706028,45.49584],[-122.706087,45.495961],[-122.706263,45.496034],[-122.707109,45.496055],[-122.707414,45.496095],[-122.707982,45.496191],[-122.708354,45.496298],[-122.708642,45.496453],[-122.709246,45.496982],[-122.710001,45.497471],[-122.710656,45.498487],[-122.711004,45.49941],[-122.71103,45.499524],[-122.710965,45.500135],[-122.710974,45.500973],[-122.710881,45.501112],[-122.711021,45.501369],[-122.711155,45.501488],[-122.711288,45.501554],[-122.71182,45.501574],[-122.712115,45.501645],[-122.71323,45.502195],[-122.71362,45.501882],[-122.714203,45.501498],[-122.71491,45.500973],[-122.716282,45.50023],[-122.716861,45.500051],[-122.717089,45.50007],[-122.717696,45.500348],[-122.717783,45.500354],[-122.718314,45.499772],[-122.719026,45.499354],[-122.719271,45.499243],[-122.719625,45.499137],[-122.720421,45.498976],[-122.722447,45.499212],[-122.722894,45.498997],[-122.724005,45.498541],[-122.724659,45.498315],[-122.725609,45.498205],[-122.726132,45.498286],[-122.726436,45.498288],[-122.727265,45.498135],[-122.727855,45.497956],[-122.729134,45.497946],[-122.729736,45.498392],[-122.729705,45.49933],[-122.729725,45.500762],[-122.730323,45.500819],[-122.730307,45.500964],[-122.731142,45.500971],[-122.731133,45.50043],[-122.732261,45.500439],[-122.732265,45.500545],[-122.732948,45.500547],[-122.732951,45.500928],[-122.73358,45.500931],[-122.733589,45.502653],[-122.734189,45.502451],[-122.734249,45.502618],[-122.734523,45.502689],[-122.735768,45.501163],[-122.736603,45.501162],[-122.73522,45.502774],[-122.736137,45.503221],[-122.736118,45.503313],[-122.73591,45.503553],[-122.73546,45.503692],[-122.735302,45.503817],[-122.735108,45.504156],[-122.735036,45.504561],[-122.736209,45.504599],[-122.736424,45.50426],[-122.736643,45.504019],[-122.737818,45.503226],[-122.738257,45.503073],[-122.739535,45.502736],[-122.740209,45.502494],[-122.740441,45.502306],[-122.741086,45.501585],[-122.741188,45.501392],[-122.741235,45.501216],[-122.741237,45.500972],[-122.74072,45.49987],[-122.740593,45.499674],[-122.740232,45.499277],[-122.740135,45.499004],[-122.740102,45.4987],[-122.739843,45.498141],[-122.739842,45.497829],[-122.740079,45.497489],[-122.740216,45.497379],[-122.740343,45.497286],[-122.741173,45.496865],[-122.741837,45.496349],[-122.742329,45.495875],[-122.742756,45.495394],[-122.742951,45.495108],[-122.743284,45.494423],[-122.743477,45.493764],[-122.743623,45.493045],[-122.743855,45.49256],[-122.743849,45.498002],[-122.746399,45.498043],[-122.746407,45.497967],[-122.746996,45.498062],[-122.747027,45.498008],[-122.747709,45.497995],[-122.747701,45.498071],[-122.750359,45.498111],[-122.750479,45.498123],[-122.750672,45.498348],[-122.750953,45.49835],[-122.751039,45.498013],[-122.751443,45.498105],[-122.751985,45.498391],[-122.752896,45.498686],[-122.75333,45.498121],[-122.753891,45.498338],[-122.754134,45.498166],[-122.754905,45.498181],[-122.755351,45.498226],[-122.757412,45.498254],[-122.757357,45.497638],[-122.757845,45.497643],[-122.757846,45.498261],[-122.758324,45.498274],[-122.758363,45.497587],[-122.759042,45.497764],[-122.760365,45.498348],[-122.761065,45.498525],[-122.762399,45.498239],[-122.762702,45.498203],[-122.763865,45.498279],[-122.763942,45.500953],[-122.76466,45.501007],[-122.764669,45.501823],[-122.764322,45.501829],[-122.764272,45.501937],[-122.764334,45.502165],[-122.764638,45.502166],[-122.764631,45.50257],[-122.764191,45.50267],[-122.764308,45.502912],[-122.76428,45.50507],[-122.764487,45.505104],[-122.764488,45.505408],[-122.764405,45.506096],[-122.761646,45.505975],[-122.759519,45.505933],[-122.758316,45.505965],[-122.758323,45.507908],[-122.751091,45.507928],[-122.751087,45.508416],[-122.747293,45.508453],[-122.747323,45.508681],[-122.746608,45.50871],[-122.746404,45.508455],[-122.746035,45.508462],[-122.745751,45.508117],[-122.745106,45.508274],[-122.745202,45.51235],[-122.743857,45.512323],[-122.743854,45.519602],[-122.743821,45.523116],[-122.759312,45.523155],[-122.759315,45.526737],[-122.76206,45.526752],[-122.762046,45.527537],[-122.763163,45.52753],[-122.76315,45.529787],[-122.763443,45.529788],[-122.76344,45.531191],[-122.764406,45.531195],[-122.764402,45.531378],[-122.766019,45.531376],[-122.766035,45.533853],[-122.774713,45.533818],[-122.774716,45.530411],[-122.774745,45.530312],[-122.778119,45.530321],[-122.779889,45.530362],[-122.779798,45.531987],[-122.779762,45.533924],[-122.784822,45.534014],[-122.78469,45.542332],[-122.782378,45.542325],[-122.783423,45.543577],[-122.782761,45.543849],[-122.782426,45.543612],[-122.782108,45.544091],[-122.779538,45.542404],[-122.780495,45.545365],[-122.780807,45.546151],[-122.780157,45.546187],[-122.777344,45.544673],[-122.77681,45.545187],[-122.778414,45.546008],[-122.77833,45.548388],[-122.784702,45.548429],[-122.784704,45.555715],[-122.783294,45.555744],[-122.782792,45.556516],[-122.782365,45.55673],[-122.782166,45.556909],[-122.780988,45.557634],[-122.77972,45.557087],[-122.779575,45.556991],[-122.77949,45.557054],[-122.779616,45.569947],[-122.774443,45.569814],[-122.774353,45.562758],[-122.763597,45.55493],[-122.7637,45.548068],[-122.747229,45.548156],[-122.747284,45.544344],[-122.746989,45.544304],[-122.74655,45.544175],[-122.746129,45.543924],[-122.74557,45.543485],[-122.745383,45.543405],[-122.745241,45.543393],[-122.745026,45.543458],[-122.744575,45.543878],[-122.744331,45.54402],[-122.74417,45.544062],[-122.743854,45.544037],[-122.743645,45.543958],[-122.742295,45.543245],[-122.740258,45.541852],[-122.740165,45.54465],[-122.739894,45.544656],[-122.739734,45.54472],[-122.739439,45.544962],[-122.739234,45.544981],[-122.737686,45.544798],[-122.737458,45.544795],[-122.737321,45.544919],[-122.737141,45.545327],[-122.737167,45.545448],[-122.737291,45.54556],[-122.73753,45.545578],[-122.737679,45.545492],[-122.737761,45.545368],[-122.737878,45.54529],[-122.738384,45.545196],[-122.738517,45.545254],[-122.738632,45.54545],[-122.738765,45.545509],[-122.73911,45.545456],[-122.739209,45.545485],[-122.739288,45.545582],[-122.739249,45.54569],[-122.738597,45.545969],[-122.738536,45.546069],[-122.738616,45.546182],[-122.738804,45.546278],[-122.738798,45.546423],[-122.73867,45.546463],[-122.738203,45.546457],[-122.738063,45.546505],[-122.737885,45.546661],[-122.737616,45.546728],[-122.737467,45.546822],[-122.73745,45.546937],[-122.737355,45.547015],[-122.737173,45.547072],[-122.737132,45.547156],[-122.737191,45.547269],[-122.737162,45.547369],[-122.737055,45.547425],[-122.736384,45.547453],[-122.736179,45.547503],[-122.735485,45.547806],[-122.735161,45.547858],[-122.734974,45.547793],[-122.73523,45.547666],[-122.735325,45.54758],[-122.735343,45.547488],[-122.735319,45.54742],[-122.735207,45.547331],[-122.735,45.547305],[-122.73395,45.547378],[-122.733786,45.547359],[-122.733642,45.547278],[-122.733595,45.547172],[-122.733766,45.546505],[-122.73375,45.546369],[-122.729195,45.549407],[-122.729128,45.549355],[-122.727937,45.550026],[-122.728217,45.550272],[-122.726608,45.552269],[-122.72522,45.551709],[-122.72333,45.554025],[-122.723313,45.557135],[-122.723375,45.562408],[-122.708771,45.554215],[-122.6947,45.54774],[-122.687296,45.540702],[-122.68289,45.537935],[-122.674122,45.531837],[-122.669007,45.527719],[-122.668929,45.527644],[-122.668881,45.527523],[-122.667887,45.52306],[-122.668197,45.520494],[-122.669535,45.517846],[-122.670944,45.513239],[-122.669624,45.50754],[-122.666434,45.501084],[-122.67434,45.500493],[-122.676241,45.500304],[-122.67887,45.50014],[-122.680541,45.500161],[-122.680179,45.499444],[-122.678919,45.497258],[-122.678543,45.496449],[-122.677996,45.495698],[-122.677411,45.495099],[-122.677103,45.494381],[-122.676872,45.493349],[-122.676857,45.49293],[-122.676881,45.492693],[-122.676956,45.492379],[-122.67715,45.492048],[-122.67742,45.491715],[-122.67784,45.491333],[-122.678519,45.490894],[-122.678936,45.490733],[-122.679419,45.490595],[-122.680333,45.490402],[-122.681278,45.490148],[-122.681789,45.489879],[-122.682242,45.48952],[-122.684726,45.489556],[-122.684702,45.490403],[-122.686557,45.490421],[-122.686591,45.490466],[-122.690137,45.490489]]]]}},{"type":"Feature","properties":{"name":"McDaniel High School","school_label":"McDaniel High School Spanish Immersion, Vietnamese Immersion","cluster":"McDaniel","level":"9-12","area_sqmi":10.32},"geometry":{"type":"MultiPolygon","coordinates":[[[[-122.562974,45.542388],[-122.559512,45.542366],[-122.559661,45.541304],[-122.559813,45.539365],[-122.559954,45.53809],[-122.560183,45.537156],[-122.560354,45.536757],[-122.560765,45.536071],[-122.561108,45.5356],[-122.561893,45.534763],[-122.562337,45.534412],[-122.563598,45.533521],[-122.568413,45.533479],[-122.568601,45.522661],[-122.568588,45.522586],[-122.567362,45.522585],[-122.567404,45.520275],[-122.567794,45.520283],[-122.567804,45.520237],[-122.567977,45.520226],[-122.567995,45.520119],[-122.568624,45.520123],[-122.568653,45.5184],[-122.564434,45.518415],[-122.564405,45.514026],[-122.563657,45.514017],[-122.563741,45.51105],[-122.563786,45.507536],[-122.567268,45.507572],[-122.567282,45.504463],[-122.552929,45.504256],[-122.552963,45.50203],[-122.55305,45.502028],[-122.553068,45.499658],[-122.558154,45.499665],[-122.558218,45.49705],[-122.563815,45.497132],[-122.563822,45.496393],[-122.564452,45.496412],[-122.56471,45.495379],[-122.564897,45.493546],[-122.563369,45.493543],[-122.560613,45.493471],[-122.560631,45.493371],[-122.560814,45.493025],[-122.560832,45.491615],[-122.558293,45.491546],[-122.558321,45.489808],[-122.566611,45.490017],[-122.571405,45.490091],[-122.573879,45.490168],[-122.574934,45.490263],[-122.576776,45.490252],[-122.576787,45.491525],[-122.578619,45.49153],[-122.578767,45.491428],[-122.578713,45.4962],[-122.578667,45.497428],[-122.578673,45.499188],[-122.578632,45.500523],[-122.578654,45.502154],[-122.578622,45.503427],[-122.578597,45.511331],[-122.578672,45.513532],[-122.578899,45.517674],[-122.578949,45.519151],[-122.588561,45.519221],[-122.588477,45.519283],[-122.588466,45.519916],[-122.58856,45.520135],[-122.588551,45.520196],[-122.588499,45.520258],[-122.58837,45.520291],[-122.58811,45.520288],[-122.587982,45.520367],[-122.588049,45.520426],[-122.588854,45.520816],[-122.590795,45.521725],[-122.591806,45.522119],[-122.591866,45.522285],[-122.59183,45.523132],[-122.592644,45.523163],[-122.597036,45.523128],[-122.598449,45.522889],[-122.602224,45.522888],[-122.602149,45.527973],[-122.602105,45.528904],[-122.603054,45.528414],[-122.603705,45.52812],[-122.604681,45.52779],[-122.605038,45.5284],[-122.605033,45.530138],[-122.604979,45.530467],[-122.604954,45.531938],[-122.604887,45.532199],[-122.604864,45.533731],[-122.614868,45.533783],[-122.614835,45.541603],[-122.613815,45.541599],[-122.613492,45.541666],[-122.613353,45.541737],[-122.61292,45.541753],[-122.612255,45.541674],[-122.611828,45.541567],[-122.611535,45.541573],[-122.611128,45.54171],[-122.610821,45.541929],[-122.610766,45.541602],[-122.61063,45.541437],[-122.610509,45.54137],[-122.610268,45.541329],[-122.607501,45.541311],[-122.607513,45.541029],[-122.604419,45.54226],[-122.604457,45.542419],[-122.604387,45.548258],[-122.609467,45.548287],[-122.609567,45.548369],[-122.609514,45.551868],[-122.614779,45.551901],[-122.614729,45.555468],[-122.614691,45.555629],[-122.614637,45.559098],[-122.614698,45.55928],[-122.614684,45.560438],[-122.614043,45.560435],[-122.613994,45.562791],[-122.620237,45.56282],[-122.627421,45.562764],[-122.627417,45.563907],[-122.62428,45.563912],[-122.624279,45.564506],[-122.624361,45.564672],[-122.624344,45.565122],[-122.624455,45.565204],[-122.624454,45.566416],[-122.624194,45.566421],[-122.62419,45.568197],[-122.624313,45.568278],[-122.62432,45.570054],[-122.624581,45.570049],[-122.624583,45.571367],[-122.624137,45.571665],[-122.62418,45.575086],[-122.622044,45.575461],[-122.622054,45.577633],[-122.620222,45.578658],[-122.620221,45.589259],[-122.619359,45.589153],[-122.618787,45.588615],[-122.618279,45.588388],[-122.617363,45.58826],[-122.616615,45.588289],[-122.615161,45.588659],[-122.615042,45.588661],[-122.615069,45.586298],[-122.615042,45.585216],[-122.615063,45.579858],[-122.613988,45.579863],[-122.612716,45.580755],[-122.611447,45.579864],[-122.60477,45.579864],[-122.602314,45.57885],[-122.59942,45.578057],[-122.598042,45.578082],[-122.596217,45.578695],[-122.597423,45.579968],[-122.595696,45.579962],[-122.595699,45.579509],[-122.596047,45.578661],[-122.595706,45.577607],[-122.595707,45.577127],[-122.586394,45.577182],[-122.575079,45.577143],[-122.575094,45.573424],[-122.573672,45.573427],[-122.565384,45.573302],[-122.565395,45.56975],[-122.566741,45.569772],[-122.5671,45.5685],[-122.567926,45.568523],[-122.567969,45.562738],[-122.578279,45.562689],[-122.578485,45.55245],[-122.576605,45.553215],[-122.5764,45.553222],[-122.576399,45.553299],[-122.575798,45.553542],[-122.575794,45.553421],[-122.575846,45.55111],[-122.578494,45.551116],[-122.578524,45.551024],[-122.578532,45.549987],[-122.569404,45.549962],[-122.56937,45.552813],[-122.569164,45.552816],[-122.568061,45.5526],[-122.568088,45.552127],[-122.565689,45.551134],[-122.565313,45.550919],[-122.563562,45.549526],[-122.563029,45.549162],[-122.562928,45.549049],[-122.562832,45.548792],[-122.562889,45.548555],[-122.563067,45.548353],[-122.563194,45.548275],[-122.563484,45.548186],[-122.563842,45.548172],[-122.564332,45.548232],[-122.564698,45.548134],[-122.567237,45.548134],[-122.567445,45.547871],[-122.567516,45.547709],[-122.567631,45.54725],[-122.568147,45.546471],[-122.568152,45.546311],[-122.568323,45.546209],[-122.568373,45.546109],[-122.568381,45.546025],[-122.568252,45.54541],[-122.568298,45.544845],[-122.568146,45.544512],[-122.562948,45.544499],[-122.562974,45.542388]],[[-122.562974,45.542388],[-122.564667,45.542388],[-122.564703,45.540878],[-122.563,45.540878],[-122.562974,45.542388]]]]}},{"type":"Feature","properties":{"name":"Roosevelt High School","school_label":"Roosevelt High School Spanish Immersion","cluster":"Roosevelt","level":"9-12","area_sqmi":55.09},"geometry":{"type":"MultiPolygon","coordinates":[[[[-122.821767,45.638186],[-122.820119,45.633197],[-122.8186,45.630689],[-122.816413,45.627792],[-122.815091,45.626462],[-122.809474,45.622802],[-122.804568,45.620385],[-122.801476,45.619639],[-122.798305,45.619413],[-122.796712,45.619529],[-122.795154,45.619697],[-122.793694,45.619894],[-122.792497,45.620116],[-122.792205,45.620739],[-122.791767,45.621807],[-122.790396,45.626362],[-122.790303,45.627919],[-122.788844,45.631317],[-122.788001,45.632865],[-122.786809,45.634711],[-122.773212,45.634714],[-122.759682,45.63476],[-122.753355,45.634724],[-122.743323,45.634722],[-122.743298,45.636384],[-122.741951,45.635252],[-122.739578,45.633659],[-122.738172,45.632673],[-122.737127,45.631733],[-122.735357,45.630609],[-122.733095,45.629098],[-122.732035,45.628044],[-122.730883,45.627434],[-122.730072,45.626665],[-122.729369,45.626175],[-122.728281,45.625823],[-122.72595,45.624489],[-122.723251,45.623207],[-122.717748,45.62009],[-122.715514,45.61902],[-122.714269,45.618564],[-122.713948,45.618395],[-122.712196,45.617712],[-122.711056,45.617445],[-122.710538,45.617249],[-122.709682,45.616717],[-122.709429,45.616638],[-122.709251,45.616504],[-122.708624,45.61631],[-122.708136,45.616015],[-122.707704,45.615809],[-122.706371,45.615294],[-122.705976,45.61518],[-122.70517,45.614837],[-122.704915,45.614682],[-122.70389,45.614297],[-122.703723,45.614179],[-122.703509,45.613962],[-122.702723,45.613573],[-122.702976,45.613339],[-122.703945,45.613694],[-122.704723,45.612391],[-122.704858,45.612213],[-122.719162,45.600475],[-122.718765,45.600315],[-122.718288,45.60005],[-122.716598,45.598985],[-122.715592,45.598204],[-122.714556,45.597493],[-122.712874,45.596618],[-122.71206,45.596344],[-122.709994,45.595972],[-122.709336,45.595817],[-122.708137,45.595383],[-122.707005,45.595016],[-122.706598,45.594895],[-122.705854,45.594741],[-122.704777,45.594693],[-122.70354,45.594725],[-122.702418,45.594624],[-122.70162,45.594495],[-122.700839,45.594205],[-122.698503,45.593594],[-122.695653,45.592551],[-122.694221,45.591992],[-122.693178,45.591699],[-122.689153,45.59029],[-122.688561,45.590126],[-122.685385,45.589409],[-122.684802,45.589199],[-122.684095,45.588847],[-122.683193,45.588536],[-122.682394,45.588353],[-122.680816,45.588284],[-122.678693,45.583561],[-122.678492,45.58249],[-122.678391,45.581189],[-122.678434,45.577232],[-122.681895,45.577144],[-122.702568,45.577153],[-122.702618,45.577045],[-122.702621,45.573212],[-122.703629,45.573771],[-122.704092,45.573961],[-122.705673,45.574441],[-122.707765,45.574965],[-122.708846,45.575119],[-122.712718,45.575311],[-122.714086,45.575315],[-122.718402,45.574569],[-122.720085,45.57398],[-122.721237,45.573409],[-122.721047,45.57326],[-122.721619,45.572876],[-122.723853,45.570737],[-122.730788,45.566517],[-122.723375,45.562408],[-122.723313,45.557135],[-122.72333,45.554025],[-122.72522,45.551709],[-122.726608,45.552269],[-122.728217,45.550272],[-122.727937,45.550026],[-122.729128,45.549355],[-122.729195,45.549407],[-122.73375,45.546369],[-122.733766,45.546505],[-122.733595,45.547172],[-122.733642,45.547278],[-122.733786,45.547359],[-122.73395,45.547378],[-122.735,45.547305],[-122.735207,45.547331],[-122.735319,45.54742],[-122.735343,45.547488],[-122.735325,45.54758],[-122.73523,45.547666],[-122.734974,45.547793],[-122.735161,45.547858],[-122.735485,45.547806],[-122.736179,45.547503],[-122.736384,45.547453],[-122.737055,45.547425],[-122.737162,45.547369],[-122.737191,45.547269],[-122.737132,45.547156],[-122.737173,45.547072],[-122.737355,45.547015],[-122.73745,45.546937],[-122.737467,45.546822],[-122.737616,45.546728],[-122.737885,45.546661],[-122.738063,45.546505],[-122.738203,45.546457],[-122.73867,45.546463],[-122.738798,45.546423],[-122.738804,45.546278],[-122.738616,45.546182],[-122.738536,45.546069],[-122.738597,45.545969],[-122.739249,45.54569],[-122.739288,45.545582],[-122.739209,45.545485],[-122.73911,45.545456],[-122.738765,45.545509],[-122.738632,45.54545],[-122.738517,45.545254],[-122.738384,45.545196],[-122.737878,45.54529],[-122.737761,45.545368],[-122.737679,45.545492],[-122.73753,45.545578],[-122.737291,45.54556],[-122.737167,45.545448],[-122.737141,45.545327],[-122.737321,45.544919],[-122.737458,45.544795],[-122.737686,45.544798],[-122.739234,45.544981],[-122.739439,45.544962],[-122.739734,45.54472],[-122.739894,45.544656],[-122.740165,45.54465],[-122.740258,45.541852],[-122.742295,45.543245],[-122.743645,45.543958],[-122.743854,45.544037],[-122.74417,45.544062],[-122.744331,45.54402],[-122.744575,45.543878],[-122.745026,45.543458],[-122.745241,45.543393],[-122.745383,45.543405],[-122.74557,45.543485],[-122.746129,45.543924],[-122.74655,45.544175],[-122.746989,45.544304],[-122.747284,45.544344],[-122.747229,45.548156],[-122.7637,45.548068],[-122.763597,45.55493],[-122.774353,45.562758],[-122.774443,45.569814],[-122.779616,45.569947],[-122.77949,45.557054],[-122.779575,45.556991],[-122.77972,45.557087],[-122.780988,45.557634],[-122.782166,45.556909],[-122.782365,45.55673],[-122.782792,45.556516],[-122.783294,45.555744],[-122.784704,45.555715],[-122.805401,45.555683],[-122.80536,45.562886],[-122.817806,45.563039],[-122.820323,45.562988],[-122.825835,45.563048],[-122.825771,45.565171],[-122.826025,45.577502],[-122.836341,45.577475],[-122.846634,45.577521],[-122.846526,45.584594],[-122.846561,45.591906],[-122.867256,45.591919],[-122.867212,45.606267],[-122.877532,45.60618],[-122.887626,45.606394],[-122.887578,45.620519],[-122.887556,45.620631],[-122.890918,45.620615],[-122.891211,45.620646],[-122.903206,45.62067],[-122.90853,45.620724],[-122.908863,45.628011],[-122.908828,45.633613],[-122.908848,45.635213],[-122.918442,45.635361],[-122.928713,45.63527],[-122.928807,45.642488],[-122.928787,45.642619],[-122.92885,45.649744],[-122.928838,45.656946],[-122.928876,45.66409],[-122.928926,45.665764],[-122.928947,45.671383],[-122.919057,45.671279],[-122.919108,45.671799],[-122.919321,45.672985],[-122.918931,45.673719],[-122.918534,45.678342],[-122.928793,45.678401],[-122.928959,45.692912],[-122.921428,45.692869],[-122.90856,45.69266],[-122.888087,45.6925],[-122.888107,45.696444],[-122.888208,45.703327],[-122.888183,45.706881],[-122.882962,45.706936],[-122.877971,45.706818],[-122.87312,45.706845],[-122.872433,45.706897],[-122.871508,45.702265],[-122.871452,45.700424],[-122.871017,45.698423],[-122.870859,45.697273],[-122.870963,45.694871],[-122.871226,45.694251],[-122.871466,45.693092],[-122.871492,45.692496],[-122.868122,45.692437],[-122.867957,45.691696],[-122.867475,45.690422],[-122.866416,45.686909],[-122.866024,45.684685],[-122.866047,45.681651],[-122.867198,45.678389],[-122.867667,45.676444],[-122.867452,45.675779],[-122.866608,45.674699],[-122.865984,45.673782],[-122.862451,45.671827],[-122.860406,45.670549],[-122.858718,45.668947],[-122.857681,45.667089],[-122.856893,45.666064],[-122.856178,45.664907],[-122.85478,45.663857],[-122.851171,45.661364],[-122.849019,45.660032],[-122.847702,45.659018],[-122.844639,45.65629],[-122.842436,45.654419],[-122.840374,45.653309],[-122.835461,45.651848],[-122.832174,45.650613],[-122.829074,45.649393],[-122.827132,45.648019],[-122.825777,45.646726],[-122.824878,45.645554],[-122.824077,45.644212],[-122.823222,45.642257],[-122.822943,45.64138],[-122.82295,45.641894],[-122.821767,45.638186]]]]}},{"type":"Feature","properties":{"name":"Wells-Barnett High School","school_label":"Wells-Barnett High School","cluster":"Wells-Barnett","level":"9-12","area_sqmi":15.67},"geometry":{"type":"MultiPolygon","coordinates":[[[[-122.716139,45.433085],[-122.719487,45.433119],[-122.719691,45.432467],[-122.719679,45.432148],[-122.719585,45.431951],[-122.719461,45.431794],[-122.718348,45.430977],[-122.718678,45.430833],[-122.718883,45.430814],[-122.719232,45.430868],[-122.719715,45.431049],[-122.720135,45.43127],[-122.720402,45.431463],[-122.720952,45.432009],[-122.722187,45.433501],[-122.722564,45.433753],[-122.723068,45.433903],[-122.724514,45.434058],[-122.724733,45.434115],[-122.725448,45.434429],[-122.725841,45.43452],[-122.726264,45.43452],[-122.726597,45.43446],[-122.730066,45.433341],[-122.730505,45.433225],[-122.733656,45.433194],[-122.735358,45.433237],[-122.739084,45.433241],[-122.741316,45.433289],[-122.743959,45.433298],[-122.743911,45.441393],[-122.743879,45.444664],[-122.743849,45.445312],[-122.7438,45.454878],[-122.743823,45.458148],[-122.743799,45.460145],[-122.743839,45.462096],[-122.743768,45.467539],[-122.743772,45.473233],[-122.743799,45.474261],[-122.743759,45.474658],[-122.743746,45.475474],[-122.743886,45.475448],[-122.743877,45.475212],[-122.745059,45.475212],[-122.745057,45.475471],[-122.744916,45.475466],[-122.744918,45.475527],[-122.744624,45.475777],[-122.744482,45.475749],[-122.744396,45.475469],[-122.743951,45.475462],[-122.743948,45.475958],[-122.743731,45.475954],[-122.743727,45.476442],[-122.743793,45.476449],[-122.7438,45.477531],[-122.743761,45.478225],[-122.743797,45.480084],[-122.743788,45.484566],[-122.743826,45.485899],[-122.743855,45.49256],[-122.743623,45.493045],[-122.743477,45.493764],[-122.743284,45.494423],[-122.742951,45.495108],[-122.742756,45.495394],[-122.742329,45.495875],[-122.741837,45.496349],[-122.741173,45.496865],[-122.740343,45.497286],[-122.740216,45.497379],[-122.740079,45.497489],[-122.739842,45.497829],[-122.739843,45.498141],[-122.740102,45.4987],[-122.740135,45.499004],[-122.740232,45.499277],[-122.740593,45.499674],[-122.74072,45.49987],[-122.741237,45.500972],[-122.741235,45.501216],[-122.741188,45.501392],[-122.741086,45.501585],[-122.740441,45.502306],[-122.740209,45.502494],[-122.739535,45.502736],[-122.738257,45.503073],[-122.737818,45.503226],[-122.736643,45.504019],[-122.736424,45.50426],[-122.736209,45.504599],[-122.735036,45.504561],[-122.735108,45.504156],[-122.735302,45.503817],[-122.73546,45.503692],[-122.735889,45.503569],[-122.736118,45.503313],[-122.736115,45.503214],[-122.73522,45.502774],[-122.736603,45.501162],[-122.735768,45.501163],[-122.734523,45.502689],[-122.734249,45.502618],[-122.734189,45.502451],[-122.733589,45.502653],[-122.73358,45.500931],[-122.732951,45.500928],[-122.732948,45.500547],[-122.732265,45.500545],[-122.732261,45.500439],[-122.731133,45.50043],[-122.731142,45.500971],[-122.730307,45.500964],[-122.730323,45.500819],[-122.729725,45.500762],[-122.729705,45.49933],[-122.729719,45.498514],[-122.729747,45.498399],[-122.729134,45.497946],[-122.727855,45.497956],[-122.727265,45.498135],[-122.726436,45.498288],[-122.726132,45.498286],[-122.725609,45.498205],[-122.724659,45.498315],[-122.724005,45.498541],[-122.722894,45.498997],[-122.722447,45.499212],[-122.720421,45.498976],[-122.719625,45.499137],[-122.719271,45.499243],[-122.719026,45.499354],[-122.718314,45.499772],[-122.717783,45.500354],[-122.717696,45.500348],[-122.717089,45.50007],[-122.716861,45.500051],[-122.716282,45.50023],[-122.71491,45.500973],[-122.714203,45.501498],[-122.71362,45.501882],[-122.71323,45.502195],[-122.712115,45.501645],[-122.71182,45.501574],[-122.711288,45.501554],[-122.711155,45.501488],[-122.711021,45.501369],[-122.710881,45.501112],[-122.710974,45.500973],[-122.710965,45.500135],[-122.71103,45.499524],[-122.711004,45.49941],[-122.710656,45.498487],[-122.710001,45.497471],[-122.709246,45.496982],[-122.708642,45.496453],[-122.708354,45.496298],[-122.707982,45.496191],[-122.707414,45.496095],[-122.707109,45.496055],[-122.706263,45.496034],[-122.706087,45.495961],[-122.706028,45.49584],[-122.706095,45.495595],[-122.706244,45.495516],[-122.706732,45.494919],[-122.706762,45.494858],[-122.70668,45.494692],[-122.70646,45.494604],[-122.706004,45.494568],[-122.705409,45.494609],[-122.704807,45.494758],[-122.70459,45.49474],[-122.704402,45.494652],[-122.70432,45.49447],[-122.704416,45.494126],[-122.704423,45.494026],[-122.704387,45.493936],[-122.704264,45.493831],[-122.703644,45.493782],[-122.703511,45.493701],[-122.703463,45.493565],[-122.703553,45.493052],[-122.703515,45.492908],[-122.703277,45.492608],[-122.702986,45.49237],[-122.70258,45.492217],[-122.702253,45.492193],[-122.702102,45.492204],[-122.701437,45.492407],[-122.700832,45.492457],[-122.700829,45.492388],[-122.700605,45.492179],[-122.700609,45.491988],[-122.700746,45.491589],[-122.700729,45.491399],[-122.700572,45.491257],[-122.699958,45.491071],[-122.699721,45.490816],[-122.699571,45.490575],[-122.699549,45.490263],[-122.699512,45.490135],[-122.699433,45.490037],[-122.699332,45.489947],[-122.698905,45.489826],[-122.698465,45.489644],[-122.698346,45.489357],[-122.69505,45.489344],[-122.695055,45.489481],[-122.694397,45.489569],[-122.692456,45.489569],[-122.692454,45.489515],[-122.691641,45.489508],[-122.691264,45.489279],[-122.691031,45.489428],[-122.690541,45.489384],[-122.690137,45.490489],[-122.686591,45.490466],[-122.686557,45.490421],[-122.684702,45.490403],[-122.684726,45.489556],[-122.682242,45.48952],[-122.681789,45.489879],[-122.681278,45.490148],[-122.680333,45.490402],[-122.679419,45.490595],[-122.678936,45.490733],[-122.678519,45.490894],[-122.67784,45.491333],[-122.67742,45.491715],[-122.67715,45.492048],[-122.676956,45.492379],[-122.676881,45.492693],[-122.676857,45.49293],[-122.676872,45.493349],[-122.677103,45.494381],[-122.677411,45.495099],[-122.677996,45.495698],[-122.678543,45.496449],[-122.678919,45.497258],[-122.680179,45.499444],[-122.680541,45.500161],[-122.67887,45.50014],[-122.676241,45.500304],[-122.67434,45.500493],[-122.666434,45.501084],[-122.66596,45.499028],[-122.666697,45.495333],[-122.668205,45.491714],[-122.669313,45.487806],[-122.66936,45.485755],[-122.669129,45.484746],[-122.669146,45.484624],[-122.669106,45.484411],[-122.668843,45.48341],[-122.666457,45.471154],[-122.665727,45.46555],[-122.663948,45.461506],[-122.674589,45.461526],[-122.674724,45.458627],[-122.674712,45.458277],[-122.674976,45.452921],[-122.674598,45.452662],[-122.672949,45.451367],[-122.672826,45.451255],[-122.672686,45.450975],[-122.67285,45.447055],[-122.672863,45.446811],[-122.672893,45.446749],[-122.673079,45.442546],[-122.673588,45.432803],[-122.685579,45.432857],[-122.70223,45.43298],[-122.702385,45.432786],[-122.702601,45.43218],[-122.703973,45.432367],[-122.704204,45.432469],[-122.704584,45.432797],[-122.705167,45.433038],[-122.707214,45.433646],[-122.707626,45.433669],[-122.707874,45.433626],[-122.708152,45.433521],[-122.708469,45.43331],[-122.708945,45.43359],[-122.70933,45.43375],[-122.709592,45.433829],[-122.710268,45.433953],[-122.710951,45.433963],[-122.711523,45.433906],[-122.712294,45.433678],[-122.712617,45.433618],[-122.713301,45.433673],[-122.713575,45.43376],[-122.713774,45.433863],[-122.71434,45.434233],[-122.715273,45.434588],[-122.715661,45.434824],[-122.716395,45.43417],[-122.71656,45.433923],[-122.716599,45.433808],[-122.716573,45.433702],[-122.716313,45.433402],[-122.716139,45.433085]]]]}}]}