{"type":"FeatureCollection","features":[{"type":"Feature","properties":{"from":"Buckman Elementary","to":"Abernethy Elementary"},"geometry":{"type":"Polygon","coordinates":[[[-122.668401,45.512784],[-122.668449,45.512951],[-122.668414,45.513165],[-122.668416,45.513523],[-122.668363,45.513852],[-122.668381,45.514051],[-122.668316,45.514356],[-122.668316,45.514507],[-122.667948,45.51563],[-122.667613,45.516853],[-122.667406,45.517772],[-122.667397,45.517932],[-122.667254,45.518073],[-122.667246,45.518214],[-122.667179,45.518386],[-122.667211,45.518505],[-122.667172,45.518565],[-122.667078,45.518609],[-122.666992,45.518878],[-122.666683,45.519394],[-122.666675,45.51976],[-122.666612,45.519845],[-122.666555,45.520052],[-122.666557,45.520121],[-122.666616,45.520181],[-122.66663,45.520258],[-122.666052,45.522063],[-122.666042,45.522612],[-122.665984,45.522758],[-122.665684,45.523018],[-122.661701,45.522949],[-122.643499,45.522888],[-122.643425,45.522852],[-122.643392,45.522778],[-122.643415,45.521463],[-122.641512,45.521463],[-122.641411,45.521408],[-122.641392,45.521341],[-122.641431,45.519335],[-122.639156,45.519327],[-122.639079,45.5193],[-122.639038,45.519229],[-122.63907,45.517097],[-122.639124,45.516999],[-122.642445,45.516985],[-122.64247,45.513712],[-122.642503,45.51365],[-122.642576,45.513616],[-122.643411,45.513621],[-122.643412,45.513024],[-122.643484,45.512911],[-122.643498,45.512203],[-122.643533,45.51213],[-122.643595,45.512098],[-122.645177,45.512116],[-122.645523,45.512202],[-122.66672,45.512268],[-122.667268,45.512303],[-122.668135,45.51252],[-122.668401,45.512784]]]}},{"type":"Feature","properties":{"from":"Marysville Elementary","to":"Arleta Elementary"},"geometry":{"type":"Polygon","coordinates":[[[-122.578975,45.482821],[-122.579023,45.479614],[-122.579045,45.479546],[-122.579102,45.479503],[-122.581514,45.479627],[-122.588024,45.479615],[-122.589193,45.479539],[-122.589291,45.479595],[-122.589182,45.486514],[-122.58909,45.497341],[-122.589036,45.49744],[-122.578801,45.497429],[-122.578701,45.497375],[-122.578682,45.497308],[-122.578769,45.491429],[-122.578595,45.491529],[-122.576877,45.49152],[-122.576818,45.491479],[-122.576793,45.491412],[-122.576778,45.490253],[-122.574929,45.490262],[-122.574132,45.490187],[-122.57404,45.490102],[-122.574123,45.485811],[-122.574133,45.482375],[-122.574168,45.482302],[-122.57424,45.482268],[-122.574881,45.482262],[-122.574847,45.482175],[-122.574856,45.481754],[-122.574894,45.481681],[-122.574982,45.481649],[-122.577532,45.482297],[-122.578975,45.482821]]]}},{"type":"Feature","properties":{"from":"Faubion K-8","to":"Astor K-8"},"geometry":{"type":"MultiPolygon","coordinates":[[[[-122.747873,45.608946],[-122.74789,45.609058],[-122.747807,45.609134],[-122.747738,45.609132],[-122.747506,45.609026],[-122.746377,45.608361],[-122.74631,45.608265],[-122.746316,45.608175],[-122.746418,45.608108],[-122.746681,45.608155],[-122.747185,45.608437],[-122.747873,45.608946]]],[[[-122.726088,45.609065],[-122.7262,45.609135],[-122.72621,45.609203],[-122.726172,45.609274],[-122.726029,45.609402],[-122.725248,45.60988],[-122.723931,45.610422],[-122.723716,45.610486],[-122.723608,45.610423],[-122.723604,45.610319],[-122.723779,45.610069],[-122.723936,45.609616],[-122.723992,45.60955],[-122.724236,45.609494],[-122.724586,45.609486],[-122.724853,45.609443],[-122.725375,45.609202],[-122.725682,45.609175],[-122.726088,45.609065]]],[[[-122.721375,45.609873],[-122.721411,45.60998],[-122.721342,45.61007],[-122.720842,45.610098],[-122.720158,45.610014],[-122.71983,45.609935],[-122.719322,45.609767],[-122.719268,45.609709],[-122.719258,45.609641],[-122.719346,45.609544],[-122.719772,45.609483],[-122.72035,45.60962],[-122.720981,45.609725],[-122.721229,45.609795],[-122.721375,45.609873]]],[[[-122.731081,45.613411],[-122.731127,45.613463],[-122.731137,45.613532],[-122.731057,45.613627],[-122.730526,45.613647],[-122.729873,45.613799],[-122.729719,45.61375],[-122.72966,45.613695],[-122.729622,45.613526],[-122.729484,45.613301],[-122.72912,45.613121],[-122.729074,45.613005],[-122.729115,45.612934],[-122.729191,45.612904],[-122.729573,45.612919],[-122.729787,45.612983],[-122.730191,45.61325],[-122.731081,45.613411]]],[[[-122.735466,45.614089],[-122.735494,45.614164],[-122.735462,45.614248],[-122.735205,45.614362],[-122.734914,45.614422],[-122.734596,45.614407],[-122.734384,45.614319],[-122.734296,45.614223],[-122.734173,45.61373],[-122.733968,45.613503],[-122.733751,45.613507],[-122.732981,45.61393],[-122.732708,45.613977],[-122.732186,45.613898],[-122.731804,45.613751],[-122.731438,45.613665],[-122.731374,45.613615],[-122.731357,45.613536],[-122.731403,45.613456],[-122.73148,45.613431],[-122.732232,45.613575],[-122.732558,45.613568],[-122.732848,45.613502],[-122.733279,45.613193],[-122.733861,45.612961],[-122.734211,45.612972],[-122.73442,45.613014],[-122.734785,45.612992],[-122.734884,45.613028],[-122.734964,45.613142],[-122.734956,45.613493],[-122.734877,45.613714],[-122.734895,45.613896],[-122.735006,45.61397],[-122.735227,45.613993],[-122.735466,45.614089]]],[[[-122.731158,45.614095],[-122.731062,45.614177],[-122.730796,45.614129],[-122.730412,45.614211],[-122.730089,45.614401],[-122.729886,45.614476],[-122.729567,45.614518],[-122.729327,45.614501],[-122.729091,45.614404],[-122.728877,45.614181],[-122.728869,45.613969],[-122.728933,45.6137],[-122.728913,45.613566],[-122.728977,45.613486],[-122.729089,45.61349],[-122.729353,45.613867],[-122.729508,45.613963],[-122.729728,45.614043],[-122.729989,45.614037],[-122.730466,45.613885],[-122.730776,45.613833],[-122.73115,45.613866],[-122.7312,45.613957],[-122.731158,45.614095]]],[[[-122.734531,45.614637],[-122.734596,45.614717],[-122.734581,45.614808],[-122.734501,45.614889],[-122.734363,45.614905],[-122.73407,45.614789],[-122.733808,45.614542],[-122.733449,45.614421],[-122.733032,45.614375],[-122.732973,45.614318],[-122.732965,45.614237],[-122.73302,45.614162],[-122.733396,45.613996],[-122.733626,45.613826],[-122.733814,45.613829],[-122.733907,45.613924],[-122.733995,45.614214],[-122.7342,45.614497],[-122.734378,45.614608],[-122.734531,45.614637]]],[[[-122.761183,45.616819],[-122.760885,45.617013],[-122.760634,45.617127],[-122.759901,45.617279],[-122.759419,45.617449],[-122.759047,45.617685],[-122.758762,45.617944],[-122.758702,45.618068],[-122.758697,45.618202],[-122.758733,45.618308],[-122.758993,45.61857],[-122.759688,45.619017],[-122.759975,45.619259],[-122.760146,45.619469],[-122.760292,45.619573],[-122.760407,45.619767],[-122.760486,45.620194],[-122.760396,45.6206],[-122.760262,45.620765],[-122.7601,45.620879],[-122.75965,45.621058],[-122.759128,45.621135],[-122.758909,45.621133],[-122.758629,45.621053],[-122.75789,45.620704],[-122.757217,45.620479],[-122.756595,45.620134],[-122.756315,45.620033],[-122.756062,45.619809],[-122.755785,45.619685],[-122.755357,45.619547],[-122.754783,45.619291],[-122.753994,45.618754],[-122.751822,45.617607],[-122.750675,45.617231],[-122.750508,45.617149],[-122.750389,45.61704],[-122.750401,45.616902],[-122.750313,45.616865],[-122.750246,45.616893],[-122.750176,45.61688],[-122.750115,45.616808],[-122.74966,45.61655],[-122.749101,45.616426],[-122.748727,45.616287],[-122.748509,45.616252],[-122.748009,45.616048],[-122.746281,45.61555],[-122.745677,45.615469],[-122.745169,45.615319],[-122.744773,45.615241],[-122.744488,45.615134],[-122.743429,45.614927],[-122.743289,45.61496],[-122.743155,45.615146],[-122.742991,45.615118],[-122.742831,45.615226],[-122.742636,45.615232],[-122.742463,45.615313],[-122.742307,45.615429],[-122.74214,45.615615],[-122.74201,45.615988],[-122.741922,45.616079],[-122.741771,45.616133],[-122.741548,45.616112],[-122.741421,45.616031],[-122.741325,45.615828],[-122.74125,45.615343],[-122.74108,45.615171],[-122.740854,45.615115],[-122.740244,45.615172],[-122.739888,45.615404],[-122.739677,45.615474],[-122.739223,45.615781],[-122.739081,45.615828],[-122.738655,45.615835],[-122.738242,45.615751],[-122.737677,45.615801],[-122.737528,45.61578],[-122.737297,45.615684],[-122.737142,45.61557],[-122.736978,45.615289],[-122.736755,45.61503],[-122.736744,45.614939],[-122.736801,45.614867],[-122.736903,45.614859],[-122.737465,45.61511],[-122.737784,45.615357],[-122.738273,45.615549],[-122.738709,45.615469],[-122.73888,45.615375],[-122.738946,45.615308],[-122.738992,45.615112],[-122.738956,45.615022],[-122.738802,45.614964],[-122.738383,45.614941],[-122.738121,45.614887],[-122.737664,45.6146],[-122.737126,45.614039],[-122.737012,45.613855],[-122.736743,45.61364],[-122.735972,45.613342],[-122.735312,45.613279],[-122.735216,45.613093],[-122.735217,45.612904],[-122.735238,45.612792],[-122.735351,45.612677],[-122.735636,45.612625],[-122.73619,45.612621],[-122.737056,45.612689],[-122.737696,45.61286],[-122.739187,45.613408],[-122.739544,45.61357],[-122.740035,45.613704],[-122.740709,45.613814],[-122.741096,45.613836],[-122.741334,45.613794],[-122.741926,45.613418],[-122.741988,45.613303],[-122.742028,45.613178],[-122.741957,45.613027],[-122.741778,45.612832],[-122.741733,45.612644],[-122.741764,45.612482],[-122.741849,45.612301],[-122.742012,45.612127],[-122.742231,45.611971],[-122.742307,45.611949],[-122.743486,45.611999],[-122.743608,45.612035],[-122.743929,45.611982],[-122.744096,45.611757],[-122.744765,45.611387],[-122.745001,45.61117],[-122.745317,45.611048],[-122.745486,45.610847],[-122.745818,45.610726],[-122.745918,45.610752],[-122.745972,45.610822],[-122.746049,45.610859],[-122.74619,45.610848],[-122.746502,45.610469],[-122.746553,45.610313],[-122.746685,45.61013],[-122.746702,45.609993],[-122.74665,45.609922],[-122.746618,45.609781],[-122.746306,45.609574],[-122.746237,45.609552],[-122.746011,45.609579],[-122.745762,45.609534],[-122.74565,45.609449],[-122.745131,45.609223],[-122.744862,45.609213],[-122.744692,45.609252],[-122.744626,45.609222],[-122.744542,45.609114],[-122.744386,45.609055],[-122.744007,45.609036],[-122.743937,45.608948],[-122.743939,45.608721],[-122.743773,45.608573],[-122.743604,45.608513],[-122.743517,45.608418],[-122.743316,45.608344],[-122.742276,45.608402],[-122.74189,45.608349],[-122.741449,45.60838],[-122.740924,45.60851],[-122.740746,45.608516],[-122.740092,45.608399],[-122.739809,45.60839],[-122.739585,45.608493],[-122.739471,45.608655],[-122.739554,45.608833],[-122.739548,45.609047],[-122.739432,45.609192],[-122.739052,45.609474],[-122.738135,45.609966],[-122.737924,45.609995],[-122.737608,45.609958],[-122.737178,45.609718],[-122.737051,45.609431],[-122.73708,45.609316],[-122.737222,45.60915],[-122.737613,45.608943],[-122.737855,45.608732],[-122.738013,45.608295],[-122.738006,45.608074],[-122.738076,45.607638],[-122.737858,45.606751],[-122.737596,45.606421],[-122.736736,45.605811],[-122.735159,45.605059],[-122.734347,45.604838],[-122.733615,45.604708],[-122.732915,45.604667],[-122.732176,45.604475],[-122.730638,45.604284],[-122.729829,45.604117],[-122.728238,45.603698],[-122.727662,45.603603],[-122.726738,45.603683],[-122.725459,45.603951],[-122.725051,45.604109],[-122.72484,45.60413],[-122.724623,45.604094],[-122.724273,45.603905],[-122.724089,45.603856],[-122.723785,45.603829],[-122.723168,45.603698],[-122.722931,45.603755],[-122.722617,45.60377],[-122.722268,45.603882],[-122.722191,45.603853],[-122.722083,45.603734],[-122.722111,45.603825],[-122.722096,45.603892],[-122.721973,45.604081],[-122.721806,45.604174],[-122.721769,45.604358],[-122.721774,45.60463],[-122.721729,45.604697],[-122.721653,45.60472],[-122.72157,45.604681],[-122.721299,45.604322],[-122.721057,45.603891],[-122.720955,45.603771],[-122.720801,45.603661],[-122.720421,45.603522],[-122.720186,45.603542],[-122.719908,45.603647],[-122.71971,45.603808],[-122.71924,45.604102],[-122.718821,45.604521],[-122.718683,45.604908],[-122.7186,45.605029],[-122.718587,45.605262],[-122.718636,45.605424],[-122.718896,45.605701],[-122.719498,45.606168],[-122.719707,45.606411],[-122.720095,45.606691],[-122.720822,45.606907],[-122.722403,45.60721],[-122.72321,45.607294],[-122.723519,45.607358],[-122.723687,45.607431],[-122.723888,45.607532],[-122.724119,45.607778],[-122.724545,45.608128],[-122.724944,45.608378],[-122.725119,45.608629],[-122.725355,45.608854],[-122.72536,45.608933],[-122.725306,45.609004],[-122.724795,45.609268],[-122.724655,45.609276],[-122.724581,45.60923],[-122.724541,45.609146],[-122.724533,45.608934],[-122.724588,45.608673],[-122.724564,45.608616],[-122.724492,45.608472],[-122.724337,45.608325],[-122.724148,45.608214],[-122.7234,45.608066],[-122.722855,45.607666],[-122.72257,45.607551],[-122.722048,45.607538],[-122.721626,45.607576],[-122.720753,45.607456],[-122.720776,45.607509],[-122.720917,45.607551],[-122.721686,45.60772],[-122.721945,45.60773],[-122.722318,45.607693],[-122.722433,45.60772],[-122.722745,45.607854],[-122.723025,45.608106],[-122.723258,45.608231],[-122.723912,45.608343],[-122.7241,45.608403],[-122.724253,45.608516],[-122.724288,45.608893],[-122.72423,45.609128],[-122.724145,45.609238],[-122.723735,45.609451],[-122.723664,45.609519],[-122.723521,45.609788],[-122.723357,45.609938],[-122.723128,45.610039],[-122.722619,45.610125],[-122.722458,45.610089],[-122.722351,45.610013],[-122.722278,45.609911],[-122.722271,45.609831],[-122.722307,45.609772],[-122.72278,45.609414],[-122.722852,45.609296],[-122.722888,45.609107],[-122.722863,45.609016],[-122.722783,45.608926],[-122.722629,45.608853],[-122.722062,45.608804],[-122.721829,45.608741],[-122.721634,45.608651],[-122.721473,45.608532],[-122.721189,45.608477],[-122.720759,45.608523],[-122.720601,45.608656],[-122.720356,45.608953],[-122.71998,45.609216],[-122.719406,45.609402],[-122.719211,45.609389],[-122.719019,45.609325],[-122.718502,45.608784],[-122.718277,45.608388],[-122.718075,45.608165],[-122.717661,45.608028],[-122.717402,45.607793],[-122.717134,45.607122],[-122.716991,45.606922],[-122.716744,45.606269],[-122.716664,45.606148],[-122.716384,45.605925],[-122.716194,45.605867],[-122.715836,45.605852],[-122.715709,45.605877],[-122.715548,45.605989],[-122.71532,45.606228],[-122.714913,45.606803],[-122.714204,45.607451],[-122.714037,45.607707],[-122.713504,45.608267],[-122.713476,45.608397],[-122.713747,45.608547],[-122.713898,45.608717],[-122.714073,45.609315],[-122.71406,45.609529],[-122.713999,45.609785],[-122.713773,45.610094],[-122.713609,45.610262],[-122.71351,45.61082],[-122.713554,45.611147],[-122.713763,45.611484],[-122.713968,45.612069],[-122.714135,45.612188],[-122.714225,45.6123],[-122.71433,45.61306],[-122.714509,45.613194],[-122.714823,45.613263],[-122.715221,45.613234],[-122.715555,45.613263],[-122.715857,45.613394],[-122.716049,45.613564],[-122.716318,45.613888],[-122.716432,45.614087],[-122.716533,45.614184],[-122.716744,45.614301],[-122.717287,45.614479],[-122.717442,45.614598],[-122.717726,45.615022],[-122.717962,45.615231],[-122.718502,45.615539],[-122.718949,45.615731],[-122.719863,45.616018],[-122.720812,45.616167],[-122.721954,45.616251],[-122.722353,45.616182],[-122.722786,45.615943],[-122.723343,45.615776],[-122.723522,45.615757],[-122.724818,45.61583],[-122.725173,45.615747],[-122.725642,45.615691],[-122.726903,45.615338],[-122.72755,45.615191],[-122.728819,45.615028],[-122.730237,45.614566],[-122.730497,45.614378],[-122.730683,45.614323],[-122.730805,45.614367],[-122.730852,45.614471],[-122.730851,45.614573],[-122.730734,45.614834],[-122.730681,45.615122],[-122.730708,45.615258],[-122.730865,45.615408],[-122.731091,45.61555],[-122.731506,45.615708],[-122.732125,45.615779],[-122.732467,45.615773],[-122.733235,45.615697],[-122.734008,45.615484],[-122.734586,45.615073],[-122.734922,45.614932],[-122.735017,45.614862],[-122.735015,45.614789],[-122.734955,45.614664],[-122.735008,45.614563],[-122.73531,45.614454],[-122.735588,45.614446],[-122.735746,45.614494],[-122.735888,45.61458],[-122.736067,45.614742],[-122.73641,45.614978],[-122.736655,45.6152],[-122.736784,45.615369],[-122.736858,45.615588],[-122.73697,45.615722],[-122.737153,45.615843],[-122.737412,45.615943],[-122.738202,45.615958],[-122.738647,45.616034],[-122.739044,45.616019],[-122.739604,45.615802],[-122.740027,45.615551],[-122.740415,45.615371],[-122.740657,45.615317],[-122.740847,45.615334],[-122.740938,45.61537],[-122.740981,45.615423],[-122.741029,45.615842],[-122.741077,45.615956],[-122.741337,45.616233],[-122.741447,45.616276],[-122.741731,45.616301],[-122.741991,45.616281],[-122.742311,45.616182],[-122.742482,45.616191],[-122.742849,45.616445],[-122.742974,45.616711],[-122.743072,45.616807],[-122.743521,45.616831],[-122.743685,45.616886],[-122.743924,45.617041],[-122.743935,45.61712],[-122.743895,45.617188],[-122.743434,45.617411],[-122.743347,45.617599],[-122.743221,45.61773],[-122.742914,45.61786],[-122.742112,45.617856],[-122.74154,45.617913],[-122.741159,45.617898],[-122.740252,45.617748],[-122.74,45.617776],[-122.739057,45.618084],[-122.738729,45.618233],[-122.738646,45.618356],[-122.738628,45.618488],[-122.738701,45.618715],[-122.73877,45.618827],[-122.738774,45.618905],[-122.738734,45.618981],[-122.738661,45.619029],[-122.738443,45.619091],[-122.738337,45.619069],[-122.73813,45.618931],[-122.737599,45.618778],[-122.737435,45.618557],[-122.737353,45.61833],[-122.737383,45.618106],[-122.737601,45.617872],[-122.737727,45.617763],[-122.738032,45.617599],[-122.738354,45.617314],[-122.738384,45.617182],[-122.738368,45.61706],[-122.738221,45.616956],[-122.737348,45.61673],[-122.736594,45.616593],[-122.73629,45.616568],[-122.735877,45.616582],[-122.735054,45.616462],[-122.733902,45.616743],[-122.733361,45.616746],[-122.732902,45.616794],[-122.731702,45.617129],[-122.730693,45.617287],[-122.729997,45.617513],[-122.729774,45.617654],[-122.729703,45.617785],[-122.729844,45.618341],[-122.730219,45.619073],[-122.730697,45.61965],[-122.731348,45.620216],[-122.731656,45.620369],[-122.732175,45.620479],[-122.732481,45.620599],[-122.73273,45.620785],[-122.733034,45.621269],[-122.733218,45.621497],[-122.734269,45.622003],[-122.734759,45.622095],[-122.735831,45.622476],[-122.736855,45.622791],[-122.737507,45.622892],[-122.738454,45.622843],[-122.739312,45.622713],[-122.73953,45.622624],[-122.739582,45.622585],[-122.739639,45.622257],[-122.739723,45.622121],[-122.739855,45.622009],[-122.740313,45.621756],[-122.741089,45.621533],[-122.741588,45.621288],[-122.741981,45.620969],[-122.742172,45.620897],[-122.742452,45.620861],[-122.744732,45.620945],[-122.745821,45.621092],[-122.746318,45.621066],[-122.74649,45.621003],[-122.746706,45.620976],[-122.746997,45.621044],[-122.747271,45.621194],[-122.747509,45.621249],[-122.747777,45.621244],[-122.748307,45.621081],[-122.748933,45.620667],[-122.749244,45.62061],[-122.749441,45.620729],[-122.749571,45.620862],[-122.749705,45.62112],[-122.74967,45.621206],[-122.749426,45.621372],[-122.749226,45.621576],[-122.749128,45.62183],[-122.749138,45.622094],[-122.749232,45.62229],[-122.749555,45.622437],[-122.749924,45.62249],[-122.75027,45.622485],[-122.750948,45.622629],[-122.751648,45.622711],[-122.751955,45.62282],[-122.752003,45.622951],[-122.751974,45.623038],[-122.75177,45.623227],[-122.751573,45.623324],[-122.75038,45.623365],[-122.749073,45.623878],[-122.748349,45.623984],[-122.747966,45.624191],[-122.746827,45.624372],[-122.746002,45.624449],[-122.744806,45.624503],[-122.744101,45.624593],[-122.743977,45.624763],[-122.744029,45.624983],[-122.744234,45.625238],[-122.744687,45.62551],[-122.745056,45.625504],[-122.745371,45.625437],[-122.745632,45.625245],[-122.746031,45.625035],[-122.747388,45.624873],[-122.74783,45.624939],[-122.748386,45.624867],[-122.748795,45.624852],[-122.748913,45.624957],[-122.748983,45.625093],[-122.748947,45.625205],[-122.74881,45.625324],[-122.748628,45.625358],[-122.747924,45.625387],[-122.747236,45.625491],[-122.746834,45.625629],[-122.746493,45.625796],[-122.74643,45.625858],[-122.746518,45.625895],[-122.746731,45.625853],[-122.746951,45.625746],[-122.747962,45.625554],[-122.748666,45.625565],[-122.749451,45.625726],[-122.749811,45.625931],[-122.750079,45.626244],[-122.750547,45.627025],[-122.750684,45.627178],[-122.750922,45.627553],[-122.751033,45.627795],[-122.751079,45.62784],[-122.751154,45.627831],[-122.75126,45.627753],[-122.751246,45.627662],[-122.751049,45.627388],[-122.750579,45.626379],[-122.750358,45.62601],[-122.749867,45.625639],[-122.749224,45.625362],[-122.749156,45.625271],[-122.749194,45.625164],[-122.749487,45.624989],[-122.750063,45.624531],[-122.750283,45.624158],[-122.750341,45.624117],[-122.750411,45.624116],[-122.750471,45.624155],[-122.750569,45.62431],[-122.750678,45.624944],[-122.750752,45.625194],[-122.751359,45.626036],[-122.751723,45.626753],[-122.752088,45.627226],[-122.752678,45.627588],[-122.753042,45.627741],[-122.753829,45.628062],[-122.754251,45.628182],[-122.75445,45.628193],[-122.754557,45.628161],[-122.754535,45.626995],[-122.753948,45.624953],[-122.753695,45.623935],[-122.753703,45.623537],[-122.753879,45.623127],[-122.754297,45.622893],[-122.754673,45.622801],[-122.755274,45.622728],[-122.755616,45.622722],[-122.755875,45.622759],[-122.756093,45.622854],[-122.756154,45.622948],[-122.756184,45.623099],[-122.756342,45.623256],[-122.757275,45.623853],[-122.757626,45.623893],[-122.75781,45.623874],[-122.757981,45.623795],[-122.758035,45.623515],[-122.757974,45.623021],[-122.757605,45.622454],[-122.757282,45.622224],[-122.75661,45.621993],[-122.754968,45.621858],[-122.754236,45.621728],[-122.753951,45.62164],[-122.753892,45.621556],[-122.753913,45.621466],[-122.754216,45.621323],[-122.754311,45.621077],[-122.754583,45.620958],[-122.754699,45.620849],[-122.754728,45.620772],[-122.754714,45.620689],[-122.754598,45.620529],[-122.75389,45.620089],[-122.75326,45.619848],[-122.753011,45.619793],[-122.752697,45.619843],[-122.752525,45.619947],[-122.752421,45.620071],[-122.752372,45.620232],[-122.753398,45.620743],[-122.753792,45.620889],[-122.753879,45.620986],[-122.7539,45.621082],[-122.753803,45.621246],[-122.753659,45.621284],[-122.75325,45.621218],[-122.752634,45.621054],[-122.752197,45.620904],[-122.751737,45.620694],[-122.75153,45.62066],[-122.751233,45.620786],[-122.751055,45.620949],[-122.750846,45.620975],[-122.75066,45.620915],[-122.750133,45.620591],[-122.750025,45.62045],[-122.749947,45.620173],[-122.749627,45.619899],[-122.749573,45.619745],[-122.749518,45.61926],[-122.749577,45.619173],[-122.749703,45.619156],[-122.74983,45.619085],[-122.749844,45.618864],[-122.74977,45.618621],[-122.749499,45.618352],[-122.749321,45.61831],[-122.748947,45.618352],[-122.748847,45.618309],[-122.748675,45.618109],[-122.748427,45.617926],[-122.748167,45.617586],[-122.747951,45.617378],[-122.747822,45.617066],[-122.747732,45.616984],[-122.747631,45.61691],[-122.747122,45.616794],[-122.747004,45.616709],[-122.746818,45.616667],[-122.745965,45.616592],[-122.745807,45.616626],[-122.745283,45.616583],[-122.745063,45.616616],[-122.744467,45.616496],[-122.744354,45.616433],[-122.743954,45.616312],[-122.743878,45.61627],[-122.743759,45.616103],[-122.743775,45.615997],[-122.743834,45.615902],[-122.743809,45.615811],[-122.743678,45.615791],[-122.743466,45.615843],[-122.743277,45.615636],[-122.743199,45.615477],[-122.743231,45.615224],[-122.743345,45.615158],[-122.743666,45.615178],[-122.743788,45.615232],[-122.743859,45.615213],[-122.744403,45.615278],[-122.744524,45.615356],[-122.745089,45.615534],[-122.745888,45.615708],[-122.746189,45.615739],[-122.747689,45.616221],[-122.747955,45.616279],[-122.748838,45.616571],[-122.749002,45.616654],[-122.749197,45.616668],[-122.749376,45.616792],[-122.749911,45.617051],[-122.750246,45.617317],[-122.751594,45.617717],[-122.752317,45.618064],[-122.753017,45.618477],[-122.753382,45.618741],[-122.753606,45.618801],[-122.754086,45.619098],[-122.754206,45.619289],[-122.754474,45.619474],[-122.754629,45.619518],[-122.754903,45.619693],[-122.755098,45.619664],[-122.755234,45.619756],[-122.755901,45.62006],[-122.756685,45.620505],[-122.757777,45.620941],[-122.75819,45.621072],[-122.758343,45.621216],[-122.758371,45.621303],[-122.758292,45.62164],[-122.758289,45.62183],[-122.758463,45.622449],[-122.758949,45.623069],[-122.759148,45.623409],[-122.759583,45.624523],[-122.760016,45.625324],[-122.760134,45.625848],[-122.760272,45.627264],[-122.760101,45.628293],[-122.759519,45.629199],[-122.759284,45.62983],[-122.75914,45.630106],[-122.759042,45.630423],[-122.758982,45.630827],[-122.758716,45.631852],[-122.758664,45.632619],[-122.758595,45.632694],[-122.75841,45.632704],[-122.758314,45.632752],[-122.758361,45.632849],[-122.758449,45.632878],[-122.758547,45.632876],[-122.758658,45.632809],[-122.758736,45.632821],[-122.758975,45.633093],[-122.759331,45.633798],[-122.759479,45.633916],[-122.759537,45.634084],[-122.759579,45.634402],[-122.759542,45.634496],[-122.759459,45.634529],[-122.743348,45.634492],[-122.743197,45.63451],[-122.743061,45.634595],[-122.742999,45.634718],[-122.742985,45.635427],[-122.742942,45.635496],[-122.742865,45.635521],[-122.742603,45.635437],[-122.742038,45.634981],[-122.739812,45.633495],[-122.738422,45.632519],[-122.737347,45.63156],[-122.735313,45.630268],[-122.733449,45.629013],[-122.732426,45.628029],[-122.731783,45.627623],[-122.731099,45.627256],[-122.730305,45.6265],[-122.729363,45.625926],[-122.728571,45.62566],[-122.72788,45.625304],[-122.726126,45.624301],[-122.723455,45.623022],[-122.71795,45.619911],[-122.716181,45.619061],[-122.712427,45.617539],[-122.712086,45.617423],[-122.710822,45.617103],[-122.709465,45.616333],[-122.708791,45.616108],[-122.707901,45.615621],[-122.706506,45.615085],[-122.705885,45.614878],[-122.705062,45.614481],[-122.704323,45.614198],[-122.704168,45.614002],[-122.704146,45.613926],[-122.705005,45.612501],[-122.705143,45.612338],[-122.718736,45.601166],[-122.719341,45.600812],[-122.72013,45.601043],[-122.721377,45.601347],[-122.723975,45.601487],[-122.724265,45.601528],[-122.724905,45.601541],[-122.72611,45.601742],[-122.726611,45.601902],[-122.7268,45.602012],[-122.727345,45.602225],[-122.727705,45.602414],[-122.728007,45.602644],[-122.728279,45.602765],[-122.728639,45.602982],[-122.728888,45.603073],[-122.729358,45.60331],[-122.729994,45.603512],[-122.730735,45.60365],[-122.731414,45.603728],[-122.734015,45.603929],[-122.734968,45.604109],[-122.736076,45.604374],[-122.73677,45.604705],[-122.736879,45.604694],[-122.737022,45.604767],[-122.73743,45.605063],[-122.738051,45.60561],[-122.738969,45.606485],[-122.739826,45.607055],[-122.740617,45.607299],[-122.740943,45.607346],[-122.743188,45.607499],[-122.743513,45.60756],[-122.744163,45.607706],[-122.745423,45.608161],[-122.746061,45.608428],[-122.746182,45.60857],[-122.747259,45.609198],[-122.747384,45.609354],[-122.747891,45.609566],[-122.748115,45.609729],[-122.749742,45.610611],[-122.749825,45.610716],[-122.749958,45.610798],[-122.75012,45.610779],[-122.750225,45.610663],[-122.750096,45.610465],[-122.749974,45.610355],[-122.749261,45.609969],[-122.74903,45.609802],[-122.748806,45.609742],[-122.748662,45.609623],[-122.748451,45.609558],[-122.748314,45.609442],[-122.748302,45.609374],[-122.748331,45.60931],[-122.748449,45.609272],[-122.748755,45.609418],[-122.749242,45.609546],[-122.750873,45.609786],[-122.751727,45.609955],[-122.752323,45.61015],[-122.753359,45.61057],[-122.753577,45.610589],[-122.753881,45.610694],[-122.754065,45.610801],[-122.754255,45.610831],[-122.755122,45.611251],[-122.755266,45.61129],[-122.755729,45.611542],[-122.757921,45.612881],[-122.758019,45.612893],[-122.758289,45.613055],[-122.758334,45.613118],[-122.758851,45.61338],[-122.758962,45.61341],[-122.759176,45.613566],[-122.759352,45.613636],[-122.759421,45.613714],[-122.759811,45.613965],[-122.759977,45.614017],[-122.760125,45.614174],[-122.760455,45.614349],[-122.760562,45.614365],[-122.761065,45.614672],[-122.761284,45.614707],[-122.761409,45.614864],[-122.761816,45.615098],[-122.762169,45.615352],[-122.762228,45.615579],[-122.762195,45.615793],[-122.761718,45.616176],[-122.761581,45.61633],[-122.761412,45.616426],[-122.761183,45.616819]]],[[[-122.787282,45.623322],[-122.787298,45.623676],[-122.787204,45.623842],[-122.787111,45.624568],[-122.786825,45.625602],[-122.786801,45.625828],[-122.786813,45.62623],[-122.786734,45.626374],[-122.786638,45.626679],[-122.786496,45.627237],[-122.786502,45.627489],[-122.786264,45.628459],[-122.785924,45.629024],[-122.785792,45.629307],[-122.785635,45.629506],[-122.785544,45.629779],[-122.785362,45.630045],[-122.785213,45.630353],[-122.785054,45.630516],[-122.784868,45.630778],[-122.784843,45.631105],[-122.784742,45.631288],[-122.784469,45.631628],[-122.78415,45.631953],[-122.78375,45.632497],[-122.783401,45.633117],[-122.783224,45.633335],[-122.78249,45.634158],[-122.782092,45.634477],[-122.7601,45.634514],[-122.760046,45.634455],[-122.759941,45.634122],[-122.759807,45.633862],[-122.759795,45.633706],[-122.759722,45.633486],[-122.75924,45.632504],[-122.759152,45.632165],[-122.759169,45.631797],[-122.759242,45.631364],[-122.759485,45.630364],[-122.759608,45.630135],[-122.759722,45.629734],[-122.760004,45.629244],[-122.760136,45.629085],[-122.760558,45.628275],[-122.760743,45.627661],[-122.760669,45.625945],[-122.760535,45.625536],[-122.76049,45.625232],[-122.760423,45.625082],[-122.760427,45.624982],[-122.760268,45.624825],[-122.760191,45.624689],[-122.759565,45.623139],[-122.759079,45.622465],[-122.758957,45.622032],[-122.759011,45.621836],[-122.75919,45.62165],[-122.759403,45.621552],[-122.759624,45.621522],[-122.760194,45.621351],[-122.760247,45.621287],[-122.760332,45.621264],[-122.760543,45.621107],[-122.760731,45.620906],[-122.760849,45.620576],[-122.760877,45.620378],[-122.76096,45.620323],[-122.761144,45.620318],[-122.761174,45.620249],[-122.761178,45.620066],[-122.761025,45.619999],[-122.760928,45.619896],[-122.760815,45.619647],[-122.760631,45.619438],[-122.760561,45.61924],[-122.760447,45.619083],[-122.760344,45.618955],[-122.760065,45.618739],[-122.759871,45.618525],[-122.759797,45.618239],[-122.759807,45.61805],[-122.759949,45.617788],[-122.760122,45.617656],[-122.760253,45.617603],[-122.760847,45.617511],[-122.761091,45.617438],[-122.761312,45.617299],[-122.761545,45.617071],[-122.761938,45.616561],[-122.762241,45.616322],[-122.762534,45.616198],[-122.762788,45.616033],[-122.762837,45.615867],[-122.762882,45.615814],[-122.763167,45.615698],[-122.762968,45.61568],[-122.762908,45.615645],[-122.762876,45.615572],[-122.762887,45.615467],[-122.762841,45.615379],[-122.762613,45.615122],[-122.76215,45.614919],[-122.761655,45.614617],[-122.761536,45.614503],[-122.761389,45.614453],[-122.761281,45.614356],[-122.760875,45.614145],[-122.760798,45.614087],[-122.760766,45.614006],[-122.760416,45.613877],[-122.759282,45.613168],[-122.757689,45.612274],[-122.756471,45.611501],[-122.755507,45.610964],[-122.754963,45.610699],[-122.754728,45.610514],[-122.754476,45.610458],[-122.75433,45.610462],[-122.754186,45.610382],[-122.754159,45.610294],[-122.754202,45.610213],[-122.756111,45.608918],[-122.756207,45.608792],[-122.75619,45.60866],[-122.755309,45.607176],[-122.755309,45.607075],[-122.755365,45.607018],[-122.755957,45.606724],[-122.756017,45.606641],[-122.756015,45.60654],[-122.755969,45.606457],[-122.755803,45.606368],[-122.755758,45.606277],[-122.755809,45.606176],[-122.756014,45.606082],[-122.757149,45.605865],[-122.758324,45.605749],[-122.758867,45.605785],[-122.759968,45.605953],[-122.762587,45.60692],[-122.762975,45.607012],[-122.763955,45.607176],[-122.764706,45.60723],[-122.765824,45.607178],[-122.766198,45.607122],[-122.766349,45.60719],[-122.766502,45.60721],[-122.767991,45.606701],[-122.774988,45.606707],[-122.77998,45.606827],[-122.782297,45.610149],[-122.782428,45.610222],[-122.782467,45.610545],[-122.782411,45.610717],[-122.782265,45.610859],[-122.782144,45.610924],[-122.776086,45.610947],[-122.77585,45.610859],[-122.775653,45.610825],[-122.774839,45.610841],[-122.774721,45.610882],[-122.774599,45.611097],[-122.774693,45.611576],[-122.774774,45.611636],[-122.77501,45.611683],[-122.775605,45.611694],[-122.775905,45.611734],[-122.776122,45.61173],[-122.776257,45.611689],[-122.776427,45.611747],[-122.77656,45.611744],[-122.776828,45.611716],[-122.77698,45.611666],[-122.777404,45.611636],[-122.778219,45.611696],[-122.779611,45.611737],[-122.780351,45.611738],[-122.781084,45.611663],[-122.782838,45.611809],[-122.782977,45.611856],[-122.783145,45.612073],[-122.783724,45.612532],[-122.784081,45.612914],[-122.784173,45.613062],[-122.784221,45.6133],[-122.784474,45.613965],[-122.784706,45.614328],[-122.784945,45.614649],[-122.785112,45.614812],[-122.785386,45.614966],[-122.785577,45.615166],[-122.785822,45.615714],[-122.78607,45.616096],[-122.786118,45.616385],[-122.786313,45.61693],[-122.786307,45.617024],[-122.786244,45.617116],[-122.786259,45.61723],[-122.786399,45.617471],[-122.786652,45.617723],[-122.786757,45.617882],[-122.786779,45.618614],[-122.786998,45.619036],[-122.787072,45.6195],[-122.787103,45.620292],[-122.787176,45.62052],[-122.787166,45.620819],[-122.787127,45.62094],[-122.787166,45.621127],[-122.787147,45.621457],[-122.787194,45.621593],[-122.787201,45.621748],[-122.787086,45.62243],[-122.787106,45.622693],[-122.787294,45.622907],[-122.787344,45.623085],[-122.787282,45.623322]]]]}},{"type":"Feature","properties":{"from":"Creston Elementary","to":"Atkinson Elementary"},"geometry":{"type":"Polygon","coordinates":[[[-122.626207,45.499811],[-122.6262,45.50042],[-122.626166,45.500492],[-122.626104,45.500525],[-122.6226,45.500525],[-122.622597,45.504688],[-122.622577,45.504755],[-122.622523,45.504799],[-122.619528,45.504812],[-122.619238,45.504886],[-122.618728,45.505206],[-122.618211,45.505276],[-122.611136,45.505315],[-122.61106,45.505265],[-122.610961,45.505054],[-122.611003,45.501609],[-122.609209,45.501588],[-122.609058,45.501541],[-122.609,45.501469],[-122.609029,45.497499],[-122.595335,45.497468],[-122.595265,45.497426],[-122.595239,45.497348],[-122.595291,45.494043],[-122.595333,45.493975],[-122.595409,45.493948],[-122.59941,45.493964],[-122.599461,45.490974],[-122.59951,45.490853],[-122.598853,45.490512],[-122.598822,45.490392],[-122.598913,45.490309],[-122.618884,45.490313],[-122.618954,45.490356],[-122.61898,45.490421],[-122.618949,45.493091],[-122.619019,45.493252],[-122.61921,45.493341],[-122.622579,45.493366],[-122.622632,45.493466],[-122.622619,45.496082],[-122.624097,45.496093],[-122.624412,45.496136],[-122.625758,45.496653],[-122.625809,45.496729],[-122.625874,45.497081],[-122.626095,45.497071],[-122.626187,45.497164],[-122.626204,45.499102],[-122.628417,45.499097],[-122.628493,45.499124],[-122.628535,45.499192],[-122.628547,45.499702],[-122.628521,45.499768],[-122.628463,45.499808],[-122.626207,45.499811]]]}},{"type":"Feature","properties":{"from":"Irvington Elementary","to":"Beverly Cleary Elementary"},"geometry":{"type":"Polygon","coordinates":[[[-122.663567,45.535809],[-122.66356,45.536526],[-122.663969,45.536524],[-122.664052,45.536569],[-122.664078,45.536634],[-122.664071,45.53697],[-122.664016,45.537068],[-122.661529,45.537082],[-122.661464,45.543835],[-122.661482,45.544599],[-122.661429,45.544661],[-122.661324,45.544692],[-122.658456,45.544678],[-122.658418,45.548163],[-122.658391,45.548238],[-122.658321,45.548279],[-122.654439,45.548269],[-122.654354,45.548234],[-122.65432,45.548148],[-122.654351,45.546096],[-122.654453,45.546012],[-122.655367,45.546008],[-122.655372,45.545216],[-122.641058,45.545171],[-122.640989,45.545128],[-122.640962,45.545051],[-122.641013,45.54207],[-122.636706,45.542061],[-122.63663,45.542034],[-122.636588,45.541964],[-122.636595,45.53518],[-122.636561,45.533889],[-122.636586,45.533823],[-122.636645,45.533783],[-122.636958,45.533778],[-122.637034,45.530554],[-122.637057,45.530487],[-122.637125,45.530441],[-122.644698,45.530095],[-122.644758,45.5302],[-122.644716,45.535035],[-122.664474,45.535111],[-122.664574,45.535165],[-122.664588,45.535706],[-122.664534,45.535793],[-122.663567,45.535809]]]}},{"type":"Feature","properties":{"from":"Stephenson Elementary","to":"Capitol Hill Elementary"},"geometry":{"type":"Polygon","coordinates":[[[-122.701452,45.446501],[-122.702536,45.446365],[-122.702614,45.446391],[-122.702657,45.446462],[-122.70263,45.453863],[-122.70256,45.453972],[-122.701345,45.454529],[-122.701151,45.454553],[-122.700243,45.454428],[-122.700195,45.45462],[-122.700203,45.454738],[-122.700136,45.454818],[-122.699907,45.454833],[-122.69824,45.455257],[-122.69665,45.454932],[-122.695967,45.454869],[-122.693728,45.454773],[-122.692548,45.45437],[-122.691496,45.453743],[-122.691432,45.453835],[-122.691164,45.453931],[-122.691036,45.453924],[-122.690206,45.453713],[-122.689956,45.453586],[-122.689722,45.453198],[-122.689521,45.453049],[-122.689418,45.453096],[-122.6842,45.453059],[-122.683965,45.453094],[-122.683698,45.453199],[-122.682663,45.453891],[-122.682594,45.453911],[-122.682201,45.453745],[-122.681426,45.453236],[-122.681118,45.453073],[-122.680884,45.452978],[-122.680607,45.452914],[-122.679874,45.452898],[-122.678563,45.453128],[-122.677934,45.453201],[-122.677424,45.453158],[-122.676841,45.453009],[-122.674969,45.452912],[-122.672948,45.451364],[-122.672795,45.451191],[-122.672702,45.450983],[-122.672852,45.447062],[-122.672895,45.446747],[-122.673595,45.432876],[-122.673705,45.432806],[-122.683355,45.432865],[-122.685821,45.432944],[-122.686313,45.43292],[-122.701845,45.433078],[-122.701908,45.433186],[-122.701852,45.433285],[-122.7002,45.434323],[-122.69811,45.43571],[-122.697458,45.436075],[-122.694203,45.437175],[-122.690814,45.438595],[-122.689835,45.438971],[-122.688934,45.439204],[-122.687044,45.439544],[-122.686585,45.439721],[-122.686256,45.439918],[-122.693606,45.439997],[-122.693678,45.440095],[-122.693686,45.440802],[-122.693713,45.440956],[-122.69384,45.441167],[-122.693974,45.441287],[-122.694329,45.441455],[-122.694549,45.441497],[-122.69525,45.441538],[-122.695819,45.441686],[-122.698097,45.44268],[-122.698611,45.443046],[-122.699195,45.443753],[-122.699458,45.444019],[-122.699703,45.444189],[-122.699998,45.444342],[-122.700706,45.444585],[-122.701084,45.444757],[-122.701426,45.445018],[-122.701684,45.445405],[-122.701742,45.445599],[-122.701751,45.445792],[-122.701645,45.446215],[-122.701452,45.446501]]]}},{"type":"Feature","properties":{"from":"Beach Elementary","to":"Chief Joseph Elementary"},"geometry":{"type":"Polygon","coordinates":[[[-122.724619,45.565234],[-122.724667,45.56537],[-122.724605,45.565538],[-122.724285,45.565919],[-122.724288,45.566292],[-122.724239,45.566572],[-122.724181,45.566659],[-122.72405,45.566758],[-122.723748,45.566791],[-122.722068,45.56645],[-122.721366,45.568302],[-122.721259,45.568338],[-122.720369,45.56819],[-122.713993,45.564718],[-122.713935,45.564644],[-122.713944,45.564557],[-122.713321,45.564201],[-122.712325,45.563724],[-122.710856,45.562959],[-122.710443,45.562657],[-122.708791,45.561823],[-122.707966,45.561355],[-122.707609,45.561081],[-122.707522,45.561075],[-122.707458,45.561107],[-122.707427,45.561196],[-122.707302,45.561278],[-122.707134,45.561473],[-122.707008,45.561694],[-122.706748,45.561883],[-122.70646,45.562263],[-122.706288,45.562357],[-122.706281,45.562451],[-122.706198,45.562564],[-122.706247,45.562657],[-122.706205,45.562755],[-122.706208,45.562846],[-122.706286,45.562913],[-122.706494,45.562947],[-122.707253,45.56332],[-122.707522,45.56347],[-122.707602,45.563566],[-122.708102,45.563752],[-122.70878,45.564261],[-122.709419,45.564568],[-122.709467,45.564633],[-122.709468,45.564727],[-122.709603,45.564772],[-122.709812,45.564941],[-122.710425,45.565167],[-122.710573,45.565277],[-122.71083,45.565329],[-122.711099,45.565449],[-122.713593,45.566642],[-122.714163,45.566968],[-122.714633,45.567154],[-122.715694,45.567759],[-122.715762,45.567833],[-122.715794,45.56795],[-122.715862,45.568018],[-122.716816,45.568534],[-122.716958,45.568599],[-122.717286,45.568669],[-122.717871,45.568984],[-122.718349,45.56926],[-122.718499,45.569483],[-122.719426,45.569975],[-122.71958,45.570026],[-122.719939,45.570286],[-122.720321,45.570414],[-122.720427,45.570544],[-122.720504,45.570588],[-122.721027,45.57063],[-122.721138,45.57069],[-122.721366,45.570725],[-122.721423,45.570768],[-122.721694,45.570784],[-122.721849,45.570844],[-122.723171,45.570681],[-122.72335,45.57064],[-122.72391,45.570332],[-122.724283,45.570196],[-122.724374,45.570202],[-122.724435,45.57027],[-122.724403,45.570398],[-122.723852,45.570738],[-122.721621,45.572874],[-122.721048,45.57326],[-122.721123,45.573364],[-122.721081,45.57347],[-122.720027,45.573994],[-122.71837,45.574554],[-122.714098,45.575313],[-122.711988,45.575295],[-122.708852,45.575119],[-122.707761,45.574964],[-122.705677,45.574442],[-122.704295,45.574021],[-122.703622,45.573767],[-122.702615,45.573206],[-122.701774,45.572572],[-122.700742,45.571479],[-122.70032,45.570851],[-122.699892,45.570078],[-122.699683,45.569921],[-122.699659,45.569625],[-122.699326,45.568747],[-122.699196,45.568216],[-122.699176,45.567392],[-122.699076,45.566405],[-122.682226,45.566322],[-122.681415,45.566353],[-122.680993,45.566407],[-122.678075,45.566419],[-122.677997,45.566391],[-122.677955,45.566307],[-122.677974,45.565542],[-122.671682,45.565562],[-122.671616,45.565534],[-122.671575,45.565463],[-122.671583,45.565099],[-122.671195,45.565099],[-122.671039,45.565185],[-122.664691,45.565155],[-122.664618,45.56512],[-122.664584,45.565034],[-122.664608,45.562864],[-122.664644,45.56278],[-122.664728,45.562745],[-122.672782,45.562706],[-122.672791,45.561293],[-122.672835,45.561201],[-122.672911,45.561174],[-122.674822,45.561166],[-122.674854,45.558402],[-122.674783,45.558214],[-122.674815,45.555874],[-122.675318,45.555512],[-122.676433,45.555503],[-122.676444,45.554749],[-122.676529,45.554647],[-122.678594,45.554647],[-122.67865,45.553486],[-122.678701,45.548009],[-122.679509,45.546692],[-122.680991,45.545355],[-122.685268,45.542351],[-122.685458,45.542267],[-122.685522,45.542291],[-122.685799,45.542529],[-122.686036,45.542651],[-122.686144,45.542758],[-122.686424,45.542871],[-122.686734,45.543166],[-122.687343,45.54356],[-122.687826,45.543969],[-122.687864,45.544113],[-122.687967,45.544169],[-122.688132,45.544329],[-122.688266,45.544355],[-122.688608,45.544667],[-122.689274,45.54515],[-122.689464,45.545396],[-122.689829,45.545727],[-122.690114,45.545912],[-122.690458,45.546251],[-122.690728,45.546411],[-122.691206,45.546882],[-122.691352,45.546976],[-122.691467,45.547138],[-122.691732,45.547327],[-122.69191,45.547694],[-122.692806,45.548827],[-122.692857,45.548979],[-122.693197,45.549253],[-122.694045,45.550222],[-122.694361,45.550709],[-122.694878,45.551412],[-122.695109,45.551605],[-122.695238,45.551807],[-122.695612,45.552042],[-122.695841,45.552275],[-122.696245,45.552442],[-122.69672,45.552587],[-122.698033,45.553246],[-122.698633,45.553473],[-122.699756,45.553762],[-122.701847,45.554171],[-122.702116,45.554265],[-122.702576,45.554472],[-122.704031,45.554998],[-122.704183,45.555179],[-122.704297,45.55524],[-122.705767,45.555811],[-122.706248,45.555966],[-122.7066,45.556135],[-122.707249,45.556523],[-122.707738,45.556716],[-122.707977,45.556852],[-122.708814,45.557043],[-122.709811,45.557381],[-122.710371,45.557601],[-122.710562,45.557733],[-122.711555,45.558121],[-122.711979,45.55835],[-122.712313,45.558479],[-122.712503,45.558647],[-122.713092,45.558912],[-122.714473,45.559661],[-122.715083,45.559927],[-122.715589,45.560227],[-122.715726,45.560339],[-122.716076,45.560492],[-122.71631,45.560639],[-122.716428,45.56066],[-122.716683,45.560851],[-122.716901,45.560961],[-122.717032,45.56109],[-122.717233,45.561184],[-122.717361,45.561295],[-122.717884,45.561503],[-122.718005,45.561627],[-122.718758,45.562054],[-122.718884,45.56219],[-122.719137,45.561986],[-122.719239,45.56198],[-122.724726,45.564897],[-122.724781,45.564956],[-122.724787,45.565036],[-122.724619,45.565234]]]}},{"type":"Feature","properties":{"from":"Lewis Elementary","to":"Duniway Elementary"},"geometry":{"type":"MultiPolygon","coordinates":[[[[-122.622554,45.462265],[-122.62252,45.462338],[-122.62246,45.462372],[-122.621616,45.462496],[-122.620614,45.462591],[-122.620547,45.462623],[-122.620496,45.462732],[-122.620417,45.46278],[-122.619913,45.462933],[-122.619706,45.462952],[-122.618763,45.462645],[-122.618132,45.46234],[-122.617962,45.462326],[-122.617822,45.46223],[-122.616439,45.461744],[-122.616362,45.461674],[-122.616343,45.461596],[-122.616387,45.461516],[-122.616462,45.461489],[-122.622438,45.46146],[-122.622511,45.461494],[-122.622547,45.461567],[-122.622554,45.462265]]],[[[-122.619399,45.462928],[-122.619462,45.463008],[-122.619441,45.463107],[-122.619216,45.46328],[-122.619093,45.463495],[-122.618881,45.463637],[-122.618617,45.463775],[-122.618411,45.463843],[-122.618173,45.463825],[-122.618028,45.463706],[-122.617999,45.463486],[-122.618082,45.462775],[-122.618048,45.462583],[-122.618109,45.462488],[-122.618219,45.462479],[-122.618803,45.462737],[-122.619399,45.462928]]],[[[-122.622459,45.462483],[-122.62253,45.462524],[-122.622558,45.4626],[-122.622562,45.464972],[-122.622463,45.465026],[-122.620914,45.465041],[-122.620926,45.465361],[-122.621013,45.465449],[-122.621027,45.465775],[-122.62102,45.465973],[-122.620928,45.466054],[-122.620938,45.466649],[-122.621079,45.466667],[-122.621135,45.466766],[-122.621179,45.47013],[-122.621143,45.470217],[-122.621063,45.470254],[-122.621111,45.472587],[-122.621212,45.472708],[-122.621257,45.474577],[-122.621231,45.474654],[-122.621161,45.474697],[-122.620664,45.474702],[-122.620626,45.479084],[-122.620598,45.47916],[-122.620506,45.479203],[-122.608876,45.479174],[-122.6088,45.479147],[-122.608756,45.479054],[-122.608772,45.475882],[-122.609977,45.472494],[-122.610084,45.471795],[-122.610102,45.466658],[-122.610128,45.466486],[-122.610117,45.463059],[-122.610151,45.462998],[-122.610225,45.462964],[-122.611763,45.462992],[-122.611679,45.462844],[-122.611763,45.462351],[-122.611766,45.462138],[-122.611379,45.462083],[-122.611124,45.461873],[-122.611009,45.461676],[-122.611028,45.461562],[-122.611121,45.461516],[-122.616125,45.461496],[-122.616202,45.461566],[-122.616248,45.461765],[-122.616348,45.461832],[-122.616549,45.461854],[-122.617309,45.46213],[-122.617834,45.462411],[-122.617974,45.462785],[-122.61788,45.463503],[-122.617899,45.463739],[-122.617956,45.463837],[-122.61802,45.463873],[-122.618309,45.463953],[-122.618458,45.463942],[-122.619022,45.463634],[-122.61918,45.463517],[-122.619259,45.463347],[-122.619375,45.463234],[-122.619755,45.463029],[-122.62202,45.462504],[-122.622459,45.462483]]]]}},{"type":"Feature","properties":{"from":"Maplewood Elementary","to":"Hayhurst Elementary"},"geometry":{"type":"Polygon","coordinates":[[[-122.743748,45.475474],[-122.743899,45.475482],[-122.743946,45.475547],[-122.743948,45.47586],[-122.743875,45.475948],[-122.743733,45.475955],[-122.743727,45.476353],[-122.743685,45.476422],[-122.743609,45.476449],[-122.713042,45.476139],[-122.712969,45.476029],[-122.712959,45.472561],[-122.71292,45.472088],[-122.712958,45.471642],[-122.712955,45.463548],[-122.713099,45.463373],[-122.713627,45.46316],[-122.713819,45.463115],[-122.713988,45.463005],[-122.714753,45.462678],[-122.714948,45.462567],[-122.715294,45.462263],[-122.715552,45.461855],[-122.715624,45.461811],[-122.723158,45.46188],[-122.723239,45.461924],[-122.723265,45.462],[-122.723267,45.465485],[-122.723629,45.465418],[-122.725584,45.465418],[-122.725917,45.465334],[-122.726517,45.46485],[-122.72665,45.464649],[-122.726621,45.464429],[-122.726295,45.463893],[-122.726267,45.4637],[-122.72639,45.463508],[-122.726537,45.463424],[-122.72682,45.463368],[-122.727047,45.463411],[-122.728525,45.463922],[-122.728785,45.464045],[-122.729353,45.464511],[-122.729498,45.464595],[-122.729957,45.4647],[-122.730241,45.464678],[-122.731265,45.464399],[-122.731678,45.464354],[-122.731978,45.464395],[-122.735248,45.465183],[-122.735514,45.465216],[-122.735776,45.465187],[-122.736914,45.464947],[-122.737197,45.464933],[-122.743703,45.465654],[-122.743776,45.465765],[-122.743748,45.475474]]]}},{"type":"Feature","properties":{"from":"Duniway Elementary","to":"Llewellyn Elementary"},"geometry":{"type":"MultiPolygon","coordinates":[[[[-122.662003,45.462817],[-122.662587,45.463194],[-122.662859,45.463493],[-122.663242,45.463819],[-122.663507,45.464119],[-122.663519,45.464187],[-122.663484,45.464258],[-122.6634,45.464293],[-122.662248,45.464291],[-122.661079,45.464336],[-122.641915,45.464323],[-122.641338,45.464285],[-122.640623,45.464133],[-122.6402,45.464126],[-122.639342,45.464209],[-122.639268,45.464173],[-122.639235,45.464098],[-122.639265,45.464009],[-122.639562,45.463761],[-122.639652,45.463617],[-122.639594,45.463461],[-122.63936,45.463055],[-122.639441,45.462828],[-122.63947,45.462533],[-122.639598,45.4623],[-122.639828,45.462155],[-122.640041,45.462095],[-122.640143,45.461778],[-122.640569,45.461558],[-122.640885,45.461507],[-122.640966,45.461527],[-122.641057,45.461496],[-122.641509,45.461494],[-122.641782,45.461306],[-122.641841,45.461214],[-122.642053,45.461044],[-122.642096,45.460891],[-122.642245,45.460619],[-122.642406,45.460481],[-122.642554,45.460453],[-122.64267,45.460367],[-122.642669,45.460027],[-122.642604,45.45972],[-122.642129,45.459055],[-122.64208,45.458871],[-122.642144,45.458717],[-122.643456,45.458675],[-122.646991,45.458709],[-122.646642,45.455854],[-122.6467,45.455737],[-122.652557,45.455363],[-122.652646,45.455394],[-122.652684,45.455468],[-122.653034,45.458322],[-122.659348,45.457932],[-122.659426,45.457955],[-122.659503,45.458069],[-122.659643,45.458163],[-122.659899,45.458819],[-122.660175,45.459197],[-122.660303,45.460165],[-122.660448,45.460547],[-122.660932,45.461396],[-122.66121,45.461497],[-122.661287,45.461563],[-122.661764,45.462519],[-122.661843,45.462651],[-122.662003,45.462817]]],[[[-122.642191,45.459298],[-122.6425,45.45988],[-122.642561,45.460093],[-122.642137,45.460598],[-122.641717,45.46121],[-122.64166,45.461248],[-122.64159,45.461249],[-122.641532,45.46121],[-122.641505,45.461147],[-122.641487,45.459958],[-122.64137,45.458846],[-122.641389,45.458768],[-122.641475,45.458714],[-122.641941,45.458723],[-122.641994,45.458798],[-122.642031,45.459121],[-122.642191,45.459298]]],[[[-122.640058,45.461501],[-122.640146,45.461575],[-122.640138,45.46168],[-122.640033,45.461788],[-122.63992,45.462067],[-122.639861,45.462101],[-122.639751,45.462098],[-122.639623,45.462162],[-122.639447,45.462346],[-122.639337,45.462632],[-122.639337,45.462774],[-122.639232,45.463053],[-122.639269,45.463182],[-122.639392,45.46328],[-122.639492,45.463431],[-122.639548,45.463566],[-122.639533,45.463647],[-122.639284,45.463918],[-122.639148,45.463968],[-122.638867,45.463975],[-122.638579,45.463875],[-122.63852,45.463791],[-122.63854,45.463601],[-122.639052,45.461559],[-122.639141,45.461502],[-122.640058,45.461501]]]]}},{"type":"Feature","properties":{"from":"Sabin Elementary","to":"MLK Jr Elementary"},"geometry":{"type":"Polygon","coordinates":[[[-122.65525,45.545216],[-122.655327,45.545244],[-122.655369,45.545326],[-122.655358,45.545902],[-122.655314,45.545981],[-122.655238,45.546008],[-122.654347,45.546005],[-122.654318,45.548269],[-122.661339,45.548295],[-122.661439,45.548349],[-122.661459,45.548416],[-122.661391,45.555402],[-122.661327,45.555507],[-122.651588,45.555484],[-122.65155,45.557615],[-122.651529,45.55768],[-122.651464,45.557728],[-122.642855,45.5577],[-122.64277,45.557665],[-122.642735,45.557591],[-122.642752,45.555444],[-122.633788,45.555415],[-122.633682,45.555351],[-122.633693,45.553186],[-122.633747,45.553087],[-122.638784,45.553087],[-122.638803,45.552924],[-122.64006,45.55113],[-122.640231,45.551002],[-122.640284,45.550814],[-122.640447,45.550647],[-122.640521,45.550618],[-122.640906,45.550784],[-122.64097,45.548243],[-122.640961,45.545295],[-122.64098,45.545227],[-122.641035,45.545183],[-122.65525,45.545216]]]}},{"type":"Feature","properties":{"from":"Capitol Hill Elementary","to":"Markham Elementary"},"geometry":{"type":"Polygon","coordinates":[[[-122.720601,45.454596],[-122.720498,45.454653],[-122.719109,45.454644],[-122.71837,45.454551],[-122.715986,45.454516],[-122.715901,45.454478],[-122.715868,45.454391],[-122.715927,45.454292],[-122.71643,45.454059],[-122.717629,45.453689],[-122.718682,45.453616],[-122.720971,45.453745],[-122.721033,45.453814],[-122.721027,45.453906],[-122.720601,45.454596]]]}},{"type":"Feature","properties":{"from":"Stephenson Elementary","to":"Markham Elementary"},"geometry":{"type":"Polygon","coordinates":[[[-122.72029,45.435491],[-122.720623,45.435721],[-122.72089,45.435815],[-122.724318,45.436175],[-122.724697,45.436237],[-122.72494,45.436295],[-122.725504,45.436502],[-122.72603,45.436794],[-122.726329,45.43701],[-122.726671,45.437318],[-122.726966,45.437709],[-122.727187,45.438172],[-122.727262,45.438672],[-122.72724,45.440332],[-122.727139,45.440385],[-122.715255,45.440291],[-122.715023,45.44025],[-122.713143,45.440233],[-122.713012,45.440273],[-122.712975,45.441037],[-122.712977,45.443793],[-122.713031,45.444691],[-122.712977,45.446479],[-122.71297,45.453435],[-122.712882,45.453759],[-122.712732,45.454059],[-122.712529,45.454324],[-122.712037,45.454832],[-122.71192,45.454989],[-122.711644,45.455635],[-122.711494,45.455893],[-122.711239,45.45609],[-122.710416,45.456465],[-122.710276,45.456561],[-122.710194,45.456684],[-122.710142,45.457001],[-122.710089,45.457073],[-122.709537,45.457231],[-122.705222,45.458075],[-122.704737,45.458115],[-122.703388,45.458105],[-122.702683,45.458052],[-122.702627,45.457951],[-122.702628,45.455678],[-122.702251,45.455449],[-122.700692,45.455142],[-122.700374,45.454943],[-122.700209,45.454707],[-122.70022,45.454521],[-122.700292,45.454449],[-122.701168,45.454555],[-122.701351,45.454529],[-122.70263,45.45394],[-122.70266,45.446349],[-122.701705,45.446469],[-122.70161,45.446426],[-122.701584,45.446325],[-122.701647,45.446216],[-122.701751,45.445813],[-122.701744,45.445604],[-122.701683,45.445399],[-122.701442,45.44503],[-122.701094,45.444762],[-122.700708,45.444586],[-122.699998,45.444342],[-122.699465,45.444023],[-122.699194,45.443751],[-122.698608,45.443042],[-122.698097,45.442679],[-122.695819,45.441686],[-122.69525,45.441537],[-122.694553,45.441497],[-122.694342,45.441458],[-122.69398,45.441289],[-122.693837,45.441161],[-122.693712,45.440945],[-122.693686,45.440794],[-122.693678,45.439989],[-122.686707,45.439922],[-122.68663,45.439894],[-122.686588,45.439812],[-122.686643,45.439701],[-122.687044,45.439545],[-122.688936,45.439203],[-122.689832,45.438972],[-122.690813,45.438596],[-122.694201,45.437176],[-122.697458,45.436075],[-122.698108,45.435711],[-122.7002,45.434324],[-122.702202,45.433065],[-122.702225,45.43299],[-122.702387,45.432787],[-122.70258,45.432252],[-122.702665,45.432195],[-122.70398,45.432372],[-122.704205,45.432473],[-122.704586,45.432798],[-122.705166,45.433037],[-122.707216,45.433648],[-122.707628,45.43367],[-122.707876,45.433626],[-122.708154,45.433522],[-122.708487,45.433345],[-122.708947,45.433599],[-122.709334,45.433753],[-122.709597,45.433831],[-122.71027,45.433955],[-122.710961,45.433964],[-122.711514,45.433915],[-122.712301,45.433681],[-122.712617,45.433621],[-122.713367,45.433694],[-122.713765,45.433857],[-122.714342,45.434234],[-122.715264,45.43459],[-122.715663,45.434826],[-122.716419,45.434163],[-122.716622,45.433809],[-122.716597,45.433718],[-122.71624,45.433251],[-122.716242,45.43316],[-122.716307,45.433097],[-122.719419,45.433121],[-122.719509,45.433201],[-122.71981,45.434502],[-122.720127,45.435209],[-122.72029,45.435491]]]}},{"type":"Feature","properties":{"from":"Hayhurst Elementary","to":"Rieke Elementary"},"geometry":{"type":"Polygon","coordinates":[[[-122.70883,45.468849],[-122.708934,45.468911],[-122.708923,45.469042],[-122.708116,45.469628],[-122.707899,45.469899],[-122.70781,45.470137],[-122.707817,45.473317],[-122.707786,45.473684],[-122.707783,45.474785],[-122.707815,45.47596],[-122.707789,45.476038],[-122.707695,45.476084],[-122.702933,45.476076],[-122.702761,45.476103],[-122.702685,45.476073],[-122.702644,45.475989],[-122.702615,45.469736],[-122.702647,45.468409],[-122.702675,45.468334],[-122.702767,45.468292],[-122.706912,45.46828],[-122.707202,45.468381],[-122.70773,45.468835],[-122.70883,45.468849]]]}},{"type":"Feature","properties":{"from":"Maplewood Elementary","to":"Rieke Elementary"},"geometry":{"type":"Polygon","coordinates":[[[-122.713081,45.46338],[-122.712946,45.463554],[-122.71297,45.464798],[-122.712941,45.466113],[-122.712958,45.47164],[-122.71292,45.472088],[-122.712959,45.472564],[-122.712969,45.476022],[-122.712942,45.476098],[-122.712873,45.476139],[-122.707935,45.476084],[-122.707831,45.476022],[-122.707783,45.474784],[-122.707786,45.473686],[-122.707817,45.473319],[-122.707812,45.470137],[-122.707904,45.469894],[-122.708121,45.469625],[-122.70912,45.468907],[-122.708941,45.46885],[-122.707738,45.46883],[-122.707193,45.468373],[-122.706919,45.468279],[-122.700147,45.468291],[-122.700088,45.468251],[-122.700062,45.468186],[-122.700078,45.466711],[-122.700039,45.466506],[-122.69989,45.466303],[-122.699613,45.466209],[-122.698029,45.46617],[-122.697693,45.466044],[-122.69758,45.465911],[-122.697585,45.465843],[-122.697637,45.465783],[-122.69897,45.465015],[-122.699415,45.464794],[-122.701269,45.463693],[-122.707733,45.459982],[-122.707823,45.460008],[-122.707867,45.46009],[-122.707873,45.461713],[-122.714595,45.461786],[-122.71538,45.461804],[-122.715466,45.461857],[-122.715478,45.461967],[-122.715297,45.462258],[-122.714938,45.462573],[-122.713988,45.463005],[-122.713818,45.463113],[-122.713634,45.463157],[-122.713081,45.46338]]]}},{"type":"Feature","properties":{"from":"C\u00e9sar Ch\u00e1vez K-8","to":"Rosa Parks Elementary"},"geometry":{"type":"Polygon","coordinates":[[[-122.728203,45.586627],[-122.728487,45.586362],[-122.729443,45.585089],[-122.729532,45.585042],[-122.73014,45.585068],[-122.731957,45.585722],[-122.734868,45.586406],[-122.734935,45.586449],[-122.73496,45.586525],[-122.734916,45.586616],[-122.71882,45.599827],[-122.718736,45.599829],[-122.718502,45.59972],[-122.717799,45.599329],[-122.717357,45.599044],[-122.715591,45.597772],[-122.715102,45.597469],[-122.713242,45.596532],[-122.712906,45.596328],[-122.712459,45.596143],[-122.71241,45.596094],[-122.712398,45.596016],[-122.712512,45.595385],[-122.712662,45.594968],[-122.712837,45.594816],[-122.713456,45.594419],[-122.713983,45.594235],[-122.715126,45.594097],[-122.715304,45.594088],[-122.71598,45.594195],[-122.716737,45.594104],[-122.716782,45.593829],[-122.71691,45.593506],[-122.71691,45.593013],[-122.716938,45.592936],[-122.717045,45.592894],[-122.717139,45.592938],[-122.717467,45.592993],[-122.717998,45.592655],[-122.718045,45.589027],[-122.71812,45.588929],[-122.718296,45.588922],[-122.718414,45.588882],[-122.71853,45.58878],[-122.718559,45.588688],[-122.718516,45.586614],[-122.71855,45.584437],[-122.718613,45.584333],[-122.721108,45.584274],[-122.721896,45.584509],[-122.725133,45.585698],[-122.725201,45.58576],[-122.725205,45.585851],[-122.725045,45.586078],[-122.724827,45.586646],[-122.724994,45.586765],[-122.72562,45.586776],[-122.726473,45.586683],[-122.728203,45.586627]]]}},{"type":"Feature","properties":{"from":"Peninsula Elementary","to":"Rosa Parks Elementary"},"geometry":{"type":"Polygon","coordinates":[[[-122.702619,45.577045],[-122.702622,45.573415],[-122.702642,45.573348],[-122.702697,45.573304],[-122.702789,45.573305],[-122.703627,45.573769],[-122.704096,45.573962],[-122.705674,45.574441],[-122.707675,45.574949],[-122.707757,45.575021],[-122.707727,45.583922],[-122.707706,45.583989],[-122.707606,45.584042],[-122.70222,45.584026],[-122.702127,45.594142],[-122.702098,45.594219],[-122.702039,45.594257],[-122.701563,45.594107],[-122.701326,45.594079],[-122.700406,45.593833],[-122.699524,45.593582],[-122.698878,45.593359],[-122.698746,45.593355],[-122.698611,45.593272],[-122.696369,45.592387],[-122.695523,45.591967],[-122.695314,45.591936],[-122.695226,45.591858],[-122.695093,45.5918],[-122.694775,45.59181],[-122.693244,45.591392],[-122.69296,45.591279],[-122.692711,45.591083],[-122.692444,45.591069],[-122.692298,45.591008],[-122.692141,45.591007],[-122.691796,45.590922],[-122.691295,45.590668],[-122.691077,45.590626],[-122.69062,45.590461],[-122.690525,45.590401],[-122.690306,45.590384],[-122.690227,45.590277],[-122.689845,45.590192],[-122.689546,45.590039],[-122.689288,45.590035],[-122.689107,45.589933],[-122.689021,45.58992],[-122.688964,45.589867],[-122.688644,45.589829],[-122.688445,45.58964],[-122.688352,45.589678],[-122.68813,45.589623],[-122.687924,45.589642],[-122.68763,45.58961],[-122.687212,45.589481],[-122.686998,45.58946],[-122.685634,45.589159],[-122.684549,45.588789],[-122.68408,45.58851],[-122.683532,45.588249],[-122.683219,45.588161],[-122.682254,45.588021],[-122.681848,45.587998],[-122.681519,45.587989],[-122.681295,45.588008],[-122.681132,45.588058],[-122.68083,45.588069],[-122.680772,45.58801],[-122.679021,45.584124],[-122.678713,45.583196],[-122.678596,45.582665],[-122.678484,45.581638],[-122.678468,45.579973],[-122.67853,45.577344],[-122.678558,45.577271],[-122.678625,45.57723],[-122.683128,45.577145],[-122.702566,45.577153],[-122.702619,45.577045]]]}},{"type":"Feature","properties":{"from":"Alameda Elementary","to":"Scott Elementary"},"geometry":{"type":"Polygon","coordinates":[[[-122.609534,45.55061],[-122.609497,45.550695],[-122.609411,45.550728],[-122.609116,45.550663],[-122.608918,45.550569],[-122.608471,45.550228],[-122.608442,45.550013],[-122.608337,45.549762],[-122.608509,45.549358],[-122.608595,45.549255],[-122.609432,45.548607],[-122.60952,45.548635],[-122.609562,45.548717],[-122.609534,45.55061]]]}},{"type":"Feature","properties":{"from":"Rose City Park Elementary","to":"Scott Elementary"},"geometry":{"type":"Polygon","coordinates":[[[-122.611827,45.541567],[-122.611533,45.541574],[-122.611129,45.54171],[-122.610981,45.541815],[-122.610902,45.541829],[-122.610818,45.541772],[-122.61071,45.541512],[-122.610507,45.54137],[-122.610278,45.541329],[-122.607621,45.541311],[-122.607522,45.541237],[-122.607514,45.541029],[-122.60442,45.54226],[-122.604458,45.542434],[-122.604441,45.543604],[-122.604366,45.543714],[-122.600694,45.543708],[-122.5889,45.548293],[-122.588831,45.548298],[-122.588762,45.548255],[-122.588737,45.548177],[-122.588914,45.54209],[-122.589012,45.542019],[-122.590125,45.542018],[-122.591917,45.541848],[-122.590405,45.541748],[-122.590228,45.541708],[-122.589933,45.541532],[-122.589807,45.54129],[-122.589422,45.54022],[-122.589432,45.539889],[-122.589575,45.539353],[-122.589599,45.539094],[-122.589296,45.538451],[-122.589204,45.538009],[-122.589171,45.537343],[-122.589214,45.536406],[-122.589337,45.535859],[-122.587919,45.536105],[-122.587159,45.536159],[-122.587084,45.536129],[-122.587047,45.53607],[-122.587053,45.535801],[-122.587148,45.53571],[-122.587965,45.535633],[-122.588881,45.535463],[-122.589854,45.535165],[-122.590435,45.534939],[-122.59178,45.534291],[-122.599496,45.530301],[-122.603063,45.528415],[-122.603713,45.528118],[-122.604659,45.527819],[-122.604731,45.527874],[-122.605039,45.528433],[-122.605034,45.530121],[-122.60498,45.530471],[-122.604955,45.531918],[-122.604888,45.532202],[-122.604865,45.533731],[-122.614749,45.533782],[-122.614855,45.533846],[-122.614827,45.541529],[-122.614728,45.541602],[-122.613816,45.541599],[-122.613568,45.541642],[-122.61334,45.541737],[-122.61293,45.541753],[-122.612397,45.541691],[-122.611827,45.541567]],[[-122.592198,45.538665],[-122.592087,45.538599],[-122.591175,45.538585],[-122.590961,45.538665],[-122.590932,45.538754],[-122.591131,45.538942],[-122.591314,45.539041],[-122.591442,45.539075],[-122.591763,45.539062],[-122.591885,45.539021],[-122.592038,45.538796],[-122.592167,45.538719],[-122.592198,45.538665]]]}},{"type":"Feature","properties":{"from":"Faubion K-8","to":"Sitton Elementary"},"geometry":{"type":"Polygon","coordinates":[[[-122.77949,45.606193],[-122.779573,45.606492],[-122.779533,45.606549],[-122.779468,45.606575],[-122.777995,45.60654],[-122.777923,45.606504],[-122.77789,45.60643],[-122.777912,45.606352],[-122.777989,45.606303],[-122.778523,45.60621],[-122.779391,45.606142],[-122.77949,45.606193]]]}},{"type":"Feature","properties":{"from":"James John Elementary","to":"Sitton Elementary"},"geometry":{"type":"MultiPolygon","coordinates":[[[[-122.765442,45.58876],[-122.76548,45.588864],[-122.765427,45.588949],[-122.763522,45.589867],[-122.763088,45.59017],[-122.757327,45.592916],[-122.757245,45.593018],[-122.756952,45.593169],[-122.750331,45.596383],[-122.749781,45.596602],[-122.749543,45.596658],[-122.748906,45.596709],[-122.748244,45.59663],[-122.738094,45.594223],[-122.73664,45.597209],[-122.736868,45.597351],[-122.736906,45.597438],[-122.736913,45.603516],[-122.736887,45.603592],[-122.736818,45.603634],[-122.736653,45.603615],[-122.736488,45.603447],[-122.735921,45.603396],[-122.735506,45.603261],[-122.735198,45.603212],[-122.734866,45.603075],[-122.734191,45.602936],[-122.733866,45.602931],[-122.733378,45.602768],[-122.733003,45.602761],[-122.732704,45.602698],[-122.732544,45.602713],[-122.732089,45.602505],[-122.731833,45.602425],[-122.73118,45.602387],[-122.730796,45.602249],[-122.730671,45.602127],[-122.730313,45.602036],[-122.730219,45.601946],[-122.729976,45.601957],[-122.729074,45.601601],[-122.728698,45.601488],[-122.728536,45.601376],[-122.727878,45.601233],[-122.727262,45.600989],[-122.726661,45.600902],[-122.72639,45.600907],[-122.726348,45.600938],[-122.726351,45.601153],[-122.72624,45.601225],[-122.725187,45.601037],[-122.724243,45.600971],[-122.722857,45.600953],[-122.72214,45.600867],[-122.721025,45.600705],[-122.720247,45.600525],[-122.720113,45.600474],[-122.720017,45.600398],[-122.719865,45.600366],[-122.719588,45.600239],[-122.719356,45.600201],[-122.719207,45.600019],[-122.719247,45.599904],[-122.721441,45.598031],[-122.745064,45.578641],[-122.745134,45.578648],[-122.745188,45.578694],[-122.745207,45.578761],[-122.745185,45.578828],[-122.745012,45.579],[-122.744617,45.579543],[-122.744244,45.579913],[-122.744172,45.580021],[-122.744179,45.580196],[-122.744226,45.580309],[-122.744481,45.580472],[-122.744516,45.580533],[-122.744509,45.580608],[-122.744643,45.580728],[-122.745007,45.580812],[-122.745874,45.580871],[-122.747213,45.580868],[-122.747677,45.580837],[-122.747979,45.580854],[-122.748189,45.58088],[-122.748665,45.581031],[-122.748997,45.581099],[-122.750486,45.581217],[-122.750669,45.581296],[-122.751671,45.581474],[-122.752078,45.581512],[-122.752304,45.581579],[-122.752445,45.58164],[-122.752653,45.581798],[-122.754342,45.582385],[-122.755012,45.582713],[-122.756023,45.583128],[-122.756284,45.583313],[-122.756534,45.583443],[-122.757336,45.583739],[-122.757677,45.583821],[-122.758301,45.584096],[-122.758832,45.584241],[-122.760728,45.585194],[-122.760859,45.585322],[-122.760945,45.585476],[-122.76107,45.585612],[-122.761348,45.585819],[-122.761573,45.586078],[-122.761612,45.586195],[-122.761885,45.58633],[-122.762048,45.586521],[-122.762313,45.586654],[-122.762448,45.586765],[-122.762986,45.58693],[-122.763649,45.587274],[-122.764073,45.58743],[-122.764224,45.587535],[-122.764341,45.587719],[-122.764624,45.587863],[-122.764916,45.588289],[-122.764912,45.588358],[-122.764835,45.588456],[-122.764786,45.588602],[-122.764929,45.588637],[-122.765151,45.588622],[-122.76532,45.588669],[-122.765442,45.58876]]],[[[-122.732025,45.602825],[-122.733788,45.603087],[-122.734118,45.603198],[-122.734168,45.603262],[-122.734169,45.603332],[-122.734122,45.603398],[-122.734044,45.603419],[-122.732012,45.603229],[-122.730924,45.603227],[-122.73078,45.603193],[-122.730379,45.603048],[-122.729877,45.602939],[-122.729621,45.602811],[-122.72928,45.602711],[-122.728822,45.602458],[-122.727822,45.601806],[-122.7273,45.601579],[-122.727256,45.601525],[-122.727252,45.601444],[-122.727292,45.601386],[-122.727357,45.60136],[-122.727619,45.60141],[-122.727793,45.601487],[-122.727909,45.601622],[-122.729082,45.601972],[-122.729371,45.602082],[-122.729555,45.602194],[-122.730026,45.602308],[-122.730633,45.602555],[-122.731411,45.60268],[-122.732025,45.602825]]]]}},{"type":"Feature","properties":{"from":"Buckman Elementary","to":"Sunnyside Environmental Elementary"},"geometry":{"type":"Polygon","coordinates":[[[-122.672583,45.532519],[-122.672609,45.532618],[-122.672549,45.532701],[-122.668296,45.535101],[-122.644824,45.535033],[-122.644755,45.534991],[-122.644728,45.534915],[-122.644759,45.530073],[-122.636422,45.530472],[-122.635592,45.530586],[-122.634862,45.530786],[-122.634751,45.53075],[-122.634436,45.530334],[-122.634393,45.530187],[-122.634421,45.522984],[-122.634463,45.522915],[-122.634538,45.522888],[-122.641361,45.522881],[-122.641387,45.521581],[-122.641432,45.52149],[-122.641507,45.521463],[-122.643293,45.521463],[-122.64337,45.521491],[-122.643412,45.521573],[-122.643389,45.522888],[-122.6617,45.522949],[-122.665633,45.523022],[-122.665709,45.523075],[-122.665725,45.523165],[-122.665429,45.524105],[-122.665448,45.524631],[-122.665521,45.524865],[-122.665479,45.525187],[-122.665496,45.525682],[-122.665558,45.525909],[-122.665698,45.526172],[-122.665766,45.52654],[-122.665931,45.526923],[-122.6661,45.527169],[-122.66721,45.527851],[-122.667809,45.528178],[-122.66807,45.528506],[-122.668267,45.528638],[-122.668523,45.528749],[-122.668641,45.528698],[-122.66872,45.528713],[-122.669754,45.529465],[-122.669794,45.529558],[-122.669749,45.529648],[-122.669973,45.529747],[-122.670322,45.530023],[-122.67124,45.530835],[-122.671536,45.531144],[-122.671744,45.531383],[-122.672583,45.532519]]]}},{"type":"Feature","properties":{"from":"Lewis Elementary","to":"Whitman Elementary"},"geometry":{"type":"Polygon","coordinates":[[[-122.611763,45.462351],[-122.611635,45.462955],[-122.611562,45.462988],[-122.610233,45.462963],[-122.610158,45.462935],[-122.610115,45.462843],[-122.61012,45.46164],[-122.610147,45.461564],[-122.610239,45.46152],[-122.610887,45.461526],[-122.610941,45.461567],[-122.611129,45.461883],[-122.611405,45.462104],[-122.611721,45.462155],[-122.611762,45.462226],[-122.611763,45.462351]]]}},{"type":"Feature","properties":{"from":"Woodmere Elementary","to":"Whitman Elementary"},"geometry":{"type":"Polygon","coordinates":[[[-122.60865,45.475844],[-122.608735,45.475879],[-122.60877,45.475965],[-122.608756,45.479055],[-122.608728,45.47913],[-122.608659,45.479172],[-122.592218,45.479135],[-122.592096,45.479167],[-122.591478,45.479543],[-122.589314,45.47953],[-122.588021,45.479615],[-122.581515,45.479627],[-122.579025,45.479489],[-122.578958,45.482646],[-122.57889,45.482751],[-122.578797,45.482756],[-122.577446,45.482252],[-122.574941,45.481634],[-122.574863,45.481541],[-122.574877,45.48072],[-122.574913,45.480636],[-122.574998,45.480602],[-122.575898,45.480613],[-122.575944,45.4794],[-122.57551,45.479371],[-122.575449,45.479336],[-122.575417,45.479262],[-122.575556,45.475854],[-122.575658,45.475784],[-122.577059,45.475829],[-122.577066,45.472337],[-122.577111,45.472283],[-122.577178,45.472264],[-122.579095,45.472286],[-122.579107,45.471135],[-122.579133,45.471071],[-122.579202,45.47103],[-122.588236,45.470991],[-122.588744,45.47112],[-122.588993,45.47113],[-122.594183,45.471101],[-122.594242,45.47114],[-122.594269,45.471217],[-122.594227,45.475874],[-122.598421,45.475843],[-122.60865,45.475844]]]}}]}