{"type":"FeatureCollection","features":[{"type":"Feature","properties":{"from":"Franklin High School","to":"Cleveland High School"},"geometry":{"type":"MultiPolygon","coordinates":[[[[-122.604856,45.47573],[-122.604813,45.475812],[-122.604737,45.475839],[-122.596319,45.475857],[-122.596243,45.47583],[-122.596198,45.475737],[-122.596222,45.468774],[-122.596249,45.468698],[-122.596342,45.468654],[-122.604717,45.468652],[-122.604793,45.468679],[-122.604837,45.468772],[-122.604856,45.47573]]],[[[-122.605679,45.490203],[-122.605637,45.490271],[-122.605561,45.490297],[-122.60142,45.490293],[-122.601314,45.490229],[-122.601358,45.485516],[-122.601394,45.485443],[-122.601468,45.48541],[-122.602119,45.485423],[-122.602142,45.483994],[-122.602206,45.48389],[-122.604598,45.483874],[-122.604705,45.483939],[-122.604681,45.485356],[-122.604582,45.485428],[-122.604059,45.485426],[-122.604025,45.487896],[-122.60555,45.487896],[-122.605651,45.48795],[-122.605657,45.489032],[-122.605702,45.489138],[-122.605679,45.490203]]],[[[-122.64341,45.513499],[-122.643375,45.513584],[-122.643301,45.513619],[-122.642466,45.513615],[-122.642444,45.516865],[-122.6424,45.516957],[-122.642324,45.516984],[-122.63907,45.516978],[-122.639033,45.519327],[-122.641308,45.519335],[-122.641375,45.519355],[-122.641419,45.51941],[-122.641361,45.522763],[-122.641333,45.522837],[-122.641242,45.52288],[-122.634418,45.522888],[-122.634424,45.524235],[-122.634389,45.524308],[-122.634316,45.524343],[-122.631725,45.524335],[-122.631649,45.524308],[-122.631606,45.524215],[-122.631614,45.522132],[-122.629427,45.522142],[-122.628918,45.522259],[-122.628655,45.522278],[-122.627862,45.522156],[-122.627172,45.522177],[-122.625882,45.522353],[-122.624231,45.522697],[-122.623475,45.522786],[-122.623015,45.522787],[-122.62295,45.522679],[-122.622973,45.51975],[-122.622936,45.519299],[-122.622955,45.518595],[-122.622894,45.51654],[-122.622753,45.516588],[-122.619466,45.516582],[-122.61939,45.516554],[-122.619347,45.516473],[-122.619374,45.515091],[-122.619468,45.515029],[-122.620098,45.515029],[-122.620134,45.512175],[-122.62017,45.512091],[-122.620243,45.512057],[-122.643387,45.512094],[-122.643461,45.51213],[-122.643495,45.512216],[-122.643483,45.512874],[-122.643409,45.512988],[-122.64341,45.513499]]]]}},{"type":"Feature","properties":{"from":"Cleveland High School","to":"Franklin High School"},"geometry":{"type":"MultiPolygon","coordinates":[[[[-122.581931,45.461734],[-122.581378,45.462358],[-122.581009,45.462639],[-122.580619,45.462797],[-122.580233,45.462876],[-122.579266,45.463267],[-122.579184,45.46326],[-122.579126,45.463203],[-122.579189,45.461649],[-122.57925,45.461551],[-122.581865,45.46152],[-122.58193,45.461547],[-122.581969,45.461606],[-122.581931,45.461734]]],[[[-122.596824,45.46513],[-122.59691,45.465167],[-122.596944,45.465254],[-122.596874,45.468571],[-122.59683,45.468625],[-122.596764,45.468646],[-122.594272,45.468655],[-122.594268,45.470975],[-122.594248,45.471041],[-122.594184,45.471089],[-122.588995,45.471129],[-122.588742,45.471118],[-122.588247,45.47099],[-122.579225,45.471027],[-122.579149,45.470999],[-122.57911,45.470942],[-122.579104,45.46351],[-122.579154,45.463445],[-122.579582,45.463225],[-122.579739,45.463196],[-122.580139,45.463019],[-122.580637,45.462875],[-122.580888,45.46276],[-122.58112,45.462713],[-122.581606,45.462283],[-122.58202,45.461753],[-122.582308,45.461522],[-122.58553,45.461498],[-122.587062,45.461538],[-122.596572,45.461518],[-122.596642,45.46156],[-122.596668,45.461638],[-122.596589,45.465129],[-122.596824,45.46513]]],[[[-122.597162,45.479165],[-122.597092,45.479122],[-122.597066,45.479057],[-122.597095,45.477383],[-122.594505,45.477385],[-122.594493,45.478155],[-122.594458,45.478227],[-122.594397,45.478259],[-122.591369,45.478231],[-122.591316,45.478131],[-122.591347,45.475476],[-122.591435,45.475423],[-122.592228,45.47543],[-122.592299,45.475519],[-122.5923,45.475886],[-122.598635,45.475842],[-122.608649,45.475843],[-122.608715,45.475863],[-122.608763,45.475928],[-122.608755,45.479054],[-122.608734,45.479121],[-122.608669,45.479169],[-122.597162,45.479165]]]]}},{"type":"Feature","properties":{"from":"Franklin High School","to":"McDaniel High School"},"geometry":{"type":"Polygon","coordinates":[[[-122.602108,45.528845],[-122.602043,45.528946],[-122.596467,45.53185],[-122.596353,45.531848],[-122.596291,45.531741],[-122.596376,45.528392],[-122.596404,45.528329],[-122.596474,45.528289],[-122.596985,45.528296],[-122.596989,45.52649],[-122.593409,45.526468],[-122.593356,45.526379],[-122.59336,45.525383],[-122.59246,45.525378],[-122.592366,45.525314],[-122.592363,45.524151],[-122.591942,45.524152],[-122.591847,45.524089],[-122.591856,45.523199],[-122.591953,45.523137],[-122.592645,45.523163],[-122.597034,45.523128],[-122.598459,45.522889],[-122.602159,45.522902],[-122.602222,45.52301],[-122.602149,45.527971],[-122.602108,45.528845]]]}},{"type":"Feature","properties":{"from":"Grant High School","to":"McDaniel High School"},"geometry":{"type":"Polygon","coordinates":[[[-122.609532,45.55061],[-122.609495,45.550695],[-122.609409,45.550728],[-122.609115,45.550663],[-122.608917,45.550569],[-122.608469,45.550228],[-122.608441,45.550013],[-122.608336,45.549762],[-122.608509,45.549357],[-122.608592,45.549255],[-122.609409,45.548624],[-122.609504,45.548658],[-122.60954,45.548741],[-122.609532,45.55061]]]}},{"type":"Feature","properties":{"from":"Jefferson High School","to":"Roosevelt High School"},"geometry":{"type":"MultiPolygon","coordinates":[[[[-122.726088,45.609065],[-122.7262,45.609135],[-122.72621,45.609203],[-122.726172,45.609274],[-122.726029,45.609402],[-122.725248,45.60988],[-122.723931,45.610422],[-122.723716,45.610486],[-122.723608,45.610423],[-122.723604,45.610319],[-122.723779,45.610069],[-122.723936,45.609616],[-122.723992,45.60955],[-122.724236,45.609494],[-122.724586,45.609486],[-122.724853,45.609443],[-122.725375,45.609202],[-122.725682,45.609175],[-122.726088,45.609065]]],[[[-122.721375,45.609873],[-122.721411,45.60998],[-122.721342,45.61007],[-122.720842,45.610098],[-122.720158,45.610014],[-122.71983,45.609935],[-122.719322,45.609767],[-122.719268,45.609709],[-122.719258,45.609641],[-122.719346,45.609544],[-122.719772,45.609483],[-122.72035,45.60962],[-122.720981,45.609725],[-122.721229,45.609795],[-122.721375,45.609873]]],[[[-122.731081,45.613411],[-122.731127,45.613463],[-122.731137,45.613532],[-122.731057,45.613627],[-122.730526,45.613647],[-122.729873,45.613799],[-122.729719,45.61375],[-122.72966,45.613695],[-122.729622,45.613526],[-122.729484,45.613301],[-122.72912,45.613121],[-122.729074,45.613005],[-122.729115,45.612934],[-122.729191,45.612904],[-122.729573,45.612919],[-122.729787,45.612983],[-122.730191,45.61325],[-122.731081,45.613411]]],[[[-122.735466,45.614089],[-122.735494,45.614164],[-122.735462,45.614248],[-122.735205,45.614362],[-122.734914,45.614422],[-122.734596,45.614407],[-122.734384,45.614319],[-122.734296,45.614223],[-122.734173,45.61373],[-122.733968,45.613503],[-122.733751,45.613507],[-122.732981,45.61393],[-122.732708,45.613977],[-122.732186,45.613898],[-122.731804,45.613751],[-122.731438,45.613665],[-122.731374,45.613615],[-122.731357,45.613536],[-122.731403,45.613456],[-122.73148,45.613431],[-122.732232,45.613575],[-122.732558,45.613568],[-122.732848,45.613502],[-122.733279,45.613193],[-122.733861,45.612961],[-122.734211,45.612972],[-122.73442,45.613014],[-122.734785,45.612992],[-122.734884,45.613028],[-122.734964,45.613142],[-122.734956,45.613493],[-122.734877,45.613714],[-122.734895,45.613896],[-122.735006,45.61397],[-122.735227,45.613993],[-122.735466,45.614089]]],[[[-122.731158,45.614095],[-122.731062,45.614177],[-122.730796,45.614129],[-122.730412,45.614211],[-122.730089,45.614401],[-122.729886,45.614476],[-122.729567,45.614518],[-122.729327,45.614501],[-122.729091,45.614404],[-122.728877,45.614181],[-122.728869,45.613969],[-122.728933,45.6137],[-122.728913,45.613566],[-122.728977,45.613486],[-122.729089,45.61349],[-122.729353,45.613867],[-122.729508,45.613963],[-122.729728,45.614043],[-122.729989,45.614037],[-122.730466,45.613885],[-122.730776,45.613833],[-122.73115,45.613866],[-122.7312,45.613957],[-122.731158,45.614095]]],[[[-122.734531,45.614637],[-122.734596,45.614717],[-122.734581,45.614808],[-122.734501,45.614889],[-122.734363,45.614905],[-122.73407,45.614789],[-122.733808,45.614542],[-122.733449,45.614421],[-122.733032,45.614375],[-122.732973,45.614318],[-122.732965,45.614237],[-122.73302,45.614162],[-122.733396,45.613996],[-122.733626,45.613826],[-122.733814,45.613829],[-122.733907,45.613924],[-122.733995,45.614214],[-122.7342,45.614497],[-122.734378,45.614608],[-122.734531,45.614637]]],[[[-122.761412,45.616426],[-122.761147,45.616861],[-122.760644,45.617123],[-122.759901,45.617279],[-122.759419,45.617449],[-122.759047,45.617685],[-122.758762,45.617944],[-122.758702,45.618068],[-122.758697,45.618202],[-122.758733,45.618308],[-122.758993,45.61857],[-122.759688,45.619017],[-122.759975,45.619259],[-122.760146,45.619469],[-122.760292,45.619573],[-122.760407,45.619767],[-122.760486,45.620194],[-122.760396,45.6206],[-122.760262,45.620765],[-122.7601,45.620879],[-122.75965,45.621058],[-122.759128,45.621135],[-122.758909,45.621133],[-122.758629,45.621053],[-122.75789,45.620704],[-122.757217,45.620479],[-122.756595,45.620134],[-122.756315,45.620033],[-122.756062,45.619809],[-122.755785,45.619685],[-122.755357,45.619547],[-122.754783,45.619291],[-122.753994,45.618754],[-122.751822,45.617607],[-122.750675,45.617231],[-122.750508,45.617149],[-122.750389,45.61704],[-122.750401,45.616902],[-122.750313,45.616865],[-122.750246,45.616893],[-122.750176,45.61688],[-122.750115,45.616808],[-122.74966,45.61655],[-122.749101,45.616426],[-122.748727,45.616287],[-122.748509,45.616252],[-122.748009,45.616048],[-122.746281,45.61555],[-122.745677,45.615469],[-122.745169,45.615319],[-122.744773,45.615241],[-122.744488,45.615134],[-122.743429,45.614927],[-122.743289,45.61496],[-122.743155,45.615146],[-122.742991,45.615118],[-122.742831,45.615226],[-122.742636,45.615232],[-122.742463,45.615313],[-122.742307,45.615429],[-122.74214,45.615615],[-122.74201,45.615988],[-122.741922,45.616079],[-122.741771,45.616133],[-122.741548,45.616112],[-122.741421,45.616031],[-122.741325,45.615828],[-122.74125,45.615343],[-122.74108,45.615171],[-122.740854,45.615115],[-122.740244,45.615172],[-122.739888,45.615404],[-122.739677,45.615474],[-122.739223,45.615781],[-122.739081,45.615828],[-122.738655,45.615835],[-122.738242,45.615751],[-122.737677,45.615801],[-122.737528,45.61578],[-122.737297,45.615684],[-122.737142,45.61557],[-122.736978,45.615289],[-122.736755,45.61503],[-122.736744,45.614939],[-122.736801,45.614867],[-122.736903,45.614859],[-122.737465,45.61511],[-122.737784,45.615357],[-122.738273,45.615549],[-122.738709,45.615469],[-122.73888,45.615375],[-122.738946,45.615308],[-122.738992,45.615112],[-122.738956,45.615022],[-122.738802,45.614964],[-122.738383,45.614941],[-122.738121,45.614887],[-122.737664,45.6146],[-122.737126,45.614039],[-122.737012,45.613855],[-122.736743,45.61364],[-122.735972,45.613342],[-122.735312,45.613279],[-122.735216,45.613093],[-122.735217,45.612904],[-122.735238,45.612792],[-122.735351,45.612677],[-122.735636,45.612625],[-122.73619,45.612621],[-122.737056,45.612689],[-122.737696,45.61286],[-122.739187,45.613408],[-122.739544,45.61357],[-122.740035,45.613704],[-122.740709,45.613814],[-122.741096,45.613836],[-122.741334,45.613794],[-122.741926,45.613418],[-122.741988,45.613303],[-122.742028,45.613178],[-122.741957,45.613027],[-122.741778,45.612832],[-122.741733,45.612644],[-122.741764,45.612482],[-122.741849,45.612301],[-122.742012,45.612127],[-122.742231,45.611971],[-122.742307,45.611949],[-122.743486,45.611999],[-122.743608,45.612035],[-122.743929,45.611982],[-122.744096,45.611757],[-122.744765,45.611387],[-122.745001,45.61117],[-122.745317,45.611048],[-122.745486,45.610847],[-122.745818,45.610726],[-122.745918,45.610752],[-122.745972,45.610822],[-122.746049,45.610859],[-122.74619,45.610848],[-122.746502,45.610469],[-122.746553,45.610313],[-122.746685,45.61013],[-122.746702,45.609993],[-122.74665,45.609922],[-122.746618,45.609781],[-122.746306,45.609574],[-122.746237,45.609552],[-122.746011,45.609579],[-122.745762,45.609534],[-122.74565,45.609449],[-122.745131,45.609223],[-122.744862,45.609213],[-122.744692,45.609252],[-122.744626,45.609222],[-122.744542,45.609114],[-122.744386,45.609055],[-122.744007,45.609036],[-122.743937,45.608948],[-122.743939,45.608721],[-122.743773,45.608573],[-122.743604,45.608513],[-122.743517,45.608418],[-122.743316,45.608344],[-122.742276,45.608402],[-122.74189,45.608349],[-122.741449,45.60838],[-122.740924,45.60851],[-122.740746,45.608516],[-122.740092,45.608399],[-122.739809,45.60839],[-122.739585,45.608493],[-122.739471,45.608655],[-122.739554,45.608833],[-122.739548,45.609047],[-122.739432,45.609192],[-122.739052,45.609474],[-122.738135,45.609966],[-122.737924,45.609995],[-122.737608,45.609958],[-122.737178,45.609718],[-122.737051,45.609431],[-122.73708,45.609316],[-122.737222,45.60915],[-122.737613,45.608943],[-122.737855,45.608732],[-122.738013,45.608295],[-122.738006,45.608074],[-122.738076,45.607638],[-122.737858,45.606751],[-122.737596,45.606421],[-122.736736,45.605811],[-122.735159,45.605059],[-122.734347,45.604838],[-122.733615,45.604708],[-122.732915,45.604667],[-122.732176,45.604475],[-122.730638,45.604284],[-122.729829,45.604117],[-122.728238,45.603698],[-122.727662,45.603603],[-122.726738,45.603683],[-122.725459,45.603951],[-122.725051,45.604109],[-122.72484,45.60413],[-122.724623,45.604094],[-122.724273,45.603905],[-122.724089,45.603856],[-122.723785,45.603829],[-122.723168,45.603698],[-122.722931,45.603755],[-122.722617,45.60377],[-122.722268,45.603882],[-122.722191,45.603853],[-122.722083,45.603734],[-122.722111,45.603825],[-122.722096,45.603892],[-122.721973,45.604081],[-122.721806,45.604174],[-122.721769,45.604358],[-122.721774,45.60463],[-122.721729,45.604697],[-122.721653,45.60472],[-122.72157,45.604681],[-122.721299,45.604322],[-122.721057,45.603891],[-122.720955,45.603771],[-122.720801,45.603661],[-122.720421,45.603522],[-122.720186,45.603542],[-122.719908,45.603647],[-122.71971,45.603808],[-122.71924,45.604102],[-122.718821,45.604521],[-122.718683,45.604908],[-122.7186,45.605029],[-122.718587,45.605262],[-122.718636,45.605424],[-122.718896,45.605701],[-122.719498,45.606168],[-122.719707,45.606411],[-122.720095,45.606691],[-122.720822,45.606907],[-122.722403,45.60721],[-122.72321,45.607294],[-122.723519,45.607358],[-122.723687,45.607431],[-122.723888,45.607532],[-122.724119,45.607778],[-122.724545,45.608128],[-122.724944,45.608378],[-122.725119,45.608629],[-122.725355,45.608854],[-122.72536,45.608933],[-122.725306,45.609004],[-122.724795,45.609268],[-122.724655,45.609276],[-122.724581,45.60923],[-122.724541,45.609146],[-122.724533,45.608934],[-122.724588,45.608673],[-122.724564,45.608616],[-122.724492,45.608472],[-122.724337,45.608325],[-122.724148,45.608214],[-122.7234,45.608066],[-122.722855,45.607666],[-122.72257,45.607551],[-122.722048,45.607538],[-122.721626,45.607576],[-122.720753,45.607456],[-122.720776,45.607509],[-122.720917,45.607551],[-122.721686,45.60772],[-122.721945,45.60773],[-122.722318,45.607693],[-122.722433,45.60772],[-122.722745,45.607854],[-122.723025,45.608106],[-122.723258,45.608231],[-122.723912,45.608343],[-122.7241,45.608403],[-122.724253,45.608516],[-122.724288,45.608893],[-122.72423,45.609128],[-122.724145,45.609238],[-122.723735,45.609451],[-122.723664,45.609519],[-122.723521,45.609788],[-122.723357,45.609938],[-122.723128,45.610039],[-122.722619,45.610125],[-122.722468,45.610093],[-122.722361,45.610021],[-122.722283,45.609921],[-122.722269,45.609842],[-122.722307,45.609772],[-122.722709,45.609481],[-122.722851,45.609298],[-122.722888,45.609107],[-122.722863,45.609016],[-122.722781,45.608925],[-122.722626,45.608852],[-122.722062,45.608804],[-122.721829,45.608741],[-122.721634,45.608651],[-122.721476,45.608532],[-122.721192,45.608477],[-122.720986,45.608481],[-122.720759,45.608523],[-122.720601,45.608656],[-122.720356,45.608953],[-122.71998,45.609216],[-122.719406,45.609402],[-122.719221,45.609391],[-122.719039,45.609334],[-122.718675,45.60899],[-122.718502,45.608784],[-122.718277,45.608388],[-122.718075,45.608165],[-122.717661,45.608028],[-122.717402,45.607793],[-122.717134,45.607122],[-122.716991,45.606922],[-122.716744,45.606269],[-122.716661,45.606146],[-122.716381,45.605924],[-122.716194,45.605867],[-122.715841,45.605852],[-122.715709,45.605877],[-122.715552,45.605985],[-122.715322,45.606225],[-122.714913,45.606803],[-122.714204,45.607451],[-122.714037,45.607707],[-122.713504,45.608267],[-122.713476,45.608397],[-122.713747,45.608547],[-122.713898,45.608717],[-122.714073,45.609315],[-122.71406,45.609529],[-122.713999,45.609785],[-122.713773,45.610094],[-122.713609,45.610262],[-122.71351,45.61082],[-122.713554,45.611147],[-122.713763,45.611484],[-122.713968,45.612069],[-122.714135,45.612188],[-122.714225,45.6123],[-122.71433,45.61306],[-122.714509,45.613194],[-122.714823,45.613263],[-122.715221,45.613234],[-122.715555,45.613263],[-122.715857,45.613394],[-122.716049,45.613564],[-122.716318,45.613888],[-122.716432,45.614087],[-122.716533,45.614184],[-122.716744,45.614301],[-122.717287,45.614479],[-122.717442,45.614598],[-122.717726,45.615022],[-122.717962,45.615231],[-122.718502,45.615539],[-122.718949,45.615731],[-122.719863,45.616018],[-122.720812,45.616167],[-122.721954,45.616251],[-122.722353,45.616182],[-122.722786,45.615943],[-122.723343,45.615776],[-122.723522,45.615757],[-122.724818,45.61583],[-122.725173,45.615747],[-122.725642,45.615691],[-122.726903,45.615338],[-122.72755,45.615191],[-122.728819,45.615028],[-122.730237,45.614566],[-122.730497,45.614378],[-122.730683,45.614323],[-122.730805,45.614367],[-122.730852,45.614471],[-122.730851,45.614573],[-122.730734,45.614834],[-122.730681,45.615122],[-122.730708,45.615258],[-122.730865,45.615408],[-122.731091,45.61555],[-122.731506,45.615708],[-122.732125,45.615779],[-122.732467,45.615773],[-122.733235,45.615697],[-122.734008,45.615484],[-122.734586,45.615073],[-122.734922,45.614932],[-122.735017,45.614862],[-122.735015,45.614789],[-122.734955,45.614664],[-122.735008,45.614563],[-122.73531,45.614454],[-122.735588,45.614446],[-122.735746,45.614494],[-122.735888,45.61458],[-122.736067,45.614742],[-122.73641,45.614978],[-122.736655,45.6152],[-122.736784,45.615369],[-122.736858,45.615588],[-122.73697,45.615722],[-122.737153,45.615843],[-122.737412,45.615943],[-122.738202,45.615958],[-122.738647,45.616034],[-122.739044,45.616019],[-122.739604,45.615802],[-122.740027,45.615551],[-122.740415,45.615371],[-122.740657,45.615317],[-122.740847,45.615334],[-122.740938,45.61537],[-122.740981,45.615423],[-122.741029,45.615842],[-122.741077,45.615956],[-122.741337,45.616233],[-122.741447,45.616276],[-122.741731,45.616301],[-122.741991,45.616281],[-122.742311,45.616182],[-122.742482,45.616191],[-122.742849,45.616445],[-122.742974,45.616711],[-122.743072,45.616807],[-122.743521,45.616831],[-122.743685,45.616886],[-122.743924,45.617041],[-122.743935,45.61712],[-122.743895,45.617188],[-122.743434,45.617411],[-122.743347,45.617599],[-122.743221,45.61773],[-122.742914,45.61786],[-122.742112,45.617856],[-122.74154,45.617913],[-122.741159,45.617898],[-122.740252,45.617748],[-122.74,45.617776],[-122.739057,45.618084],[-122.738729,45.618233],[-122.738646,45.618356],[-122.738628,45.618488],[-122.738701,45.618715],[-122.73877,45.618827],[-122.738774,45.618905],[-122.738734,45.618981],[-122.738661,45.619029],[-122.738443,45.619091],[-122.738337,45.619069],[-122.73813,45.618931],[-122.737599,45.618778],[-122.737435,45.618557],[-122.737353,45.61833],[-122.737383,45.618106],[-122.737601,45.617872],[-122.737727,45.617763],[-122.738032,45.617599],[-122.738354,45.617314],[-122.738384,45.617182],[-122.738368,45.61706],[-122.738221,45.616956],[-122.737348,45.61673],[-122.736594,45.616593],[-122.73629,45.616568],[-122.735877,45.616582],[-122.735054,45.616462],[-122.733902,45.616743],[-122.733361,45.616746],[-122.732902,45.616794],[-122.731702,45.617129],[-122.730693,45.617287],[-122.729997,45.617513],[-122.729774,45.617654],[-122.729703,45.617785],[-122.729844,45.618341],[-122.730219,45.619073],[-122.730697,45.61965],[-122.731348,45.620216],[-122.731656,45.620369],[-122.732175,45.620479],[-122.732481,45.620599],[-122.73273,45.620785],[-122.733034,45.621269],[-122.733218,45.621497],[-122.734269,45.622003],[-122.734759,45.622095],[-122.735831,45.622476],[-122.736855,45.622791],[-122.737507,45.622892],[-122.738454,45.622843],[-122.739312,45.622713],[-122.73953,45.622624],[-122.739582,45.622585],[-122.739639,45.622257],[-122.739723,45.622121],[-122.739855,45.622009],[-122.740313,45.621756],[-122.741089,45.621533],[-122.741588,45.621288],[-122.741981,45.620969],[-122.742172,45.620897],[-122.742452,45.620861],[-122.744732,45.620945],[-122.745821,45.621092],[-122.746318,45.621066],[-122.74649,45.621003],[-122.746706,45.620976],[-122.746997,45.621044],[-122.747271,45.621194],[-122.747509,45.621249],[-122.747777,45.621244],[-122.748307,45.621081],[-122.748933,45.620667],[-122.749244,45.62061],[-122.749441,45.620729],[-122.749571,45.620862],[-122.749705,45.62112],[-122.74967,45.621206],[-122.749426,45.621372],[-122.749226,45.621576],[-122.749128,45.62183],[-122.749138,45.622094],[-122.749232,45.62229],[-122.749555,45.622437],[-122.749924,45.62249],[-122.75027,45.622485],[-122.750948,45.622629],[-122.751648,45.622711],[-122.751955,45.62282],[-122.752003,45.622951],[-122.751974,45.623038],[-122.75177,45.623227],[-122.751573,45.623324],[-122.75038,45.623365],[-122.749073,45.623878],[-122.748349,45.623984],[-122.747966,45.624191],[-122.746827,45.624372],[-122.746002,45.624449],[-122.744806,45.624503],[-122.744101,45.624593],[-122.743977,45.624763],[-122.744029,45.624983],[-122.744234,45.625238],[-122.744687,45.62551],[-122.745056,45.625504],[-122.745371,45.625437],[-122.745632,45.625245],[-122.746031,45.625035],[-122.747388,45.624873],[-122.74783,45.624939],[-122.748386,45.624867],[-122.748795,45.624852],[-122.748913,45.624957],[-122.748983,45.625093],[-122.748947,45.625205],[-122.74881,45.625324],[-122.748628,45.625358],[-122.747924,45.625387],[-122.747236,45.625491],[-122.746834,45.625629],[-122.746493,45.625796],[-122.74643,45.625858],[-122.746518,45.625895],[-122.746731,45.625853],[-122.746951,45.625746],[-122.747962,45.625554],[-122.748666,45.625565],[-122.749451,45.625726],[-122.749811,45.625931],[-122.750079,45.626244],[-122.750547,45.627025],[-122.750684,45.627178],[-122.750922,45.627553],[-122.751033,45.627795],[-122.751079,45.62784],[-122.751154,45.627831],[-122.75126,45.627753],[-122.751246,45.627662],[-122.751049,45.627388],[-122.750579,45.626379],[-122.750358,45.62601],[-122.749867,45.625639],[-122.749224,45.625362],[-122.749156,45.625271],[-122.749194,45.625164],[-122.749487,45.624989],[-122.750063,45.624531],[-122.750283,45.624158],[-122.750341,45.624117],[-122.750411,45.624116],[-122.750471,45.624155],[-122.750569,45.62431],[-122.750678,45.624944],[-122.750752,45.625194],[-122.751359,45.626036],[-122.751723,45.626753],[-122.752088,45.627226],[-122.752678,45.627588],[-122.753042,45.627741],[-122.753829,45.628062],[-122.754251,45.628182],[-122.75445,45.628193],[-122.754557,45.628161],[-122.754535,45.626995],[-122.753948,45.624953],[-122.753695,45.623935],[-122.753703,45.623537],[-122.753879,45.623127],[-122.754297,45.622893],[-122.754673,45.622801],[-122.755274,45.622728],[-122.755616,45.622722],[-122.755875,45.622759],[-122.756093,45.622854],[-122.756154,45.622948],[-122.756184,45.623099],[-122.756342,45.623256],[-122.757275,45.623853],[-122.757626,45.623893],[-122.75781,45.623874],[-122.757981,45.623795],[-122.758035,45.623515],[-122.757974,45.623021],[-122.757605,45.622454],[-122.757282,45.622224],[-122.75661,45.621993],[-122.754968,45.621858],[-122.754236,45.621728],[-122.753951,45.62164],[-122.753892,45.621556],[-122.753913,45.621466],[-122.754216,45.621323],[-122.754311,45.621077],[-122.754583,45.620958],[-122.754699,45.620849],[-122.754728,45.620772],[-122.754714,45.620689],[-122.754598,45.620529],[-122.75389,45.620089],[-122.75326,45.619848],[-122.753011,45.619793],[-122.752697,45.619843],[-122.752525,45.619947],[-122.752421,45.620071],[-122.752372,45.620232],[-122.753398,45.620743],[-122.753792,45.620889],[-122.753879,45.620986],[-122.7539,45.621082],[-122.753803,45.621246],[-122.753659,45.621284],[-122.75325,45.621218],[-122.752634,45.621054],[-122.752197,45.620904],[-122.751737,45.620694],[-122.75153,45.62066],[-122.751233,45.620786],[-122.751055,45.620949],[-122.750846,45.620975],[-122.75066,45.620915],[-122.750133,45.620591],[-122.750025,45.62045],[-122.749947,45.620173],[-122.749627,45.619899],[-122.749573,45.619745],[-122.749518,45.61926],[-122.749577,45.619173],[-122.749703,45.619156],[-122.74983,45.619085],[-122.749844,45.618864],[-122.74977,45.618621],[-122.749499,45.618352],[-122.749321,45.61831],[-122.748947,45.618352],[-122.748847,45.618309],[-122.748675,45.618109],[-122.748427,45.617926],[-122.748167,45.617586],[-122.747951,45.617378],[-122.747822,45.617066],[-122.747732,45.616984],[-122.747631,45.61691],[-122.747122,45.616794],[-122.747004,45.616709],[-122.746818,45.616667],[-122.745965,45.616592],[-122.745807,45.616626],[-122.745283,45.616583],[-122.745063,45.616616],[-122.744467,45.616496],[-122.744354,45.616433],[-122.743954,45.616312],[-122.743878,45.61627],[-122.743759,45.616103],[-122.743775,45.615997],[-122.743834,45.615902],[-122.743809,45.615811],[-122.743678,45.615791],[-122.743466,45.615843],[-122.743277,45.615636],[-122.743199,45.615477],[-122.743231,45.615224],[-122.743345,45.615158],[-122.743666,45.615178],[-122.743788,45.615232],[-122.743859,45.615213],[-122.744403,45.615278],[-122.744524,45.615356],[-122.745089,45.615534],[-122.745888,45.615708],[-122.746189,45.615739],[-122.747689,45.616221],[-122.747955,45.616279],[-122.748838,45.616571],[-122.749002,45.616654],[-122.749197,45.616668],[-122.749376,45.616792],[-122.749911,45.617051],[-122.750246,45.617317],[-122.751594,45.617717],[-122.752317,45.618064],[-122.753017,45.618477],[-122.753382,45.618741],[-122.753606,45.618801],[-122.754086,45.619098],[-122.754206,45.619289],[-122.754474,45.619474],[-122.754629,45.619518],[-122.754903,45.619693],[-122.755098,45.619664],[-122.755234,45.619756],[-122.755901,45.62006],[-122.756685,45.620505],[-122.757777,45.620941],[-122.75819,45.621072],[-122.758343,45.621216],[-122.758371,45.621303],[-122.758292,45.62164],[-122.758289,45.62183],[-122.758463,45.622449],[-122.758949,45.623069],[-122.759148,45.623409],[-122.759583,45.624523],[-122.760016,45.625324],[-122.760134,45.625848],[-122.760272,45.627264],[-122.760101,45.628293],[-122.759519,45.629199],[-122.759284,45.62983],[-122.75914,45.630106],[-122.759042,45.630423],[-122.758982,45.630827],[-122.758716,45.631852],[-122.758664,45.632619],[-122.758595,45.632694],[-122.75841,45.632704],[-122.758314,45.632752],[-122.758361,45.632849],[-122.758449,45.632878],[-122.758547,45.632876],[-122.758658,45.632809],[-122.758736,45.632821],[-122.758975,45.633093],[-122.759331,45.633798],[-122.759479,45.633916],[-122.759537,45.634084],[-122.759618,45.634627],[-122.759583,45.634723],[-122.759498,45.634757],[-122.743323,45.634722],[-122.743301,45.636143],[-122.743257,45.636223],[-122.74318,45.63625],[-122.743105,45.636221],[-122.741949,45.63525],[-122.739579,45.63366],[-122.738178,45.632677],[-122.737127,45.631733],[-122.735356,45.630608],[-122.733105,45.629105],[-122.732035,45.628044],[-122.730888,45.627436],[-122.730072,45.626665],[-122.729369,45.626175],[-122.72827,45.625817],[-122.725949,45.624488],[-122.723247,45.623205],[-122.71775,45.620091],[-122.7157,45.619107],[-122.714391,45.618609],[-122.71397,45.618402],[-122.7122,45.617714],[-122.711866,45.617612],[-122.711054,45.617444],[-122.710552,45.617254],[-122.709671,45.616709],[-122.709436,45.616639],[-122.709251,45.616504],[-122.708608,45.616297],[-122.708135,45.616015],[-122.70758,45.61575],[-122.706536,45.615344],[-122.705964,45.615175],[-122.705176,45.614838],[-122.704915,45.614682],[-122.703893,45.614291],[-122.703729,45.614182],[-122.703442,45.613917],[-122.702871,45.613636],[-122.702819,45.613534],[-122.702841,45.613467],[-122.702922,45.613389],[-122.703022,45.613358],[-122.703945,45.613694],[-122.70472,45.612397],[-122.704869,45.612204],[-122.718866,45.600718],[-122.718954,45.600691],[-122.720673,45.601184],[-122.720828,45.601198],[-122.721377,45.601347],[-122.723257,45.601463],[-122.72358,45.601457],[-122.724265,45.601528],[-122.724892,45.601538],[-122.72611,45.601742],[-122.726611,45.601902],[-122.7268,45.602012],[-122.727345,45.602225],[-122.727705,45.602414],[-122.728007,45.602644],[-122.728279,45.602765],[-122.728639,45.602982],[-122.72916,45.603217],[-122.729994,45.603512],[-122.731414,45.603728],[-122.734015,45.603929],[-122.734968,45.604109],[-122.736087,45.604377],[-122.73677,45.604705],[-122.73689,45.604672],[-122.73697,45.604695],[-122.737398,45.605034],[-122.737869,45.605472],[-122.738223,45.605738],[-122.738483,45.606007],[-122.738851,45.606274],[-122.739277,45.606675],[-122.739545,45.606824],[-122.739695,45.606826],[-122.739877,45.606993],[-122.741463,45.607343],[-122.741617,45.607335],[-122.741807,45.60739],[-122.742388,45.607401],[-122.742577,45.607451],[-122.742924,45.607437],[-122.74333,45.607528],[-122.743884,45.607591],[-122.745064,45.60805],[-122.745423,45.608161],[-122.746061,45.608428],[-122.746182,45.60857],[-122.747259,45.609198],[-122.747384,45.609354],[-122.747891,45.609566],[-122.748115,45.609729],[-122.749742,45.610611],[-122.749825,45.610716],[-122.749958,45.610798],[-122.75012,45.610779],[-122.750225,45.610663],[-122.750098,45.610467],[-122.749974,45.610355],[-122.749261,45.609969],[-122.74903,45.609802],[-122.748806,45.609742],[-122.748665,45.609627],[-122.748463,45.609565],[-122.747759,45.609142],[-122.747222,45.608874],[-122.747002,45.608714],[-122.746693,45.608567],[-122.74636,45.608345],[-122.746305,45.608243],[-122.746328,45.608156],[-122.746418,45.608108],[-122.746688,45.608141],[-122.747,45.608244],[-122.747578,45.608578],[-122.747721,45.608761],[-122.748018,45.608958],[-122.748826,45.609355],[-122.749085,45.609451],[-122.7495,45.609572],[-122.750093,45.609643],[-122.750429,45.609721],[-122.750662,45.609726],[-122.750987,45.609817],[-122.751122,45.609793],[-122.75128,45.609812],[-122.752291,45.610142],[-122.752519,45.610135],[-122.752666,45.610272],[-122.753871,45.610689],[-122.754065,45.610801],[-122.754255,45.610831],[-122.755122,45.611251],[-122.755277,45.611295],[-122.756423,45.611952],[-122.757921,45.612881],[-122.758019,45.612893],[-122.758289,45.613055],[-122.758334,45.613118],[-122.758851,45.61338],[-122.758962,45.61341],[-122.759176,45.613566],[-122.759352,45.613636],[-122.759421,45.613714],[-122.759811,45.613965],[-122.759977,45.614017],[-122.760122,45.614173],[-122.760455,45.614349],[-122.760562,45.614365],[-122.761065,45.614672],[-122.761284,45.614707],[-122.761409,45.614864],[-122.762067,45.615272],[-122.762204,45.615411],[-122.762228,45.615579],[-122.762201,45.615784],[-122.761718,45.616176],[-122.761581,45.61633],[-122.761412,45.616426]]],[[[-122.787282,45.623322],[-122.787298,45.623676],[-122.787204,45.623842],[-122.787111,45.624568],[-122.786825,45.625602],[-122.786811,45.626241],[-122.786734,45.626374],[-122.786637,45.626683],[-122.786495,45.62724],[-122.7865,45.627501],[-122.786272,45.628438],[-122.786201,45.628589],[-122.785924,45.629024],[-122.785792,45.629307],[-122.785635,45.629506],[-122.785544,45.629779],[-122.785362,45.630045],[-122.785213,45.630353],[-122.785054,45.630516],[-122.784868,45.630778],[-122.78484,45.631116],[-122.784646,45.631425],[-122.78415,45.631953],[-122.783746,45.632503],[-122.783401,45.633117],[-122.782822,45.633812],[-122.78249,45.634158],[-122.781859,45.634703],[-122.760221,45.634743],[-122.760053,45.634478],[-122.759941,45.634122],[-122.759807,45.633862],[-122.759795,45.633706],[-122.759722,45.633486],[-122.75924,45.632504],[-122.759152,45.632165],[-122.759169,45.631797],[-122.759242,45.631364],[-122.759485,45.630364],[-122.759608,45.630135],[-122.759722,45.629734],[-122.760004,45.629244],[-122.760136,45.629085],[-122.760558,45.628275],[-122.760743,45.627661],[-122.760669,45.625945],[-122.760535,45.625536],[-122.76049,45.625232],[-122.760423,45.625082],[-122.760427,45.624982],[-122.760268,45.624825],[-122.760191,45.624689],[-122.759565,45.623139],[-122.759079,45.622465],[-122.758957,45.622032],[-122.759011,45.621836],[-122.75919,45.62165],[-122.759403,45.621552],[-122.759624,45.621522],[-122.760194,45.621351],[-122.760247,45.621287],[-122.760332,45.621264],[-122.760543,45.621107],[-122.760731,45.620906],[-122.760849,45.620576],[-122.760877,45.620378],[-122.76096,45.620323],[-122.761144,45.620318],[-122.761174,45.620249],[-122.761178,45.620066],[-122.761025,45.619999],[-122.760928,45.619896],[-122.760815,45.619647],[-122.760631,45.619438],[-122.760561,45.61924],[-122.760447,45.619083],[-122.760344,45.618955],[-122.760065,45.618739],[-122.759871,45.618525],[-122.759797,45.618239],[-122.759807,45.61805],[-122.759949,45.617788],[-122.760122,45.617656],[-122.760253,45.617603],[-122.760847,45.617511],[-122.761091,45.617438],[-122.761312,45.617299],[-122.761545,45.617071],[-122.761938,45.616561],[-122.762241,45.616322],[-122.762534,45.616198],[-122.762788,45.616033],[-122.762837,45.615867],[-122.762882,45.615814],[-122.763167,45.615698],[-122.762968,45.61568],[-122.762908,45.615645],[-122.762876,45.615572],[-122.762887,45.615467],[-122.762841,45.615379],[-122.762613,45.615122],[-122.76215,45.614919],[-122.761655,45.614617],[-122.761536,45.614503],[-122.761389,45.614453],[-122.761281,45.614356],[-122.760875,45.614145],[-122.760798,45.614087],[-122.760766,45.614006],[-122.760416,45.613877],[-122.759282,45.613168],[-122.757689,45.612274],[-122.756471,45.611501],[-122.755507,45.610964],[-122.754963,45.610699],[-122.754728,45.610514],[-122.754476,45.610458],[-122.754317,45.610458],[-122.753925,45.610245],[-122.753898,45.610157],[-122.753941,45.610076],[-122.75589,45.608753],[-122.754828,45.606947],[-122.754854,45.606868],[-122.754924,45.606825],[-122.755395,45.606819],[-122.755499,45.60678],[-122.755701,45.606585],[-122.754971,45.606253],[-122.754915,45.606181],[-122.754926,45.606091],[-122.755008,45.606031],[-122.757258,45.605602],[-122.758314,45.605475],[-122.759089,45.605559],[-122.760058,45.605729],[-122.762392,45.606604],[-122.763056,45.606792],[-122.763975,45.606948],[-122.76504,45.606995],[-122.765749,45.606958],[-122.766232,45.606863],[-122.766338,45.606909],[-122.767087,45.606689],[-122.767712,45.606441],[-122.775067,45.606424],[-122.776384,45.606344],[-122.778472,45.605984],[-122.779063,45.605971],[-122.779269,45.60592],[-122.779487,45.605913],[-122.779553,45.606003],[-122.779509,45.606168],[-122.779538,45.606365],[-122.779815,45.606486],[-122.77984,45.606596],[-122.780048,45.606905],[-122.782297,45.610149],[-122.782428,45.610222],[-122.782471,45.61052],[-122.782396,45.610736],[-122.78221,45.610904],[-122.782144,45.610924],[-122.776086,45.610947],[-122.77585,45.610859],[-122.775653,45.610825],[-122.774839,45.610841],[-122.774721,45.610882],[-122.774599,45.611097],[-122.774693,45.611576],[-122.774774,45.611636],[-122.77501,45.611683],[-122.775605,45.611694],[-122.775905,45.611734],[-122.776122,45.61173],[-122.776257,45.611689],[-122.776427,45.611747],[-122.77656,45.611744],[-122.776828,45.611716],[-122.77698,45.611666],[-122.777404,45.611636],[-122.778219,45.611696],[-122.779611,45.611737],[-122.780351,45.611738],[-122.781084,45.611663],[-122.782838,45.611809],[-122.782977,45.611856],[-122.783145,45.612073],[-122.783724,45.612532],[-122.784081,45.612914],[-122.784173,45.613062],[-122.784221,45.6133],[-122.784474,45.613965],[-122.784706,45.614328],[-122.784945,45.614649],[-122.785112,45.614812],[-122.785386,45.614966],[-122.785577,45.615166],[-122.785822,45.615714],[-122.78607,45.616096],[-122.786118,45.616385],[-122.786313,45.61693],[-122.786307,45.617024],[-122.786244,45.617116],[-122.786259,45.61723],[-122.786399,45.617471],[-122.786652,45.617723],[-122.786757,45.617882],[-122.786779,45.618614],[-122.786998,45.619036],[-122.787072,45.6195],[-122.787103,45.620292],[-122.787176,45.62052],[-122.787166,45.620819],[-122.787127,45.62094],[-122.787166,45.621127],[-122.787147,45.621457],[-122.787194,45.621593],[-122.787201,45.621748],[-122.787086,45.62243],[-122.787106,45.622693],[-122.787294,45.622907],[-122.787344,45.623085],[-122.787282,45.623322]]]]}},{"type":"Feature","properties":{"from":"Lincoln High School","to":"Roosevelt High School"},"geometry":{"type":"MultiPolygon","coordinates":[[[[-122.919057,45.671282],[-122.919108,45.671801],[-122.919315,45.672978],[-122.918931,45.673719],[-122.918534,45.678342],[-122.928675,45.6784],[-122.928785,45.678474],[-122.928958,45.69279],[-122.928914,45.692884],[-122.928837,45.692911],[-122.921429,45.692869],[-122.90864,45.692658],[-122.888087,45.6925],[-122.888107,45.696443],[-122.888208,45.703326],[-122.888184,45.706763],[-122.888149,45.706847],[-122.888065,45.706882],[-122.882964,45.706936],[-122.87797,45.706818],[-122.873122,45.706845],[-122.872473,45.706873],[-122.872412,45.706791],[-122.871537,45.702273],[-122.871452,45.700424],[-122.871018,45.698428],[-122.870859,45.697273],[-122.870963,45.694882],[-122.871227,45.694248],[-122.871466,45.693092],[-122.871492,45.692496],[-122.869929,45.692469],[-122.869831,45.692415],[-122.869781,45.692214],[-122.869057,45.690785],[-122.868814,45.69004],[-122.868878,45.68985],[-122.869424,45.689601],[-122.869476,45.689543],[-122.869215,45.68953],[-122.868927,45.68957],[-122.868732,45.689511],[-122.868539,45.689269],[-122.86837,45.688982],[-122.86806,45.688103],[-122.867639,45.687503],[-122.86729,45.686872],[-122.867131,45.686285],[-122.867132,45.685745],[-122.867093,45.685462],[-122.866889,45.685014],[-122.866898,45.684666],[-122.867005,45.684106],[-122.866908,45.682534],[-122.866943,45.682116],[-122.867174,45.681385],[-122.867243,45.680998],[-122.867454,45.680524],[-122.867704,45.680181],[-122.867897,45.67977],[-122.867988,45.679423],[-122.868213,45.679149],[-122.868621,45.67821],[-122.868544,45.677654],[-122.868559,45.677417],[-122.868792,45.676721],[-122.868858,45.676401],[-122.868868,45.676028],[-122.868595,45.675271],[-122.867674,45.674177],[-122.867254,45.673809],[-122.865756,45.672783],[-122.865394,45.672598],[-122.864369,45.671975],[-122.863848,45.671756],[-122.863657,45.671596],[-122.862048,45.670497],[-122.860536,45.669372],[-122.859872,45.668805],[-122.859183,45.668029],[-122.858761,45.667481],[-122.858442,45.666976],[-122.857839,45.665861],[-122.857303,45.665042],[-122.857146,45.664626],[-122.85685,45.664395],[-122.856458,45.664009],[-122.856049,45.663668],[-122.855737,45.663334],[-122.854336,45.662264],[-122.853631,45.66178],[-122.852942,45.661235],[-122.852341,45.66082],[-122.851112,45.660062],[-122.849804,45.659162],[-122.849334,45.658924],[-122.849019,45.658714],[-122.8489,45.658565],[-122.848735,45.658438],[-122.848521,45.658367],[-122.848113,45.658134],[-122.847501,45.657549],[-122.846345,45.656693],[-122.84577,45.656099],[-122.8452,45.655218],[-122.844897,45.654999],[-122.844486,45.654763],[-122.84392,45.654336],[-122.842923,45.653442],[-122.842049,45.652937],[-122.841349,45.652655],[-122.83974,45.652167],[-122.839248,45.651898],[-122.838798,45.651761],[-122.838027,45.651628],[-122.837348,45.651436],[-122.831359,45.649423],[-122.829786,45.648727],[-122.828284,45.647627],[-122.828244,45.647546],[-122.828237,45.646965],[-122.828146,45.646784],[-122.827928,45.646714],[-122.827559,45.646746],[-122.82749,45.646722],[-122.826562,45.64568],[-122.825709,45.643992],[-122.825375,45.643627],[-122.825144,45.64327],[-122.824887,45.642711],[-122.824812,45.642297],[-122.824169,45.640848],[-122.824119,45.640413],[-122.822892,45.637505],[-122.822793,45.637513],[-122.822719,45.637445],[-122.82167,45.634907],[-122.821486,45.634267],[-122.821436,45.634206],[-122.821193,45.633521],[-122.821194,45.633399],[-122.821253,45.633288],[-122.821251,45.633231],[-122.821167,45.633076],[-122.821155,45.632985],[-122.821049,45.632837],[-122.820488,45.631721],[-122.820142,45.631149],[-122.820124,45.631047],[-122.81919,45.629656],[-122.818969,45.629476],[-122.818601,45.629013],[-122.818368,45.628817],[-122.817275,45.627585],[-122.81682,45.627117],[-122.81649,45.626735],[-122.816236,45.626352],[-122.816134,45.626248],[-122.815581,45.626044],[-122.815192,45.625801],[-122.814691,45.625371],[-122.81434,45.625021],[-122.81406,45.624956],[-122.81384,45.624866],[-122.813556,45.62462],[-122.813015,45.624283],[-122.812752,45.624123],[-122.812402,45.623981],[-122.812106,45.623798],[-122.811249,45.623134],[-122.811039,45.623085],[-122.810881,45.622941],[-122.810752,45.622901],[-122.810544,45.622643],[-122.810424,45.622564],[-122.809963,45.622367],[-122.809823,45.622261],[-122.809583,45.622174],[-122.809411,45.621944],[-122.809111,45.621809],[-122.809023,45.621508],[-122.808878,45.621368],[-122.808755,45.62133],[-122.808639,45.6214],[-122.808524,45.621381],[-122.808475,45.621316],[-122.808468,45.621214],[-122.808388,45.621117],[-122.807596,45.62062],[-122.807472,45.620457],[-122.807028,45.620154],[-122.806653,45.619957],[-122.806097,45.619764],[-122.805753,45.619531],[-122.805333,45.619341],[-122.805108,45.619298],[-122.804901,45.619196],[-122.804635,45.619128],[-122.804414,45.618991],[-122.80426,45.618852],[-122.804081,45.618791],[-122.804036,45.618712],[-122.804058,45.618624],[-122.804506,45.618184],[-122.804371,45.618049],[-122.804151,45.617978],[-122.804064,45.617987],[-122.803716,45.618261],[-122.803463,45.618615],[-122.803272,45.618717],[-122.803073,45.618761],[-122.802827,45.618748],[-122.802438,45.618645],[-122.802258,45.618642],[-122.802043,45.618554],[-122.801718,45.618606],[-122.80104,45.618543],[-122.800308,45.618558],[-122.798452,45.618485],[-122.798328,45.618454],[-122.796922,45.617811],[-122.79594,45.617324],[-122.795596,45.617123],[-122.795459,45.616998],[-122.795392,45.616863],[-122.794879,45.616551],[-122.794287,45.616092],[-122.793657,45.615514],[-122.793544,45.615339],[-122.793261,45.615039],[-122.793212,45.614932],[-122.792861,45.614507],[-122.792385,45.61368],[-122.792184,45.613519],[-122.79212,45.61331],[-122.792009,45.613244],[-122.791693,45.613225],[-122.791473,45.613154],[-122.791388,45.613107],[-122.791278,45.612956],[-122.791175,45.612696],[-122.791185,45.612444],[-122.791159,45.612323],[-122.790613,45.611457],[-122.790499,45.611218],[-122.790416,45.611132],[-122.790204,45.61101],[-122.789656,45.61037],[-122.789579,45.610175],[-122.789383,45.609889],[-122.789358,45.609798],[-122.789071,45.609417],[-122.788952,45.609193],[-122.788927,45.609029],[-122.78865,45.608641],[-122.788602,45.608479],[-122.788436,45.608151],[-122.788411,45.607729],[-122.788032,45.607219],[-122.787668,45.606195],[-122.787423,45.605685],[-122.787337,45.605652],[-122.78713,45.60545],[-122.786913,45.605167],[-122.786744,45.605096],[-122.786566,45.604856],[-122.786219,45.604507],[-122.786096,45.604352],[-122.785889,45.603981],[-122.785178,45.603124],[-122.784941,45.602733],[-122.784945,45.602539],[-122.78477,45.60205],[-122.784671,45.601635],[-122.783742,45.600566],[-122.783529,45.600402],[-122.783232,45.600232],[-122.782395,45.599411],[-122.782269,45.599324],[-122.781874,45.598857],[-122.78179,45.598649],[-122.7818,45.598251],[-122.78183,45.598121],[-122.781877,45.598057],[-122.781814,45.597822],[-122.781626,45.597742],[-122.781395,45.597552],[-122.781296,45.597407],[-122.781283,45.597284],[-122.781125,45.597135],[-122.780584,45.596792],[-122.780479,45.59663],[-122.780461,45.596515],[-122.779837,45.595804],[-122.778853,45.5948],[-122.777235,45.593309],[-122.776875,45.592908],[-122.776268,45.592383],[-122.776236,45.592322],[-122.776237,45.592186],[-122.776091,45.592023],[-122.775686,45.591694],[-122.775533,45.591627],[-122.775184,45.591353],[-122.774894,45.591241],[-122.774599,45.591012],[-122.773969,45.59045],[-122.773293,45.589785],[-122.77317,45.589708],[-122.772056,45.588717],[-122.771726,45.588476],[-122.771471,45.588143],[-122.770799,45.58761],[-122.77076,45.58747],[-122.770389,45.587134],[-122.770033,45.587191],[-122.769443,45.586779],[-122.769339,45.586645],[-122.768813,45.586162],[-122.76874,45.586016],[-122.76861,45.585882],[-122.768574,45.585623],[-122.768374,45.58552],[-122.768212,45.585596],[-122.768123,45.585588],[-122.767658,45.585245],[-122.767478,45.585207],[-122.767245,45.585095],[-122.766936,45.58486],[-122.766652,45.58448],[-122.766408,45.584289],[-122.766226,45.583913],[-122.766244,45.583718],[-122.766039,45.583507],[-122.765614,45.58318],[-122.764356,45.582383],[-122.764304,45.582253],[-122.764367,45.58201],[-122.76436,45.581822],[-122.764301,45.581714],[-122.763514,45.581264],[-122.7633,45.581298],[-122.762951,45.581412],[-122.762408,45.581249],[-122.762301,45.58126],[-122.761986,45.581073],[-122.76169,45.58098],[-122.761388,45.581031],[-122.76113,45.581022],[-122.760566,45.58079],[-122.760002,45.580489],[-122.759672,45.58038],[-122.759512,45.580365],[-122.759182,45.580247],[-122.758855,45.580083],[-122.758457,45.579964],[-122.758165,45.579817],[-122.757914,45.579745],[-122.757719,45.579618],[-122.757419,45.579493],[-122.757128,45.579409],[-122.756468,45.579332],[-122.756364,45.579279],[-122.756266,45.57909],[-122.756189,45.579061],[-122.755681,45.579047],[-122.751972,45.57746],[-122.750535,45.576876],[-122.749805,45.576538],[-122.749429,45.576259],[-122.749128,45.576087],[-122.749073,45.575992],[-122.749128,45.575747],[-122.749083,45.575651],[-122.748774,45.575428],[-122.748405,45.575065],[-122.747713,45.574479],[-122.747296,45.574265],[-122.746618,45.573699],[-122.745381,45.57298],[-122.744957,45.572843],[-122.744866,45.572652],[-122.744766,45.572534],[-122.74453,45.572369],[-122.744307,45.572266],[-122.743669,45.572123],[-122.742923,45.571701],[-122.742717,45.571662],[-122.74261,45.571538],[-122.742372,45.571362],[-122.742225,45.571103],[-122.741903,45.570912],[-122.741706,45.570846],[-122.741184,45.57052],[-122.740968,45.570267],[-122.740788,45.570118],[-122.740682,45.570072],[-122.740019,45.569496],[-122.739984,45.569436],[-122.739987,45.569324],[-122.740068,45.569186],[-122.740218,45.569084],[-122.740213,45.568862],[-122.740303,45.568706],[-122.740332,45.568416],[-122.740407,45.568303],[-122.740442,45.568164],[-122.740559,45.567992],[-122.740606,45.567819],[-122.740594,45.56752],[-122.740453,45.567264],[-122.740185,45.566997],[-122.739716,45.566625],[-122.739579,45.566475],[-122.739553,45.566405],[-122.739311,45.566259],[-122.739175,45.566238],[-122.739021,45.566152],[-122.738618,45.565717],[-122.73841,45.565604],[-122.738339,45.565516],[-122.73804,45.565296],[-122.737823,45.565069],[-122.737496,45.564931],[-122.737245,45.5649],[-122.736957,45.564819],[-122.735992,45.565281],[-122.735651,45.565369],[-122.73546,45.565374],[-122.735162,45.565351],[-122.73502,45.56531],[-122.734526,45.565081],[-122.734296,45.564943],[-122.733228,45.564157],[-122.732734,45.563719],[-122.732699,45.563584],[-122.732604,45.563543],[-122.732553,45.563449],[-122.731595,45.562693],[-122.731415,45.562587],[-122.731268,45.562453],[-122.730137,45.5619],[-122.729913,45.561727],[-122.72959,45.561373],[-122.729361,45.561267],[-122.729162,45.560947],[-122.729105,45.560887],[-122.72898,45.560849],[-122.728941,45.560755],[-122.729224,45.560282],[-122.729235,45.560131],[-122.729333,45.55999],[-122.72938,45.559792],[-122.729238,45.55989],[-122.729122,45.559869],[-122.728522,45.559407],[-122.728058,45.559],[-122.72772,45.55876],[-122.727399,45.558466],[-122.727122,45.558419],[-122.726848,45.558217],[-122.726561,45.558109],[-122.726453,45.558099],[-122.7264,45.558051],[-122.726383,45.557982],[-122.726049,45.557833],[-122.725896,45.557725],[-122.725622,45.55771],[-122.725236,45.557486],[-122.724877,45.557561],[-122.724699,45.557553],[-122.724551,45.557446],[-122.724326,45.557376],[-122.724198,45.557293],[-122.723863,45.557241],[-122.723738,45.557188],[-122.723511,45.557191],[-122.723355,45.557144],[-122.723313,45.557052],[-122.72335,45.554002],[-122.72519,45.551754],[-122.725302,45.551742],[-122.726608,45.552269],[-122.728217,45.550272],[-122.728035,45.5501],[-122.728025,45.550029],[-122.728065,45.549957],[-122.729069,45.549389],[-122.729197,45.549405],[-122.733561,45.546496],[-122.733672,45.546495],[-122.733736,45.546586],[-122.733595,45.547172],[-122.733642,45.547278],[-122.733786,45.547359],[-122.73395,45.547378],[-122.734988,45.547306],[-122.735205,45.547335],[-122.735326,45.547442],[-122.735322,45.547572],[-122.735225,45.547668],[-122.734974,45.547793],[-122.735161,45.547858],[-122.735485,45.547806],[-122.736169,45.547507],[-122.736372,45.547456],[-122.737055,45.547425],[-122.737162,45.547369],[-122.737191,45.547269],[-122.737153,45.547178],[-122.73718,45.547091],[-122.737355,45.547015],[-122.737448,45.546939],[-122.73748,45.546824],[-122.7376,45.546738],[-122.737885,45.546661],[-122.738064,45.546507],[-122.738197,45.54646],[-122.73867,45.546463],[-122.738798,45.546423],[-122.738804,45.546278],[-122.738606,45.546167],[-122.738563,45.54609],[-122.738568,45.54602],[-122.738632,45.545954],[-122.739249,45.54569],[-122.739288,45.545582],[-122.739209,45.545485],[-122.73911,45.545456],[-122.738743,45.545499],[-122.738627,45.545437],[-122.738517,45.545254],[-122.738384,45.545196],[-122.737878,45.54529],[-122.737761,45.545368],[-122.737673,45.545493],[-122.737551,45.545565],[-122.737332,45.545563],[-122.737179,45.545455],[-122.737152,45.545303],[-122.737323,45.544921],[-122.737483,45.544797],[-122.737692,45.544799],[-122.739237,45.544981],[-122.739439,45.544962],[-122.73973,45.544724],[-122.739874,45.544664],[-122.740165,45.54465],[-122.740251,45.54207],[-122.740288,45.541987],[-122.740384,45.541955],[-122.742298,45.543247],[-122.743642,45.543956],[-122.743851,45.544036],[-122.74417,45.544062],[-122.744331,45.54402],[-122.744575,45.543878],[-122.745023,45.543464],[-122.74523,45.543397],[-122.745364,45.543403],[-122.745574,45.543489],[-122.746126,45.543922],[-122.74655,45.544175],[-122.747241,45.544358],[-122.747282,45.54445],[-122.747229,45.548156],[-122.763578,45.548069],[-122.763655,45.548096],[-122.763698,45.54819],[-122.763597,45.55493],[-122.774331,45.562749],[-122.774354,45.562818],[-122.774443,45.569814],[-122.779616,45.569947],[-122.779496,45.557125],[-122.779554,45.557053],[-122.779645,45.557044],[-122.780988,45.557634],[-122.782164,45.55691],[-122.78237,45.556728],[-122.782792,45.556516],[-122.783259,45.555797],[-122.783346,45.555744],[-122.784705,45.555715],[-122.805272,45.555686],[-122.805342,45.555727],[-122.805369,45.555803],[-122.80536,45.562886],[-122.817805,45.563039],[-122.820325,45.562988],[-122.825745,45.563063],[-122.825807,45.56317],[-122.825771,45.565172],[-122.826025,45.577502],[-122.836341,45.577475],[-122.842725,45.577504],[-122.84657,45.577588],[-122.846631,45.577695],[-122.846502,45.584651],[-122.846561,45.591906],[-122.867191,45.591933],[-122.867255,45.592039],[-122.867212,45.606267],[-122.877534,45.60618],[-122.887574,45.606413],[-122.887626,45.606512],[-122.887578,45.620508],[-122.887556,45.620631],[-122.890911,45.620615],[-122.891214,45.620646],[-122.901356,45.620666],[-122.908453,45.620748],[-122.908512,45.620789],[-122.908536,45.620856],[-122.908859,45.62792],[-122.908828,45.633612],[-122.908848,45.635213],[-122.918441,45.635361],[-122.928593,45.635271],[-122.928686,45.635314],[-122.928714,45.63539],[-122.92885,45.649743],[-122.928838,45.656946],[-122.928941,45.671296],[-122.928892,45.671362],[-122.928825,45.671382],[-122.919057,45.671282]],[[-122.826003,45.628862],[-122.825944,45.628755],[-122.825662,45.628504],[-122.825363,45.628439],[-122.824971,45.628415],[-122.824598,45.628445],[-122.824348,45.628419],[-122.823842,45.628247],[-122.823453,45.628372],[-122.822895,45.628725],[-122.822775,45.628878],[-122.822787,45.629082],[-122.823016,45.629708],[-122.823071,45.629743],[-122.823231,45.629757],[-122.824176,45.629319],[-122.824575,45.629266],[-122.825406,45.629015],[-122.825907,45.628942],[-122.825982,45.628921],[-122.826003,45.628862]],[[-122.825951,45.630782],[-122.825918,45.630674],[-122.825747,45.630512],[-122.825149,45.630254],[-122.824609,45.63014],[-122.824532,45.63018],[-122.824507,45.630301],[-122.824209,45.630817],[-122.823913,45.631208],[-122.823535,45.631851],[-122.823525,45.632096],[-122.823656,45.632461],[-122.823856,45.63266],[-122.824095,45.63267],[-122.824308,45.632644],[-122.824955,45.632457],[-122.825555,45.632362],[-122.825711,45.632282],[-122.825757,45.632187],[-122.825699,45.632115],[-122.825364,45.632158],[-122.824905,45.632014],[-122.824714,45.631911],[-122.824512,45.631742],[-122.824451,45.631524],[-122.824559,45.631281],[-122.824799,45.631127],[-122.825071,45.631074],[-122.825484,45.630912],[-122.825825,45.630863],[-122.825951,45.630782]],[[-122.827901,45.63217],[-122.827843,45.632082],[-122.827767,45.632084],[-122.827349,45.63221],[-122.827222,45.632288],[-122.827203,45.6324],[-122.827468,45.632585],[-122.827545,45.632743],[-122.827624,45.63274],[-122.827706,45.632441],[-122.827834,45.632324],[-122.827901,45.63217]],[[-122.833758,45.632945],[-122.833702,45.632875],[-122.833382,45.632846],[-122.832806,45.63257],[-122.832371,45.632469],[-122.831162,45.631786],[-122.83079,45.63178],[-122.830345,45.63185],[-122.830068,45.632064],[-122.829981,45.632325],[-122.830037,45.632791],[-122.830002,45.632898],[-122.829803,45.633003],[-122.829657,45.633006],[-122.82952,45.632957],[-122.829396,45.633073],[-122.829349,45.633295],[-122.829277,45.633393],[-122.828927,45.633573],[-122.828581,45.633938],[-122.828516,45.634145],[-122.828535,45.634423],[-122.828724,45.634473],[-122.829225,45.634438],[-122.829615,45.634332],[-122.8298,45.634232],[-122.830003,45.634191],[-122.830621,45.634317],[-122.830961,45.634288],[-122.831809,45.633945],[-122.832317,45.633926],[-122.832814,45.633835],[-122.833225,45.633654],[-122.833562,45.63324],[-122.833742,45.633079],[-122.833758,45.632945]],[[-122.831517,45.641509],[-122.831507,45.641364],[-122.831369,45.641294],[-122.829532,45.641168],[-122.829355,45.641286],[-122.82922,45.641644],[-122.829286,45.641792],[-122.829503,45.641895],[-122.829878,45.641994],[-122.830892,45.642054],[-122.831045,45.641975],[-122.831319,45.641706],[-122.83147,45.641607],[-122.831517,45.641509]],[[-122.835989,45.634156],[-122.835934,45.633738],[-122.835941,45.633453],[-122.835906,45.633358],[-122.83585,45.633288],[-122.835633,45.633221],[-122.835312,45.633214],[-122.834979,45.633336],[-122.834655,45.633605],[-122.834482,45.633959],[-122.83402,45.63441],[-122.833955,45.634617],[-122.834041,45.634707],[-122.834304,45.634736],[-122.835414,45.634643],[-122.835747,45.634522],[-122.835874,45.634425],[-122.835972,45.63429],[-122.835989,45.634156]]],[[[-122.8319,45.63261],[-122.831938,45.63275],[-122.831825,45.632893],[-122.831635,45.632961],[-122.831354,45.632971],[-122.831176,45.632857],[-122.830984,45.632644],[-122.83096,45.632568],[-122.831062,45.632289],[-122.831276,45.632201],[-122.83141,45.632247],[-122.8319,45.63261]]]]}},{"type":"Feature","properties":{"from":"Lincoln High School","to":"Wells-Barnett High School"},"geometry":{"type":"Polygon","coordinates":[[[-122.742332,45.495871],[-122.741832,45.496353],[-122.741182,45.496858],[-122.740345,45.497285],[-122.740215,45.49738],[-122.740079,45.497489],[-122.739842,45.497829],[-122.739843,45.498141],[-122.740099,45.498694],[-122.740135,45.499004],[-122.740232,45.499277],[-122.740593,45.499674],[-122.740716,45.499863],[-122.74123,45.500957],[-122.741233,45.501221],[-122.741187,45.501392],[-122.741093,45.501572],[-122.740447,45.502299],[-122.740202,45.502496],[-122.73953,45.502737],[-122.738396,45.503036],[-122.738303,45.503023],[-122.738248,45.502948],[-122.738258,45.502867],[-122.738582,45.502487],[-122.738276,45.502057],[-122.738266,45.501962],[-122.738416,45.501696],[-122.738721,45.501544],[-122.738721,45.493116],[-122.738748,45.49304],[-122.738841,45.492996],[-122.740467,45.492992],[-122.743464,45.493495],[-122.743507,45.493614],[-122.74328,45.494432],[-122.742946,45.495115],[-122.742751,45.4954],[-122.742332,45.495871]]]}}]}