{"type":"FeatureCollection","features":[{"type":"Feature","properties":{"name":"Sitton K-5 Neighborhood","kind":"k5"},"geometry":{"type":"Point","coordinates":[-122.758136,45.599975]}},{"type":"Feature","properties":{"name":"James John School Closed","kind":"closed"},"geometry":{"type":"Point","coordinates":[-122.751687,45.590425]}},{"type":"Feature","properties":{"name":"Rosa Parks K-5 Neighborhood","kind":"k5"},"geometry":{"type":"Point","coordinates":[-122.712922,45.587799]}},{"type":"Feature","properties":{"name":"C\u00e9sar Ch\u00e1vez K-5 Spanish Immersion","kind":"k5"},"geometry":{"type":"Point","coordinates":[-122.719196,45.584465]}},{"type":"Feature","properties":{"name":"Peninsula School Closed","kind":"closed"},"geometry":{"type":"Point","coordinates":[-122.700016,45.582198]}},{"type":"Feature","properties":{"name":"Astor K-8 Neighborhood","kind":"k8"},"geometry":{"type":"Point","coordinates":[-122.729451,45.578812]}},{"type":"Feature","properties":{"name":"Woodlawn K-5 Neighborhood","kind":"k5"},"geometry":{"type":"Point","coordinates":[-122.652931,45.575088]}},{"type":"Feature","properties":{"name":"Chief Joseph K-5 Neighborhood","kind":"k5"},"geometry":{"type":"Point","coordinates":[-122.691463,45.572936]}},{"type":"Feature","properties":{"name":"Faubion K-5 Neighborhood","kind":"k5"},"geometry":{"type":"Point","coordinates":[-122.634516,45.570875]}},{"type":"Feature","properties":{"name":"Beach School Closed","kind":"closed"},"geometry":{"type":"Point","coordinates":[-122.685219,45.558129]}},{"type":"Feature","properties":{"name":"Vernon K-5 Neighborhood","kind":"k5"},"geometry":{"type":"Point","coordinates":[-122.643456,45.562432]}},{"type":"Feature","properties":{"name":"MLK Jr K-5 Neighborhood","kind":"k5"},"geometry":{"type":"Point","coordinates":[-122.658957,45.558213]}},{"type":"Feature","properties":{"name":"Rigler K-5 Spanish Immersion","kind":"k5"},"geometry":{"type":"Point","coordinates":[-122.607589,45.556047]}},{"type":"Feature","properties":{"name":"Scott K-5 Neighborhood","kind":"k5"},"geometry":{"type":"Point","coordinates":[-122.594007,45.555157]}},{"type":"Feature","properties":{"name":"Sabin School Closed","kind":"closed"},"geometry":{"type":"Point","coordinates":[-122.647576,45.552213]}},{"type":"Feature","properties":{"name":"Boise-Eliot/Humboldt K-5 Mandarin Immersion","kind":"k5"},"geometry":{"type":"Point","coordinates":[-122.672724,45.547763]}},{"type":"Feature","properties":{"name":"Alameda K-5 Neighborhood","kind":"k5"},"geometry":{"type":"Point","coordinates":[-122.636873,45.547687]}},{"type":"Feature","properties":{"name":"Forest Park K-5 Neighborhood","kind":"k5"},"geometry":{"type":"Point","coordinates":[-122.777615,45.542611]}},{"type":"Feature","properties":{"name":"Irvington School Closed","kind":"closed"},"geometry":{"type":"Point","coordinates":[-122.651821,45.540183]}},{"type":"Feature","properties":{"name":"Rose City Park K-5 Vietnamese Immersion","kind":"k5"},"geometry":{"type":"Point","coordinates":[-122.603949,45.53934]}},{"type":"Feature","properties":{"name":"Sunrise K-5 Neighborhood","kind":"k5"},"geometry":{"type":"Point","coordinates":[-122.567397,45.538124]}},{"type":"Feature","properties":{"name":"Beverly Cleary K-5 Neighborhood","kind":"k5"},"geometry":{"type":"Point","coordinates":[-122.631035,45.536886]}},{"type":"Feature","properties":{"name":"Chapman K-5 Neighborhood","kind":"k5"},"geometry":{"type":"Point","coordinates":[-122.70544,45.533234]}},{"type":"Feature","properties":{"name":"Laurelhurst K-5 Neighborhood","kind":"k5"},"geometry":{"type":"Point","coordinates":[-122.619856,45.52916]}},{"type":"Feature","properties":{"name":"MLC & Odyssey K-8 Focus/Option","kind":"focus"},"geometry":{"type":"Point","coordinates":[-122.693209,45.526516]}},{"type":"Feature","properties":{"name":"Vestal K-5 Neighborhood","kind":"k5"},"geometry":{"type":"Point","coordinates":[-122.579491,45.52458]}},{"type":"Feature","properties":{"name":"Buckman School Closed","kind":"closed"},"geometry":{"type":"Point","coordinates":[-122.648764,45.520403]}},{"type":"Feature","properties":{"name":"Glencoe K-5 Neighborhood","kind":"k5"},"geometry":{"type":"Point","coordinates":[-122.610823,45.517211]}},{"type":"Feature","properties":{"name":"Clark K-5 Neighborhood","kind":"k5"},"geometry":{"type":"Point","coordinates":[-122.56975,45.513714]}},{"type":"Feature","properties":{"name":"Odyssey Building Closed","kind":"closed"},"geometry":{"type":"Point","coordinates":[-122.737438,45.510614]}},{"type":"Feature","properties":{"name":"Sunnyside Environmental K-5 Neighborhood","kind":"k5"},"geometry":{"type":"Point","coordinates":[-122.628792,45.51472]}},{"type":"Feature","properties":{"name":"Ainsworth K-5 Spanish Immersion","kind":"k5"},"geometry":{"type":"Point","coordinates":[-122.699467,45.509843]}},{"type":"Feature","properties":{"name":"Bridger Creative Science K-5 Neighborhood","kind":"k5"},"geometry":{"type":"Point","coordinates":[-122.582097,45.510621]}},{"type":"Feature","properties":{"name":"Abernethy K-5 Neighborhood","kind":"k5"},"geometry":{"type":"Point","coordinates":[-122.651278,45.505921]}},{"type":"Feature","properties":{"name":"Richmond K-5 Japanese Immersion","kind":"k5"},"geometry":{"type":"Point","coordinates":[-122.604573,45.505056]}},{"type":"Feature","properties":{"name":"Atkinson K-5 Neighborhood","kind":"k5"},"geometry":{"type":"Point","coordinates":[-122.604573,45.505056]}},{"type":"Feature","properties":{"name":"Creston School Closed","kind":"closed"},"geometry":{"type":"Point","coordinates":[-122.613759,45.495464]}},{"type":"Feature","properties":{"name":"Winterhaven K-8 Focus/Option","kind":"focus"},"geometry":{"type":"Point","coordinates":[-122.650906,45.495099]}},{"type":"Feature","properties":{"name":"Bridlemile K-5 Neighborhood","kind":"k5"},"geometry":{"type":"Point","coordinates":[-122.724317,45.491693]}},{"type":"Feature","properties":{"name":"Grout K-5 Neighborhood","kind":"k5"},"geometry":{"type":"Point","coordinates":[-122.633145,45.491045]}},{"type":"Feature","properties":{"name":"Marysville School Closed","kind":"closed"},"geometry":{"type":"Point","coordinates":[-122.583411,45.48682]}},{"type":"Feature","properties":{"name":"Lent K-5 Spanish Immersion","kind":"k5"},"geometry":{"type":"Point","coordinates":[-122.564178,45.485332]}},{"type":"Feature","properties":{"name":"Arleta K-5 Neighborhood","kind":"k5"},"geometry":{"type":"Point","coordinates":[-122.596288,45.48608]}},{"type":"Feature","properties":{"name":"Woodstock K-5 Mandarin Immersion","kind":"k5"},"geometry":{"type":"Point","coordinates":[-122.611819,45.48209]}},{"type":"Feature","properties":{"name":"Hayhurst K-5 Neighborhood","kind":"k5"},"geometry":{"type":"Point","coordinates":[-122.729333,45.480349]}},{"type":"Feature","properties":{"name":"ACCESS 2-8 Focus/Option","kind":"focus"},"geometry":{"type":"Point","coordinates":[-122.675419,45.478344]}},{"type":"Feature","properties":{"name":"Llewellyn K-5 Neighborhood","kind":"k5"},"geometry":{"type":"Point","coordinates":[-122.652256,45.477153]}},{"type":"Feature","properties":{"name":"Woodmere School Closed","kind":"closed"},"geometry":{"type":"Point","coordinates":[-122.582377,45.475154]}},{"type":"Feature","properties":{"name":"Rieke K-5 Neighborhood","kind":"k5"},"geometry":{"type":"Point","coordinates":[-122.694975,45.476552]}},{"type":"Feature","properties":{"name":"Lewis K-5 Neighborhood","kind":"k5"},"geometry":{"type":"Point","coordinates":[-122.617287,45.473574]}},{"type":"Feature","properties":{"name":"Kelly K-5 Russian Immersion","kind":"k5"},"geometry":{"type":"Point","coordinates":[-122.570762,45.472518]}},{"type":"Feature","properties":{"name":"Maplewood School Closed","kind":"closed"},"geometry":{"type":"Point","coordinates":[-122.730192,45.470882]}},{"type":"Feature","properties":{"name":"Duniway K-5 Neighborhood","kind":"k5"},"geometry":{"type":"Point","coordinates":[-122.628779,45.468596]}},{"type":"Feature","properties":{"name":"Whitman K-5 Neighborhood","kind":"k5"},"geometry":{"type":"Point","coordinates":[-122.588037,45.468411]}},{"type":"Feature","properties":{"name":"Capitol Hill K-5 Neighborhood","kind":"k5"},"geometry":{"type":"Point","coordinates":[-122.695723,45.463927]}},{"type":"Feature","properties":{"name":"Markham K-5 Neighborhood","kind":"k5"},"geometry":{"type":"Point","coordinates":[-122.725918,45.449331]}},{"type":"Feature","properties":{"name":"Stephenson K-5 Neighborhood","kind":"k5"},"geometry":{"type":"Point","coordinates":[-122.70433,45.440704]}},{"type":"Feature","properties":{"name":"Skyline K-8 Neighborhood","kind":"k8"},"geometry":{"type":"Point","coordinates":[-122.855866,45.607651]}}]}