{"type":"FeatureCollection","features":[{"type":"Feature","properties":{"name":"George Middle School Spanish Immersion","kind":"middle"},"geometry":{"type":"Point","coordinates":[-122.736155,45.596054]}},{"type":"Feature","properties":{"name":"C\u00e9sar Ch\u00e1vez K-8 Spanish Immersion","kind":"k8"},"geometry":{"type":"Point","coordinates":[-122.719197,45.584465]}},{"type":"Feature","properties":{"name":"Astor K-8 Neighborhood","kind":"k8"},"geometry":{"type":"Point","coordinates":[-122.729452,45.578812]}},{"type":"Feature","properties":{"name":"Faubion K-8 Neighborhood","kind":"k8"},"geometry":{"type":"Point","coordinates":[-122.634516,45.570874]}},{"type":"Feature","properties":{"name":"Ockley Green Middle School Spanish Immersion","kind":"middle"},"geometry":{"type":"Point","coordinates":[-122.680411,45.567027]}},{"type":"Feature","properties":{"name":"Vernon K-8 Neighborhood","kind":"k8"},"geometry":{"type":"Point","coordinates":[-122.643456,45.562432]}},{"type":"Feature","properties":{"name":"Beaumont Middle School Spanish Immersion","kind":"middle"},"geometry":{"type":"Point","coordinates":[-122.620928,45.548721]}},{"type":"Feature","properties":{"name":"Roseway Heights Middle School Spanish Immersion, Vietnamese Immersion","kind":"middle"},"geometry":{"type":"Point","coordinates":[-122.587482,45.544152]}},{"type":"Feature","properties":{"name":"Harriet Tubman Middle School Mandarin Immersion","kind":"middle"},"geometry":{"type":"Point","coordinates":[-122.669042,45.538996]}},{"type":"Feature","properties":{"name":"Beverly Cleary K-8 Neighborhood","kind":"k8"},"geometry":{"type":"Point","coordinates":[-122.631035,45.536887]}},{"type":"Feature","properties":{"name":"Laurelhurst K-8 Neighborhood","kind":"k8"},"geometry":{"type":"Point","coordinates":[-122.619856,45.52916]}},{"type":"Feature","properties":{"name":"Metro. Learning Center K-12 Focus/Option","kind":"focus"},"geometry":{"type":"Point","coordinates":[-122.693209,45.526516]}},{"type":"Feature","properties":{"name":"da Vinci Middle School Focus/Option","kind":"focus"},"geometry":{"type":"Point","coordinates":[-122.639927,45.524532]}},{"type":"Feature","properties":{"name":"Mt Tabor Middle School Japanese Immersion","kind":"middle"},"geometry":{"type":"Point","coordinates":[-122.603787,45.521058]}},{"type":"Feature","properties":{"name":"Sunnyside Environmental K-8 Neighborhood","kind":"k8"},"geometry":{"type":"Point","coordinates":[-122.628793,45.514721]}},{"type":"Feature","properties":{"name":"Odyssey K-8 Focus/Option","kind":"focus"},"geometry":{"type":"Point","coordinates":[-122.737438,45.51057]}},{"type":"Feature","properties":{"name":"Hosford Middle School Neighborhood","kind":"middle"},"geometry":{"type":"Point","coordinates":[-122.637113,45.506291]}},{"type":"Feature","properties":{"name":"Bridger Creative Science K-8 Neighborhood","kind":"k8"},"geometry":{"type":"Point","coordinates":[-122.582098,45.510621]}},{"type":"Feature","properties":{"name":"West Sylvan Middle School Spanish Immersion","kind":"middle"},"geometry":{"type":"Point","coordinates":[-122.760886,45.504704]}},{"type":"Feature","properties":{"name":"Harrison Park Middle School Mandarin Immersion","kind":"middle"},"geometry":{"type":"Point","coordinates":[-122.574712,45.506758]}},{"type":"Feature","properties":{"name":"Kellogg Middle School Spanish Immersion","kind":"middle"},"geometry":{"type":"Point","coordinates":[-122.591734,45.498783]}},{"type":"Feature","properties":{"name":"Winterhaven K-8 Focus/Option","kind":"focus"},"geometry":{"type":"Point","coordinates":[-122.650906,45.4951]}},{"type":"Feature","properties":{"name":"Gray Middle School Neighborhood","kind":"middle"},"geometry":{"type":"Point","coordinates":[-122.701507,45.482137]}},{"type":"Feature","properties":{"name":"ACCESS 2-8 Focus/Option","kind":"focus"},"geometry":{"type":"Point","coordinates":[-122.67542,45.478345]}},{"type":"Feature","properties":{"name":"Brentwood Middle School Russian Immersion","kind":"middle"},"geometry":{"type":"Point","coordinates":[-122.601575,45.471369]}},{"type":"Feature","properties":{"name":"Sellwood Middle School Neighborhood","kind":"middle"},"geometry":{"type":"Point","coordinates":[-122.650257,45.462766]}},{"type":"Feature","properties":{"name":"Jackson Middle School Neighborhood","kind":"middle"},"geometry":{"type":"Point","coordinates":[-122.714292,45.448291]}},{"type":"Feature","properties":{"name":"Skyline K-8 Neighborhood","kind":"k8"},"geometry":{"type":"Point","coordinates":[-122.855866,45.607651]}}]}