{"type":"FeatureCollection","features":[{"type":"Feature","properties":{"name":"Astor K-8","school_label":"Astor K-8 Neighborhood","cluster":"Roosevelt","clusters":[{"name":"Roosevelt","share":1.0}],"level":"K-8","area_sqmi":1.42},"geometry":{"type":"MultiPolygon","coordinates":[[[[-122.725597,45.586319],[-122.725804,45.586048],[-122.725946,45.585489],[-122.722083,45.584063],[-122.721281,45.583819],[-122.715496,45.583893],[-122.713419,45.583826],[-122.708174,45.583813],[-122.708068,45.583281],[-122.708093,45.575301],[-122.71151,45.575494],[-122.712717,45.57554],[-122.714161,45.575542],[-122.718034,45.574873],[-122.719173,45.574554],[-122.719956,45.57428],[-122.720886,45.573881],[-122.721194,45.573692],[-122.721408,45.573604],[-122.721748,45.573109],[-122.72411,45.570891],[-122.731033,45.566657],[-122.731615,45.566836],[-122.735236,45.569959],[-122.738474,45.572396],[-122.74535,45.576888],[-122.746192,45.577344],[-122.735557,45.586087],[-122.732227,45.585299],[-122.73105,45.584895],[-122.72963,45.584358],[-122.729444,45.584331],[-122.729219,45.58442],[-122.728225,45.585727],[-122.727765,45.586216],[-122.726886,45.586225],[-122.726031,45.586311],[-122.725597,45.586319]]]]}},{"type":"Feature","properties":{"name":"Beaumont Middle School","school_label":"Beaumont Middle School Spanish Immersion","cluster":"Grant","clusters":[{"name":"Grant","share":1.0}],"level":"6-8","area_sqmi":1.11},"geometry":{"type":"MultiPolygon","coordinates":[[[[-122.630837,45.55517],[-122.630838,45.553654],[-122.630747,45.553533],[-122.630582,45.553468],[-122.625361,45.553458],[-122.621238,45.553489],[-122.620305,45.553498],[-122.620079,45.553548],[-122.615086,45.553526],[-122.615104,45.551849],[-122.615058,45.551774],[-122.614914,45.551685],[-122.61233,45.551656],[-122.612077,45.551569],[-122.609809,45.551565],[-122.609814,45.55075],[-122.609788,45.550651],[-122.609655,45.550547],[-122.609272,45.550463],[-122.60894,45.550278],[-122.608772,45.550137],[-122.608755,45.549962],[-122.608672,45.549757],[-122.608762,45.549535],[-122.608855,45.549396],[-122.609637,45.548779],[-122.609762,45.54864],[-122.609822,45.548494],[-122.609828,45.548349],[-122.609713,45.548138],[-122.609602,45.548079],[-122.609471,45.548058],[-122.604717,45.548039],[-122.604783,45.542375],[-122.607213,45.541416],[-122.607291,45.541483],[-122.607445,45.541541],[-122.6103,45.541565],[-122.610443,45.541646],[-122.610533,45.542033],[-122.610655,45.54213],[-122.610776,45.542158],[-122.61096,45.54214],[-122.611331,45.541889],[-122.611588,45.5418],[-122.611794,45.541797],[-122.612177,45.541896],[-122.612864,45.541983],[-122.613438,45.541964],[-122.613663,45.541861],[-122.613846,45.541835],[-122.615159,45.541826],[-122.615872,45.541752],[-122.617592,45.542231],[-122.61809,45.542511],[-122.618347,45.542705],[-122.618451,45.542893],[-122.618468,45.543068],[-122.618515,45.543189],[-122.618695,45.543361],[-122.618905,45.543456],[-122.621392,45.544157],[-122.621558,45.544253],[-122.621607,45.544405],[-122.621675,45.544487],[-122.621785,45.544546],[-122.621844,45.544667],[-122.622043,45.544793],[-122.6226,45.544897],[-122.62286,45.544885],[-122.623226,45.544794],[-122.623432,45.54479],[-122.623949,45.544979],[-122.62408,45.544999],[-122.624438,45.545016],[-122.624676,45.544981],[-122.625003,45.545653],[-122.625118,45.546146],[-122.625164,45.546222],[-122.625308,45.54631],[-122.625558,45.546313],[-122.625933,45.546169],[-122.626106,45.546158],[-122.626314,45.546208],[-122.626668,45.546407],[-122.627019,45.546507],[-122.62827,45.546614],[-122.628573,45.546577],[-122.62869,45.546514],[-122.628816,45.54639],[-122.628844,45.546268],[-122.630613,45.546258],[-122.630826,45.546162],[-122.630876,45.546032],[-122.630875,45.542274],[-122.640686,45.542305],[-122.640634,45.545172],[-122.640655,45.546711],[-122.640632,45.549455],[-122.6406,45.550378],[-122.640458,45.550365],[-122.640329,45.550398],[-122.639982,45.550709],[-122.639923,45.550901],[-122.639786,45.55101],[-122.638483,45.552856],[-122.633567,45.552856],[-122.633418,45.552943],[-122.633367,45.553028],[-122.633344,45.555185],[-122.630837,45.55517]]]]}},{"type":"Feature","properties":{"name":"Beverly Cleary K-8","school_label":"Beverly Cleary K-8 Neighborhood","cluster":"Grant","clusters":[{"name":"Grant","share":1.0}],"level":"K-8","area_sqmi":0.74},"geometry":{"type":"MultiPolygon","coordinates":[[[[-122.6282,45.546142],[-122.62734,45.546082],[-122.626592,45.545791],[-122.626351,45.545727],[-122.626057,45.545702],[-122.625744,45.545731],[-122.625174,45.544628],[-122.624205,45.544555],[-122.62382,45.544402],[-122.623612,45.544353],[-122.622617,45.54444],[-122.622486,45.544427],[-122.622421,45.544405],[-122.62235,45.544239],[-122.622194,45.544143],[-122.622182,45.544105],[-122.621539,45.543713],[-122.619172,45.54304],[-122.619128,45.543018],[-122.618858,45.542421],[-122.618257,45.542005],[-122.617488,45.541714],[-122.615867,45.541287],[-122.615164,45.541353],[-122.615203,45.534013],[-122.622138,45.534068],[-122.623688,45.53404],[-122.624933,45.53426],[-122.630988,45.531808],[-122.63422,45.530536],[-122.634538,45.530942],[-122.635328,45.530897],[-122.635844,45.530773],[-122.636168,45.530729],[-122.636706,45.530917],[-122.636636,45.533548],[-122.636377,45.533583],[-122.636281,45.533653],[-122.636232,45.533784],[-122.636275,45.535025],[-122.636264,45.541831],[-122.630675,45.541821],[-122.630374,45.541887],[-122.630289,45.54195],[-122.630223,45.542553],[-122.630221,45.545617],[-122.629621,45.545811],[-122.628752,45.545812],[-122.6282,45.546142]]]]}},{"type":"Feature","properties":{"name":"Brentwood Middle School","school_label":"Brentwood Middle School Russian Immersion","cluster":"Franklin","clusters":[{"name":"Franklin","share":0.54},{"name":"Cleveland","share":0.46}],"level":"6-8","area_sqmi":3.86},"geometry":{"type":"MultiPolygon","coordinates":[[[[-122.556128,45.470239],[-122.556366,45.470235],[-122.556494,45.470194],[-122.55663,45.470047],[-122.556625,45.469559],[-122.5566,45.469476],[-122.556533,45.469401],[-122.556423,45.469349],[-122.55614,45.469332],[-122.556136,45.469202],[-122.556461,45.469196],[-122.556632,45.469132],[-122.556705,45.469055],[-122.556753,45.468863],[-122.556891,45.468777],[-122.556932,45.468692],[-122.556891,45.468122],[-122.556769,45.468025],[-122.556648,45.467989],[-122.556128,45.467998],[-122.556129,45.467708],[-122.556888,45.46771],[-122.556914,45.467847],[-122.557037,45.467951],[-122.557222,45.467986],[-122.557493,45.467981],[-122.557676,45.46794],[-122.55776,45.467877],[-122.557809,45.467709],[-122.558427,45.467705],[-122.558587,45.467641],[-122.55866,45.467564],[-122.55869,45.46748],[-122.558687,45.465765],[-122.559286,45.465868],[-122.559457,45.465812],[-122.559542,45.465734],[-122.559571,45.465642],[-122.559579,45.46459],[-122.559533,45.464507],[-122.559444,45.464448],[-122.559259,45.464406],[-122.553538,45.46444],[-122.55352,45.4613],[-122.558299,45.461306],[-122.568656,45.461607],[-122.572092,45.461636],[-122.579193,45.461759],[-122.585531,45.461728],[-122.586897,45.461764],[-122.589443,45.461763],[-122.602758,45.461717],[-122.609792,45.461748],[-122.609758,45.471786],[-122.609651,45.472444],[-122.608427,45.475926],[-122.608431,45.479181],[-122.608455,45.479264],[-122.608523,45.479339],[-122.608688,45.479404],[-122.623321,45.479439],[-122.623311,45.482572],[-122.622552,45.482586],[-122.622446,45.482633],[-122.622352,45.48275],[-122.62234,45.486469],[-122.620541,45.486464],[-122.620369,45.486528],[-122.620276,45.486644],[-122.620242,45.487544],[-122.620216,45.48772],[-122.620145,45.487881],[-122.617739,45.487888],[-122.617568,45.487952],[-122.617476,45.488114],[-122.617479,45.49008],[-122.601662,45.490074],[-122.601661,45.485638],[-122.602171,45.485644],[-122.6023,45.485611],[-122.602436,45.485464],[-122.602484,45.48307],[-122.602459,45.482979],[-122.602391,45.482904],[-122.602216,45.482839],[-122.599918,45.482835],[-122.599953,45.480083],[-122.599929,45.479992],[-122.599806,45.479888],[-122.599696,45.479852],[-122.597376,45.479848],[-122.597396,45.479154],[-122.597372,45.479071],[-122.597249,45.478967],[-122.597074,45.478924],[-122.592218,45.478906],[-122.592024,45.478955],[-122.591386,45.479318],[-122.589283,45.479303],[-122.588007,45.479387],[-122.581526,45.479398],[-122.578985,45.479261],[-122.578856,45.479287],[-122.57876,45.479349],[-122.5787,45.479488],[-122.578659,45.482445],[-122.57765,45.482083],[-122.57496,45.481392],[-122.573409,45.481032],[-122.571296,45.480414],[-122.568744,45.479622],[-122.562695,45.477971],[-122.560381,45.477174],[-122.558647,45.47719],[-122.558652,45.476992],[-122.558616,45.476893],[-122.558537,45.476818],[-122.558416,45.476767],[-122.555897,45.476287],[-122.555895,45.475578],[-122.556043,45.475491],[-122.556104,45.475361],[-122.556113,45.471748],[-122.556067,45.471665],[-122.555847,45.47157],[-122.553562,45.471611],[-122.553561,45.471588],[-122.555969,45.471324],[-122.556064,45.471261],[-122.556116,45.471176],[-122.556128,45.470239]]]]}},{"type":"Feature","properties":{"name":"Bridger Creative Science K-8","school_label":"Bridger Creative Science K-8 Neighborhood","cluster":"Franklin","clusters":[{"name":"Franklin","share":1.0}],"level":"K-8","area_sqmi":0.55},"geometry":{"type":"MultiPolygon","coordinates":[[[[-122.593336,45.505621],[-122.593329,45.506978],[-122.592235,45.507036],[-122.592151,45.507114],[-122.592122,45.507198],[-122.592103,45.507618],[-122.591884,45.508186],[-122.591516,45.508513],[-122.590332,45.510356],[-122.590189,45.510953],[-122.590091,45.511557],[-122.59036,45.512756],[-122.590353,45.513213],[-122.590543,45.514003],[-122.590779,45.514547],[-122.591177,45.515088],[-122.591535,45.515425],[-122.591735,45.515551],[-122.591809,45.516136],[-122.59181,45.519009],[-122.57942,45.518922],[-122.579262,45.518407],[-122.578999,45.513534],[-122.578937,45.511706],[-122.578947,45.505609],[-122.579115,45.505149],[-122.581635,45.505591],[-122.582494,45.505644],[-122.593336,45.505621]]]]}},{"type":"Feature","properties":{"name":"C\u00e9sar Ch\u00e1vez K-8","school_label":"C\u00e9sar Ch\u00e1vez K-8 Spanish Immersion","cluster":"Roosevelt","clusters":[{"name":"Roosevelt","share":1.0}],"level":"K-8","area_sqmi":0.52},"geometry":{"type":"MultiPolygon","coordinates":[[[[-122.718141,45.599549],[-122.714937,45.597485],[-122.713994,45.596924],[-122.713605,45.596703],[-122.712887,45.596366],[-122.712393,45.596208],[-122.712388,45.596071],[-122.712514,45.595375],[-122.712662,45.59496],[-122.712831,45.59482],[-122.713468,45.594411],[-122.713983,45.594234],[-122.715129,45.594097],[-122.715291,45.594086],[-122.71598,45.594195],[-122.716737,45.594104],[-122.716781,45.593829],[-122.71691,45.593506],[-122.71691,45.592904],[-122.716873,45.592783],[-122.717139,45.592938],[-122.717467,45.592993],[-122.717998,45.592655],[-122.718046,45.588919],[-122.718296,45.588922],[-122.718414,45.588882],[-122.71853,45.58878],[-122.718559,45.588688],[-122.718516,45.586616],[-122.718552,45.584321],[-122.721102,45.584272],[-122.721893,45.584508],[-122.725283,45.585753],[-122.725045,45.586078],[-122.724827,45.586646],[-122.724994,45.586765],[-122.725624,45.586776],[-122.726468,45.586683],[-122.728203,45.586627],[-122.728487,45.586362],[-122.729481,45.585039],[-122.730134,45.585065],[-122.73196,45.585723],[-122.735104,45.586462],[-122.718793,45.599857],[-122.718141,45.599549]]]]}},{"type":"Feature","properties":{"name":"Faubion K-8","school_label":"Faubion K-8 Neighborhood","cluster":"Jefferson","clusters":[{"name":"Jefferson","share":1.0}],"level":"K-8","area_sqmi":17.62},"geometry":{"type":"MultiPolygon","coordinates":[[[[-122.639027,45.566519],[-122.64084,45.566515],[-122.640837,45.567986],[-122.641168,45.56846],[-122.64297,45.568457],[-122.642968,45.569021],[-122.64348,45.56937],[-122.646086,45.569374],[-122.646106,45.571797],[-122.646016,45.57234],[-122.643411,45.572343],[-122.642958,45.57274],[-122.642943,45.574158],[-122.642989,45.574241],[-122.643078,45.574308],[-122.643308,45.57435],[-122.6433,45.575074],[-122.643404,45.575552],[-122.64342,45.576619],[-122.643372,45.579287],[-122.643544,45.579848],[-122.646053,45.579877],[-122.646025,45.582164],[-122.646073,45.582293],[-122.646162,45.582352],[-122.647576,45.582409],[-122.647583,45.58263],[-122.648139,45.582986],[-122.64899,45.583114],[-122.650689,45.582938],[-122.65181,45.583016],[-122.653222,45.583332],[-122.656692,45.584433],[-122.657925,45.584898],[-122.66115,45.58582],[-122.66192,45.586088],[-122.662628,45.586448],[-122.663112,45.586637],[-122.663417,45.586669],[-122.664273,45.586607],[-122.664683,45.586531],[-122.665046,45.586349],[-122.665751,45.585718],[-122.66623,45.585458],[-122.667026,45.585245],[-122.667756,45.585299],[-122.668646,45.58561],[-122.670198,45.58648],[-122.671414,45.587082],[-122.672126,45.587275],[-122.672235,45.587288],[-122.673079,45.587196],[-122.674715,45.586784],[-122.675097,45.586822],[-122.675493,45.586982],[-122.67617,45.587389],[-122.676878,45.587741],[-122.677912,45.58811],[-122.679291,45.588404],[-122.681893,45.588583],[-122.683105,45.588774],[-122.685033,45.589552],[-122.68649,45.58989],[-122.688053,45.590166],[-122.689534,45.590587],[-122.690691,45.591045],[-122.696115,45.592984],[-122.70007,45.594242],[-122.702384,45.594853],[-122.703561,45.594968],[-122.705113,45.59493],[-122.705787,45.594963],[-122.706872,45.595232],[-122.708357,45.595737],[-122.70995,45.596232],[-122.712333,45.596666],[-122.713184,45.597054],[-122.714582,45.597873],[-122.71732,45.599672],[-122.718652,45.600477],[-122.719028,45.60066],[-122.720664,45.601132],[-122.721496,45.601306],[-122.723326,45.601438],[-122.724957,45.601483],[-122.725819,45.601596],[-122.726631,45.601816],[-122.726995,45.601969],[-122.728026,45.602528],[-122.729358,45.60331],[-122.729962,45.603497],[-122.731031,45.603621],[-122.733504,45.603809],[-122.734475,45.60392],[-122.735317,45.604079],[-122.736139,45.604276],[-122.736702,45.604532],[-122.737483,45.605088],[-122.738,45.605536],[-122.738969,45.606485],[-122.739659,45.606936],[-122.740035,45.607112],[-122.74031,45.607205],[-122.74126,45.607347],[-122.74321,45.607492],[-122.744645,45.607814],[-122.745515,45.607828],[-122.746324,45.607987],[-122.74701,45.608309],[-122.747914,45.60897],[-122.74827,45.609191],[-122.749052,45.609489],[-122.749524,45.609594],[-122.750986,45.609771],[-122.751577,45.609881],[-122.752358,45.610155],[-122.753098,45.610469],[-122.753847,45.610454],[-122.755722,45.609175],[-122.756204,45.6087],[-122.75522,45.607051],[-122.755285,45.607057],[-122.755957,45.606724],[-122.756019,45.606639],[-122.756015,45.60654],[-122.755969,45.606457],[-122.755603,45.606266],[-122.756084,45.606051],[-122.756926,45.605897],[-122.758298,45.605702],[-122.759948,45.605944],[-122.761831,45.606646],[-122.762975,45.607012],[-122.764296,45.607192],[-122.765014,45.607224],[-122.766183,45.607109],[-122.76638,45.607136],[-122.766853,45.607012],[-122.767785,45.606666],[-122.775118,45.606651],[-122.776451,45.606571],[-122.778523,45.60621],[-122.778849,45.606203],[-122.782278,45.605815],[-122.782957,45.605954],[-122.785,45.609434],[-122.787963,45.614261],[-122.789313,45.61665],[-122.789574,45.617224],[-122.790305,45.61961],[-122.790395,45.619685],[-122.792111,45.620237],[-122.791451,45.621744],[-122.79008,45.626314],[-122.789984,45.62781],[-122.789756,45.628394],[-122.788538,45.631245],[-122.78754,45.633026],[-122.786595,45.634478],[-122.759283,45.63453],[-122.751456,45.634493],[-122.743197,45.63451],[-122.743059,45.634596],[-122.742998,45.63472],[-122.742896,45.645201],[-122.736688,45.643127],[-122.728697,45.640729],[-122.713437,45.636276],[-122.712666,45.636001],[-122.70622,45.63329],[-122.698774,45.628738],[-122.688298,45.623291],[-122.682686,45.620745],[-122.674948,45.617645],[-122.667999,45.615041],[-122.660754,45.61296],[-122.649678,45.609418],[-122.648076,45.60896],[-122.643471,45.607766],[-122.635356,45.606507],[-122.635255,45.601144],[-122.635386,45.599312],[-122.63555,45.598097],[-122.635748,45.595662],[-122.635826,45.595417],[-122.635832,45.59435],[-122.635807,45.594267],[-122.635684,45.594162],[-122.635563,45.594126],[-122.630741,45.594124],[-122.630745,45.590497],[-122.630654,45.590376],[-122.630543,45.590325],[-122.620421,45.589049],[-122.620542,45.58439],[-122.620536,45.578896],[-122.621074,45.578467],[-122.621756,45.578088],[-122.622349,45.577666],[-122.622372,45.575828],[-122.622949,45.575536],[-122.62379,45.575368],[-122.624496,45.575073],[-122.624466,45.572025],[-122.62488,45.571453],[-122.62491,45.571361],[-122.624907,45.57005],[-122.624883,45.569967],[-122.624815,45.569892],[-122.62465,45.569827],[-122.624639,45.568569],[-122.624521,45.567985],[-122.624518,45.566643],[-122.624689,45.566579],[-122.624781,45.566417],[-122.624781,45.56516],[-122.62469,45.56504],[-122.624604,45.564439],[-122.624604,45.564134],[-122.626786,45.564132],[-122.627631,45.564078],[-122.627745,45.563947],[-122.627751,45.563489],[-122.627896,45.562983],[-122.637458,45.562943],[-122.637638,45.563435],[-122.637626,45.565874],[-122.637654,45.566384],[-122.637744,45.566466],[-122.639027,45.566519]]]]}},{"type":"Feature","properties":{"name":"George Middle School","school_label":"George Middle School Spanish Immersion","cluster":"Roosevelt","clusters":[{"name":"Roosevelt","share":1.0}],"level":"6-8","area_sqmi":4.14},"geometry":{"type":"MultiPolygon","coordinates":[[[[-122.708174,45.595176],[-122.70714,45.594815],[-122.70588,45.594512],[-122.704759,45.594457],[-122.703566,45.59451],[-122.702454,45.594387],[-122.702543,45.584256],[-122.713262,45.584286],[-122.714338,45.584296],[-122.71548,45.58435],[-122.717901,45.584326],[-122.717865,45.586613],[-122.7179,45.588465],[-122.717661,45.588469],[-122.717543,45.588502],[-122.717447,45.588565],[-122.717396,45.58865],[-122.71735,45.592461],[-122.71714,45.592351],[-122.716888,45.592295],[-122.716358,45.592366],[-122.71624,45.592407],[-122.716156,45.592477],[-122.716128,45.592615],[-122.716285,45.593031],[-122.716301,45.593175],[-122.716296,45.593335],[-122.716148,45.59375],[-122.715286,45.593629],[-122.714278,45.59371],[-122.713739,45.593804],[-122.713256,45.593966],[-122.712743,45.594197],[-122.712079,45.59475],[-122.711832,45.595426],[-122.711736,45.596083],[-122.710118,45.595787],[-122.708174,45.595176]]],[[[-122.734206,45.603414],[-122.730218,45.603073],[-122.729647,45.602901],[-122.728292,45.602089],[-122.727505,45.601662],[-122.726865,45.601385],[-122.726316,45.601228],[-122.725594,45.601082],[-122.725103,45.60103],[-122.724298,45.600985],[-122.723059,45.600971],[-122.721468,45.600834],[-122.721074,45.600758],[-122.719218,45.600207],[-122.746723,45.577608],[-122.749402,45.579011],[-122.759791,45.58274],[-122.763729,45.584979],[-122.767851,45.588358],[-122.772196,45.592151],[-122.777373,45.598138],[-122.779709,45.601339],[-122.78226,45.604756],[-122.782585,45.605321],[-122.780832,45.605493],[-122.779199,45.605693],[-122.779005,45.605743],[-122.778474,45.605753],[-122.776347,45.606116],[-122.775046,45.606195],[-122.767649,45.606211],[-122.766942,45.606485],[-122.766426,45.606639],[-122.766284,45.606619],[-122.765702,45.60673],[-122.76503,45.606766],[-122.764018,45.606717],[-122.763154,45.606567],[-122.762539,45.606396],[-122.761238,45.605888],[-122.760204,45.605527],[-122.759165,45.605334],[-122.758238,45.605246],[-122.757189,45.605381],[-122.754837,45.605823],[-122.754483,45.605945],[-122.754399,45.606023],[-122.754372,45.60616],[-122.754464,45.606288],[-122.755116,45.606588],[-122.754756,45.606564],[-122.754562,45.606591],[-122.754455,45.606654],[-122.754404,45.606739],[-122.754397,45.606838],[-122.755498,45.608691],[-122.753453,45.610088],[-122.752404,45.609644],[-122.751745,45.609436],[-122.751252,45.609339],[-122.749681,45.609148],[-122.749034,45.608986],[-122.748492,45.608722],[-122.747365,45.607921],[-122.74615,45.607388],[-122.744552,45.607351],[-122.743575,45.607073],[-122.740883,45.606851],[-122.740357,45.606709],[-122.739892,45.606489],[-122.73958,45.606274],[-122.739278,45.606021],[-122.738893,45.605617],[-122.738173,45.604945],[-122.737202,45.604233],[-122.736781,45.604004],[-122.736318,45.603831],[-122.735507,45.603641],[-122.734206,45.603414]]]]}},{"type":"Feature","properties":{"name":"Gray Middle School","school_label":"Gray Middle School Neighborhood","cluster":"Wells-Barnett","clusters":[{"name":"Wells-Barnett","share":1.0}],"level":"6-8","area_sqmi":4.65},"geometry":{"type":"MultiPolygon","coordinates":[[[[-122.71139,45.501332],[-122.711242,45.501144],[-122.711301,45.500983],[-122.71129,45.500084],[-122.711353,45.499724],[-122.711355,45.499473],[-122.710981,45.498428],[-122.710543,45.497712],[-122.710258,45.497329],[-122.709336,45.496722],[-122.708754,45.496223],[-122.7085,45.496098],[-122.708105,45.495976],[-122.707484,45.495874],[-122.706939,45.495815],[-122.706299,45.495797],[-122.706531,45.495625],[-122.70703,45.495021],[-122.707081,45.494929],[-122.707087,45.494807],[-122.707005,45.494625],[-122.706848,45.494491],[-122.706705,45.49444],[-122.706019,45.494347],[-122.705445,45.494373],[-122.704757,45.494531],[-122.704666,45.494419],[-122.704673,45.494297],[-122.704732,45.494135],[-122.704702,45.493892],[-122.704588,45.493749],[-122.704367,45.493632],[-122.704062,45.493584],[-122.703802,45.493589],[-122.703912,45.493046],[-122.703874,45.492887],[-122.703534,45.492482],[-122.703343,45.492295],[-122.703165,45.492176],[-122.702704,45.49201],[-122.702236,45.491966],[-122.701998,45.491985],[-122.70114,45.492246],[-122.700967,45.492241],[-122.700918,45.492098],[-122.701064,45.491637],[-122.70107,45.4915],[-122.701031,45.491326],[-122.700951,45.49122],[-122.700784,45.491079],[-122.700192,45.490907],[-122.700001,45.490705],[-122.699897,45.490532],[-122.699875,45.490235],[-122.699827,45.490091],[-122.699689,45.489896],[-122.699544,45.489776],[-122.699313,45.489674],[-122.69904,45.489618],[-122.698754,45.489517],[-122.698709,45.489472],[-122.698648,45.489268],[-122.698525,45.489163],[-122.698404,45.489128],[-122.695,45.489117],[-122.694829,45.489181],[-122.694735,45.489297],[-122.694368,45.489335],[-122.693501,45.489336],[-122.691743,45.489278],[-122.691432,45.489086],[-122.691236,45.489052],[-122.691107,45.489077],[-122.690926,45.489187],[-122.690459,45.489158],[-122.690288,45.489237],[-122.690226,45.489322],[-122.689902,45.490258],[-122.686594,45.490215],[-122.686501,45.490041],[-122.686412,45.489662],[-122.686329,45.489458],[-122.685981,45.488832],[-122.685883,45.488514],[-122.68585,45.488202],[-122.685865,45.488026],[-122.686129,45.487213],[-122.686085,45.486902],[-122.686004,45.486743],[-122.685868,45.486586],[-122.685623,45.486415],[-122.684107,45.485842],[-122.683972,45.485715],[-122.683902,45.485571],[-122.683915,45.485327],[-122.684112,45.48508],[-122.684832,45.484608],[-122.684958,45.484477],[-122.685039,45.484338],[-122.685068,45.484215],[-122.685071,45.483994],[-122.685024,45.483911],[-122.684946,45.483852],[-122.684771,45.483809],[-122.683305,45.483738],[-122.681179,45.483695],[-122.681031,45.483195],[-122.679698,45.474402],[-122.679663,45.474311],[-122.679573,45.474237],[-122.679377,45.474195],[-122.677351,45.47421],[-122.677363,45.473036],[-122.677315,45.472908],[-122.677106,45.472813],[-122.676293,45.472805],[-122.676087,45.472519],[-122.675718,45.472191],[-122.675625,45.472025],[-122.675595,45.471782],[-122.675624,45.471675],[-122.675616,45.471461],[-122.675491,45.471304],[-122.675213,45.471096],[-122.675183,45.470852],[-122.675124,45.470731],[-122.674999,45.470566],[-122.674821,45.470432],[-122.674686,45.470282],[-122.674593,45.470132],[-122.674417,45.470036],[-122.674286,45.470008],[-122.673994,45.470036],[-122.673449,45.469955],[-122.673405,45.469918],[-122.673223,45.469373],[-122.673155,45.46929],[-122.672988,45.469179],[-122.673237,45.46826],[-122.674472,45.468533],[-122.675532,45.468491],[-122.675701,45.468365],[-122.675729,45.468235],[-122.67781,45.468241],[-122.677836,45.468371],[-122.677948,45.468475],[-122.678058,45.468511],[-122.678416,45.468527],[-122.678559,45.468601],[-122.678668,45.468614],[-122.680077,45.468618],[-122.680324,45.468537],[-122.680573,45.468532],[-122.680652,45.468622],[-122.680974,45.468844],[-122.681105,45.46888],[-122.681235,45.46887],[-122.681281,45.46896],[-122.681447,45.469049],[-122.681741,45.469081],[-122.681924,45.469055],[-122.682062,45.468968],[-122.682158,45.468608],[-122.682812,45.468413],[-122.682834,45.468428],[-122.682739,45.468491],[-122.682687,45.468568],[-122.682692,45.468697],[-122.682872,45.468884],[-122.683195,45.469137],[-122.683294,45.469189],[-122.68349,45.469208],[-122.683693,45.46912],[-122.684269,45.469467],[-122.684196,45.469545],[-122.684167,45.469637],[-122.684202,45.470315],[-122.684292,45.470427],[-122.684392,45.470479],[-122.685513,45.47061],[-122.68531,45.47101],[-122.685304,45.471147],[-122.685373,45.471238],[-122.685614,45.471317],[-122.687088,45.471319],[-122.687811,45.471221],[-122.688563,45.471055],[-122.689227,45.470829],[-122.689675,45.470629],[-122.697426,45.46619],[-122.697779,45.466351],[-122.698117,45.466421],[-122.699592,45.466438],[-122.699658,45.466475],[-122.699738,45.466595],[-122.699735,45.468295],[-122.69976,45.468386],[-122.699882,45.46849],[-122.700068,45.468525],[-122.706873,45.468508],[-122.706927,45.468515],[-122.707342,45.468896],[-122.707619,45.46905],[-122.708421,45.469073],[-122.707851,45.469488],[-122.707695,45.469666],[-122.707582,45.469836],[-122.707475,45.470174],[-122.707491,45.473321],[-122.707461,45.47368],[-122.707458,45.474503],[-122.707494,45.476095],[-122.707553,45.476224],[-122.707686,45.476305],[-122.743434,45.47667],[-122.743508,45.48868],[-122.743567,45.488809],[-122.743744,45.488904],[-122.743573,45.488984],[-122.743513,45.489122],[-122.743517,45.491279],[-122.743379,45.491358],[-122.743317,45.491451],[-122.743321,45.49155],[-122.743405,45.491777],[-122.743494,45.491851],[-122.743626,45.491902],[-122.743526,45.492117],[-122.743525,45.493261],[-122.740471,45.492764],[-122.73866,45.492769],[-122.738542,45.492802],[-122.738427,45.492911],[-122.738398,45.492995],[-122.738415,45.497911],[-122.738393,45.501425],[-122.738138,45.501575],[-122.737916,45.502013],[-122.738215,45.50248],[-122.738069,45.502651],[-122.737597,45.502797],[-122.737504,45.502913],[-122.73749,45.503127],[-122.7364,45.503864],[-122.736264,45.503997],[-122.736007,45.50436],[-122.735409,45.504341],[-122.735507,45.504042],[-122.735599,45.503903],[-122.736039,45.50378],[-122.736188,45.503678],[-122.736406,45.503422],[-122.736463,45.503208],[-122.736427,45.503117],[-122.736338,45.503043],[-122.735653,45.502713],[-122.73687,45.501287],[-122.73692,45.501194],[-122.736883,45.501058],[-122.736793,45.500983],[-122.736673,45.500948],[-122.736032,45.50093],[-122.735632,45.500953],[-122.735484,45.501047],[-122.734457,45.502317],[-122.734323,45.502228],[-122.734203,45.502208],[-122.733913,45.502274],[-122.733907,45.500933],[-122.733883,45.50085],[-122.733815,45.500775],[-122.73365,45.500709],[-122.73327,45.500702],[-122.73325,45.500466],[-122.733127,45.500361],[-122.732953,45.500327],[-122.73254,45.500319],[-122.732396,45.500231],[-122.732265,45.50021],[-122.731148,45.500202],[-122.730912,45.500267],[-122.730839,45.500345],[-122.73081,45.500734],[-122.730615,45.500738],[-122.730547,45.500655],[-122.730426,45.500612],[-122.730055,45.500566],[-122.730062,45.498371],[-122.72997,45.498243],[-122.729424,45.497842],[-122.729281,45.497769],[-122.729051,45.49772],[-122.727902,45.497719],[-122.726849,45.497984],[-122.726396,45.498061],[-122.726267,45.498071],[-122.725667,45.497976],[-122.725407,45.497981],[-122.724565,45.498097],[-122.723859,45.498339],[-122.722705,45.498811],[-122.722385,45.49897],[-122.720871,45.498763],[-122.720556,45.498746],[-122.720199,45.498768],[-122.719489,45.498927],[-122.718836,45.499168],[-122.718146,45.499562],[-122.717883,45.499796],[-122.717687,45.500074],[-122.717301,45.499899],[-122.71705,45.499843],[-122.716746,45.499841],[-122.716349,45.499955],[-122.714667,45.500819],[-122.713981,45.501335],[-122.713779,45.501445],[-122.713177,45.501884],[-122.712316,45.501458],[-122.712107,45.501386],[-122.711856,45.501345],[-122.71139,45.501332]]]]}},{"type":"Feature","properties":{"name":"Harriet Tubman Middle School","school_label":"Harriet Tubman Middle School Mandarin Immersion","cluster":"Jefferson","clusters":[{"name":"Jefferson","share":0.74},{"name":"Grant","share":0.26}],"level":"6-8","area_sqmi":3.65},"geometry":{"type":"MultiPolygon","coordinates":[[[[-122.644431,45.530323],[-122.644403,45.535079],[-122.644494,45.535199],[-122.644659,45.535265],[-122.665612,45.535344],[-122.668389,45.535329],[-122.668518,45.535281],[-122.671569,45.533532],[-122.674006,45.53219],[-122.67833,45.535393],[-122.682608,45.538223],[-122.684211,45.539335],[-122.686453,45.541053],[-122.680742,45.545209],[-122.679249,45.546548],[-122.678388,45.547952],[-122.678359,45.548044],[-122.678325,45.553478],[-122.678283,45.554424],[-122.676318,45.554431],[-122.676212,45.554479],[-122.676129,45.554595],[-122.67611,45.555273],[-122.675177,45.555299],[-122.674489,45.555792],[-122.674457,45.558239],[-122.674529,45.558436],[-122.674499,45.560944],[-122.672795,45.560945],[-122.672666,45.560963],[-122.672528,45.56105],[-122.672467,45.561173],[-122.672459,45.562476],[-122.664602,45.562518],[-122.664376,45.562583],[-122.664303,45.562661],[-122.664284,45.562745],[-122.664244,45.566213],[-122.661313,45.5662],[-122.661072,45.566136],[-122.656251,45.566112],[-122.656284,45.562751],[-122.656237,45.56263],[-122.656147,45.562563],[-122.656027,45.562527],[-122.655278,45.562526],[-122.655273,45.561787],[-122.655227,45.561704],[-122.655138,45.561637],[-122.654952,45.561602],[-122.652781,45.561597],[-122.652801,45.560027],[-122.652753,45.559898],[-122.65261,45.559817],[-122.652479,45.559796],[-122.650839,45.559789],[-122.650863,45.557685],[-122.650817,45.557602],[-122.650728,45.557543],[-122.650542,45.557501],[-122.643062,45.557473],[-122.643076,45.5554],[-122.64303,45.555317],[-122.642821,45.555222],[-122.633996,45.555188],[-122.634016,45.553297],[-122.638782,45.553315],[-122.638976,45.553281],[-122.639091,45.553165],[-122.639107,45.553004],[-122.640348,45.551244],[-122.640506,45.551126],[-122.640585,45.550904],[-122.640784,45.550992],[-122.640969,45.551003],[-122.641087,45.550971],[-122.641172,45.550908],[-122.641232,45.550785],[-122.641284,45.549466],[-122.641307,45.546714],[-122.641285,45.545175],[-122.641339,45.542072],[-122.641315,45.541989],[-122.641192,45.541884],[-122.641071,45.541848],[-122.636904,45.541835],[-122.636901,45.534007],[-122.637128,45.533973],[-122.637223,45.53391],[-122.637284,45.533787],[-122.637359,45.530653],[-122.644431,45.530323]]]]}},{"type":"Feature","properties":{"name":"Harrison Park Middle School","school_label":"Harrison Park Middle School Mandarin Immersion","cluster":"McDaniel","clusters":[{"name":"McDaniel","share":0.73},{"name":"Franklin","share":0.27}],"level":"6-8","area_sqmi":3.72},"geometry":{"type":"MultiPolygon","coordinates":[[[[-122.576445,45.490976],[-122.576476,45.49157],[-122.576522,45.491653],[-122.576665,45.491734],[-122.578444,45.491755],[-122.578319,45.500522],[-122.57833,45.501505],[-122.578376,45.501588],[-122.578476,45.501654],[-122.578651,45.501689],[-122.588442,45.501679],[-122.589798,45.501708],[-122.594601,45.501681],[-122.594826,45.501616],[-122.59492,45.5015],[-122.594974,45.497696],[-122.608701,45.497726],[-122.60867,45.50156],[-122.608795,45.501703],[-122.609135,45.501811],[-122.610664,45.501821],[-122.610636,45.505091],[-122.610685,45.505258],[-122.610847,45.505575],[-122.610911,45.50805],[-122.611182,45.511803],[-122.60705,45.511803],[-122.606978,45.511613],[-122.606823,45.51151],[-122.606692,45.511489],[-122.602122,45.51168],[-122.602082,45.509897],[-122.602058,45.509806],[-122.601979,45.509731],[-122.601738,45.509667],[-122.597954,45.509668],[-122.597967,45.509416],[-122.597884,45.509212],[-122.597865,45.508991],[-122.597694,45.508743],[-122.597724,45.508658],[-122.597975,45.508402],[-122.598045,45.508233],[-122.598008,45.507129],[-122.597917,45.507009],[-122.597687,45.506944],[-122.593979,45.506974],[-122.593989,45.50535],[-122.593898,45.50523],[-122.593788,45.505179],[-122.582034,45.505187],[-122.578707,45.504607],[-122.578511,45.504611],[-122.578331,45.504736],[-122.578302,45.504828],[-122.578273,45.51133],[-122.578348,45.513538],[-122.578647,45.519157],[-122.57875,45.519316],[-122.578969,45.51938],[-122.588148,45.51945],[-122.588143,45.519945],[-122.58818,45.520066],[-122.587942,45.520094],[-122.587729,45.520227],[-122.587658,45.52035],[-122.587695,45.520487],[-122.587862,45.520613],[-122.589615,45.521458],[-122.590629,45.521927],[-122.591365,45.522196],[-122.59152,45.522284],[-122.591506,45.523138],[-122.59153,45.523221],[-122.591598,45.523289],[-122.591752,45.523355],[-122.592437,45.523395],[-122.596938,45.523382],[-122.598469,45.52311],[-122.601885,45.523108],[-122.601809,45.52878],[-122.599018,45.530264],[-122.591588,45.534104],[-122.589986,45.534864],[-122.588774,45.535252],[-122.5879,45.535405],[-122.587035,45.535482],[-122.585775,45.535459],[-122.585067,45.535366],[-122.584335,45.535211],[-122.583666,45.535018],[-122.582458,45.534582],[-122.581863,45.534303],[-122.581083,45.534013],[-122.57903,45.533295],[-122.573939,45.53162],[-122.572716,45.53139],[-122.571584,45.531281],[-122.570304,45.531274],[-122.568776,45.531324],[-122.568913,45.522542],[-122.568867,45.522459],[-122.568658,45.522364],[-122.567692,45.522358],[-122.567727,45.520506],[-122.567922,45.520495],[-122.568169,45.520414],[-122.568254,45.520351],[-122.568687,45.520351],[-122.568806,45.520319],[-122.568922,45.520217],[-122.568951,45.520125],[-122.568945,45.519638],[-122.568978,45.519332],[-122.568967,45.518357],[-122.568921,45.518274],[-122.568832,45.518215],[-122.568646,45.518172],[-122.564753,45.518189],[-122.564732,45.514021],[-122.564674,45.5139],[-122.56453,45.513811],[-122.563987,45.51379],[-122.564068,45.51106],[-122.56411,45.507775],[-122.567331,45.507801],[-122.567545,45.507705],[-122.567595,45.507575],[-122.567607,45.504419],[-122.567473,45.504277],[-122.567298,45.504234],[-122.55326,45.50403],[-122.553295,45.502185],[-122.553377,45.502031],[-122.553392,45.499889],[-122.558303,45.499885],[-122.558441,45.499798],[-122.558502,45.499675],[-122.558542,45.497289],[-122.563802,45.497362],[-122.564039,45.497297],[-122.564132,45.497181],[-122.564146,45.496632],[-122.564504,45.496641],[-122.564633,45.496608],[-122.56476,45.496499],[-122.565037,45.495396],[-122.565214,45.493564],[-122.565177,45.493428],[-122.565033,45.493339],[-122.564902,45.493318],[-122.561052,45.493266],[-122.561152,45.493028],[-122.561159,45.491618],[-122.561112,45.491496],[-122.560968,45.491408],[-122.560771,45.491373],[-122.558623,45.491328],[-122.558645,45.490047],[-122.566587,45.490247],[-122.571392,45.49032],[-122.573888,45.490397],[-122.574943,45.490492],[-122.576449,45.49048],[-122.576445,45.490976]]]]}},{"type":"Feature","properties":{"name":"Hosford Middle School","school_label":"Hosford Middle School Neighborhood","cluster":"Cleveland","clusters":[{"name":"Cleveland","share":0.88},{"name":"Franklin","share":0.12}],"level":"6-8","area_sqmi":7.44},"geometry":{"type":"MultiPolygon","coordinates":[[[[-122.640154,45.474484],[-122.641444,45.480062],[-122.641626,45.480615],[-122.641994,45.48153],[-122.642226,45.481983],[-122.642996,45.483226],[-122.64328,45.483595],[-122.643965,45.484283],[-122.644266,45.484514],[-122.644876,45.484898],[-122.646233,45.485589],[-122.649276,45.487034],[-122.650127,45.487483],[-122.650964,45.488168],[-122.65166,45.488849],[-122.651815,45.488937],[-122.65201,45.488941],[-122.669442,45.485579],[-122.669465,45.485945],[-122.66893,45.489476],[-122.666231,45.495921],[-122.665136,45.500195],[-122.665044,45.502178],[-122.66517,45.502984],[-122.66744,45.506447],[-122.669435,45.510113],[-122.670245,45.512468],[-122.670208,45.513543],[-122.669648,45.516115],[-122.669163,45.517717],[-122.668053,45.51975],[-122.667436,45.522223],[-122.667226,45.52395],[-122.667555,45.526497],[-122.670278,45.528937],[-122.673603,45.531832],[-122.671177,45.533166],[-122.6682,45.534876],[-122.645055,45.534808],[-122.645085,45.530074],[-122.64506,45.529983],[-122.644926,45.529879],[-122.64474,45.529845],[-122.636401,45.530244],[-122.635699,45.530326],[-122.634946,45.530515],[-122.634741,45.530252],[-122.634712,45.530047],[-122.634752,45.523111],[-122.641423,45.523108],[-122.641541,45.523076],[-122.641668,45.522974],[-122.641718,45.520679],[-122.641744,45.520519],[-122.641757,45.519337],[-122.641732,45.519246],[-122.641665,45.519171],[-122.6415,45.519106],[-122.639363,45.5191],[-122.639394,45.517202],[-122.642442,45.517213],[-122.642625,45.517172],[-122.64271,45.517109],[-122.64277,45.516978],[-122.64279,45.513846],[-122.643473,45.513841],[-122.643634,45.513784],[-122.643707,45.513707],[-122.643737,45.513615],[-122.643728,45.513051],[-122.64381,45.512912],[-122.643824,45.512096],[-122.643799,45.512005],[-122.643732,45.51193],[-122.643556,45.511865],[-122.62309,45.511834],[-122.622922,45.504803],[-122.622898,45.50472],[-122.62283,45.504645],[-122.622665,45.504579],[-122.619477,45.504585],[-122.619069,45.504691],[-122.61857,45.505005],[-122.617997,45.505062],[-122.611297,45.505086],[-122.611329,45.501626],[-122.611292,45.501489],[-122.611203,45.501422],[-122.610897,45.501359],[-122.609325,45.501365],[-122.609355,45.497516],[-122.609341,45.497425],[-122.609218,45.497313],[-122.609032,45.49727],[-122.595565,45.497243],[-122.595612,45.494178],[-122.599472,45.494192],[-122.59959,45.494159],[-122.599717,45.494057],[-122.599785,45.49161],[-122.599765,45.491031],[-122.599836,45.490892],[-122.599833,45.490809],[-122.599742,45.490688],[-122.599401,45.490535],[-122.610156,45.49055],[-122.617938,45.490521],[-122.618076,45.490435],[-122.618137,45.490304],[-122.618123,45.488338],[-122.620508,45.488324],[-122.620687,45.488192],[-122.620847,45.487807],[-122.620894,45.487593],[-122.620914,45.486922],[-122.62266,45.486928],[-122.622842,45.486886],[-122.622969,45.486785],[-122.62299,45.483027],[-122.623695,45.483029],[-122.623866,45.482965],[-122.623949,45.482849],[-122.623972,45.479442],[-122.626573,45.479447],[-122.627293,45.479571],[-122.627575,45.479589],[-122.627976,45.479574],[-122.628999,45.479402],[-122.629923,45.479461],[-122.630291,45.479447],[-122.631133,45.479347],[-122.631458,45.479357],[-122.632091,45.479474],[-122.632406,45.479491],[-122.632708,45.479455],[-122.633319,45.479246],[-122.633631,45.479179],[-122.634461,45.479057],[-122.634717,45.478945],[-122.634854,45.478821],[-122.634987,45.478597],[-122.635016,45.47849],[-122.635023,45.478391],[-122.634929,45.478179],[-122.634805,45.478044],[-122.634451,45.477853],[-122.634393,45.477724],[-122.634614,45.477537],[-122.634948,45.47718],[-122.63505,45.477003],[-122.635148,45.476681],[-122.635159,45.476079],[-122.63513,45.475881],[-122.635046,45.475631],[-122.634806,45.475285],[-122.63477,45.475179],[-122.634806,45.474958],[-122.634869,45.474903],[-122.635167,45.47476],[-122.635748,45.474628],[-122.63773,45.474606],[-122.640154,45.474484]]]]}},{"type":"Feature","properties":{"name":"Jackson Middle School","school_label":"Jackson Middle School Neighborhood","cluster":"Wells-Barnett","clusters":[{"name":"Wells-Barnett","share":1.0}],"level":"6-8","area_sqmi":10.39},"geometry":{"type":"MultiPolygon","coordinates":[[[[-122.743498,45.460152],[-122.743433,45.475161],[-122.743525,45.475327],[-122.743636,45.475378],[-122.743644,45.475606],[-122.743638,45.475736],[-122.74351,45.475784],[-122.743417,45.475916],[-122.743417,45.476213],[-122.708136,45.475869],[-122.708109,45.474506],[-122.708112,45.47369],[-122.708142,45.473331],[-122.708119,45.470298],[-122.708145,45.470107],[-122.708256,45.469892],[-122.708371,45.469768],[-122.709385,45.469039],[-122.709445,45.468908],[-122.70942,45.468817],[-122.709297,45.468713],[-122.709023,45.468627],[-122.707863,45.468604],[-122.707393,45.468193],[-122.707238,45.468113],[-122.706976,45.468049],[-122.700387,45.468069],[-122.700404,45.466712],[-122.700362,45.466461],[-122.700269,45.466296],[-122.700145,45.466161],[-122.699837,45.466014],[-122.699553,45.465974],[-122.698198,45.465962],[-122.697892,45.465869],[-122.697756,45.465711],[-122.697657,45.46566],[-122.697536,45.465632],[-122.697353,45.465658],[-122.696609,45.466053],[-122.694688,45.46718],[-122.689144,45.470335],[-122.688363,45.470616],[-122.687611,45.470783],[-122.686834,45.470874],[-122.686075,45.470866],[-122.686287,45.47045],[-122.686284,45.470359],[-122.686182,45.470239],[-122.686061,45.470195],[-122.684843,45.470074],[-122.684819,45.469701],[-122.685007,45.469499],[-122.685036,45.469415],[-122.685012,45.469324],[-122.6849,45.469227],[-122.684292,45.468888],[-122.683881,45.468614],[-122.683749,45.468578],[-122.683545,45.468605],[-122.683607,45.46852],[-122.68358,45.468375],[-122.683164,45.467972],[-122.682999,45.467906],[-122.682805,45.467918],[-122.681732,45.468235],[-122.681584,45.46833],[-122.681443,45.468325],[-122.681228,45.468382],[-122.681184,45.468353],[-122.681121,45.468117],[-122.681149,45.467972],[-122.681102,45.467882],[-122.680947,45.467793],[-122.680577,45.467754],[-122.680384,45.467804],[-122.6803,45.467882],[-122.680264,45.468073],[-122.680004,45.468078],[-122.679822,45.468157],[-122.678923,45.468159],[-122.678823,45.4681],[-122.678692,45.468072],[-122.678465,45.468069],[-122.678461,45.46797],[-122.678415,45.467887],[-122.678326,45.46782],[-122.678205,45.467784],[-122.675344,45.467778],[-122.675131,45.467873],[-122.67508,45.467958],[-122.675072,45.468057],[-122.674477,45.468068],[-122.673154,45.467758],[-122.672926,45.46774],[-122.672797,45.467773],[-122.672662,45.467928],[-122.672498,45.468495],[-122.6723,45.469337],[-122.672325,45.469428],[-122.672437,45.469532],[-122.672634,45.469574],[-122.672792,45.470074],[-122.672984,45.470277],[-122.673259,45.470393],[-122.673782,45.470482],[-122.674108,45.470492],[-122.674299,45.470701],[-122.674455,45.47082],[-122.674547,45.470963],[-122.674578,45.47123],[-122.67467,45.471357],[-122.674982,45.471595],[-122.674944,45.471771],[-122.674962,45.471962],[-122.675072,45.472302],[-122.675242,45.47252],[-122.675645,45.472886],[-122.675685,45.473091],[-122.675775,45.473196],[-122.675875,45.473247],[-122.676005,45.47326],[-122.67671,45.473262],[-122.676698,45.474436],[-122.676756,45.474565],[-122.676845,45.474631],[-122.676966,45.474667],[-122.67909,45.474657],[-122.680366,45.483085],[-122.680496,45.483693],[-122.680648,45.484002],[-122.68076,45.484107],[-122.680881,45.484143],[-122.683268,45.484196],[-122.684386,45.484251],[-122.684292,45.484344],[-122.683825,45.484628],[-122.683572,45.484831],[-122.683416,45.485001],[-122.683293,45.485202],[-122.683254,45.485332],[-122.683239,45.485531],[-122.683265,45.485652],[-122.683406,45.485939],[-122.683697,45.4862],[-122.683885,45.486296],[-122.685269,45.486803],[-122.685414,45.48693],[-122.685477,45.487172],[-122.685223,45.487947],[-122.685199,45.488191],[-122.685235,45.488579],[-122.685369,45.488996],[-122.685775,45.48975],[-122.685888,45.490183],[-122.685042,45.490176],[-122.685052,45.489528],[-122.685005,45.489445],[-122.684862,45.489364],[-122.682128,45.489302],[-122.682021,45.489349],[-122.681832,45.489528],[-122.681494,45.489763],[-122.68111,45.489946],[-122.680262,45.490175],[-122.678939,45.490475],[-122.678319,45.490715],[-122.677841,45.490999],[-122.677408,45.491335],[-122.677063,45.491692],[-122.676826,45.492039],[-122.676637,45.4925],[-122.676574,45.492875],[-122.676584,45.493142],[-122.676602,45.493339],[-122.676944,45.49472],[-122.67721,45.495187],[-122.677642,45.495751],[-122.677833,45.495953],[-122.678166,45.496457],[-122.679442,45.498811],[-122.67988,45.499527],[-122.680079,45.499935],[-122.678875,45.499912],[-122.678691,45.499946],[-122.678405,45.499806],[-122.678175,45.499742],[-122.677794,45.499719],[-122.677407,45.49981],[-122.677312,45.499873],[-122.67726,45.49995],[-122.676895,45.500033],[-122.674301,45.500265],[-122.665747,45.50093],[-122.665788,45.500251],[-122.666874,45.496016],[-122.669562,45.489586],[-122.670116,45.48594],[-122.669888,45.482286],[-122.66941,45.480428],[-122.668241,45.478636],[-122.666868,45.477191],[-122.666326,45.475669],[-122.666729,45.472964],[-122.666882,45.468441],[-122.666344,45.465486],[-122.665644,45.463472],[-122.665322,45.46293],[-122.664998,45.461732],[-122.674577,45.461756],[-122.674802,45.461691],[-122.674896,45.461575],[-122.675301,45.452871],[-122.67521,45.452758],[-122.674677,45.452379],[-122.673194,45.451211],[-122.673105,45.451136],[-122.673012,45.450963],[-122.673177,45.447073],[-122.67322,45.446767],[-122.673913,45.433035],[-122.702229,45.43321],[-122.702369,45.433192],[-122.702517,45.43309],[-122.702692,45.432851],[-122.702851,45.432444],[-122.703929,45.432606],[-122.704153,45.432815],[-122.704541,45.433051],[-122.705725,45.433463],[-122.707159,45.433877],[-122.70742,45.433903],[-122.70783,45.433872],[-122.708195,45.433774],[-122.708482,45.433631],[-122.708891,45.433844],[-122.709516,45.434053],[-122.710192,45.434177],[-122.710593,45.4342],[-122.711555,45.434143],[-122.71266,45.433847],[-122.713269,45.433912],[-122.713577,45.434043],[-122.713999,45.434332],[-122.714308,45.434494],[-122.715098,45.434776],[-122.715497,45.43502],[-122.715682,45.435054],[-122.715811,45.435029],[-122.715917,45.434966],[-122.716516,45.434459],[-122.716684,45.434303],[-122.716879,45.434017],[-122.716948,45.433818],[-122.716909,45.433659],[-122.716648,45.433313],[-122.719551,45.433341],[-122.719658,45.433308],[-122.719785,45.433206],[-122.720019,45.432508],[-122.719993,45.432082],[-122.719898,45.43187],[-122.719717,45.431645],[-122.718894,45.431044],[-122.719101,45.431078],[-122.71954,45.431245],[-122.719926,45.431443],[-122.72016,45.431606],[-122.720677,45.432122],[-122.721923,45.43363],[-122.722356,45.433926],[-122.722554,45.434014],[-122.722981,45.434128],[-122.724492,45.434296],[-122.725273,45.434632],[-122.725819,45.434751],[-122.726328,45.434749],[-122.726748,45.434672],[-122.730569,45.433447],[-122.733633,45.433417],[-122.743633,45.433511],[-122.743487,45.454863],[-122.743498,45.460152]]]]}},{"type":"Feature","properties":{"name":"Kellogg Middle School","school_label":"Kellogg Middle School Spanish Immersion","cluster":"Franklin","clusters":[{"name":"Franklin","share":1.0}],"level":"6-8","area_sqmi":2.15},"geometry":{"type":"MultiPolygon","coordinates":[[[[-122.573938,45.489939],[-122.571431,45.489862],[-122.566615,45.489789],[-122.558337,45.48958],[-122.55606,45.489575],[-122.556055,45.48908],[-122.55603,45.488997],[-122.555963,45.488922],[-122.555853,45.488878],[-122.555418,45.488855],[-122.555372,45.488772],[-122.555163,45.488684],[-122.553492,45.48863],[-122.553492,45.488295],[-122.55361,45.488263],[-122.558378,45.488215],[-122.558549,45.488151],[-122.558641,45.487989],[-122.558605,45.483684],[-122.55858,45.483593],[-122.558513,45.483518],[-122.558272,45.483454],[-122.553486,45.483601],[-122.553491,45.48277],[-122.5534,45.482649],[-122.553147,45.482532],[-122.553168,45.481869],[-122.55323,45.481776],[-122.553264,45.478575],[-122.558434,45.478573],[-122.558582,45.478487],[-122.558634,45.478402],[-122.558641,45.477647],[-122.560201,45.477619],[-122.56246,45.478402],[-122.568498,45.480046],[-122.573185,45.48147],[-122.574747,45.48183],[-122.577415,45.482506],[-122.578962,45.48305],[-122.579198,45.482984],[-122.579271,45.482907],[-122.579301,45.482822],[-122.579348,45.479735],[-122.581487,45.479856],[-122.588055,45.479843],[-122.58932,45.479759],[-122.591553,45.479772],[-122.591714,45.479716],[-122.59232,45.479369],[-122.596743,45.47938],[-122.596723,45.480074],[-122.596748,45.480165],[-122.596815,45.48024],[-122.596925,45.480283],[-122.5993,45.480309],[-122.599264,45.483061],[-122.599289,45.483152],[-122.599357,45.483227],[-122.599586,45.483291],[-122.60183,45.483295],[-122.601797,45.485179],[-122.601223,45.485189],[-122.601074,45.485268],[-122.601014,45.485399],[-122.601011,45.490071],[-122.598475,45.490079],[-122.598217,45.490152],[-122.598081,45.4903],[-122.598085,45.490391],[-122.598175,45.490504],[-122.599123,45.490951],[-122.599088,45.493734],[-122.595228,45.49372],[-122.595057,45.493785],[-122.594963,45.493901],[-122.594915,45.49724],[-122.594589,45.497238],[-122.594471,45.497271],[-122.594356,45.497372],[-122.594326,45.497464],[-122.59427,45.501222],[-122.589804,45.50125],[-122.588459,45.501221],[-122.578972,45.501234],[-122.579093,45.491385],[-122.579047,45.491302],[-122.578958,45.491243],[-122.578783,45.4912],[-122.5786,45.491234],[-122.578494,45.491297],[-122.577117,45.491299],[-122.577102,45.490209],[-122.577011,45.490097],[-122.576846,45.490031],[-122.57496,45.490035],[-122.573938,45.489939]]]]}},{"type":"Feature","properties":{"name":"Laurelhurst K-8","school_label":"Laurelhurst K-8 Neighborhood","cluster":"Grant","clusters":[{"name":"Grant","share":1.0}],"level":"K-8","area_sqmi":0.93},"geometry":{"type":"MultiPolygon","coordinates":[[[[-122.622154,45.533611],[-122.620851,45.533581],[-122.605194,45.533504],[-122.605207,45.532323],[-122.605282,45.531971],[-122.605307,45.530499],[-122.605362,45.529896],[-122.605365,45.528402],[-122.605213,45.528085],[-122.60502,45.527502],[-122.605009,45.526892],[-122.605596,45.526615],[-122.605627,45.526553],[-122.605653,45.524792],[-122.606132,45.524517],[-122.606999,45.524516],[-122.607838,45.524607],[-122.611613,45.524606],[-122.611605,45.525003],[-122.612158,45.525328],[-122.612679,45.525326],[-122.612808,45.525285],[-122.612923,45.525177],[-122.613531,45.524883],[-122.613647,45.524782],[-122.613685,45.524629],[-122.614965,45.524628],[-122.615179,45.524533],[-122.615229,45.524402],[-122.615235,45.52332],[-122.615768,45.523364],[-122.616399,45.5231],[-122.616388,45.522491],[-122.616856,45.522216],[-122.617399,45.522221],[-122.617517,45.522188],[-122.617632,45.522079],[-122.618221,45.521863],[-122.618611,45.521833],[-122.619904,45.521588],[-122.622279,45.521589],[-122.622285,45.521749],[-122.622627,45.522216],[-122.622626,45.522825],[-122.623338,45.523018],[-122.624116,45.52295],[-122.625473,45.522666],[-122.626703,45.52246],[-122.627211,45.522405],[-122.627557,45.522383],[-122.628678,45.522507],[-122.629261,45.52242],[-122.630116,45.522359],[-122.630984,45.522365],[-122.63129,45.522756],[-122.631282,45.52438],[-122.631373,45.5245],[-122.63145,45.524536],[-122.632308,45.524566],[-122.634098,45.524571],[-122.634071,45.530013],[-122.633377,45.530339],[-122.625097,45.53367],[-122.624305,45.533693],[-122.623781,45.533581],[-122.622154,45.533611]]]]}},{"type":"Feature","properties":{"name":"Mt Tabor Middle School","school_label":"Mt Tabor Middle School Japanese Immersion","cluster":"Franklin","clusters":[{"name":"Franklin","share":1.0}],"level":"6-8","area_sqmi":1.47},"geometry":{"type":"MultiPolygon","coordinates":[[[[-122.591666,45.521786],[-122.590974,45.52154],[-122.58867,45.520454],[-122.588859,45.520283],[-122.588887,45.520145],[-122.588793,45.519918],[-122.588799,45.519453],[-122.592194,45.519467],[-122.592365,45.519403],[-122.592459,45.519287],[-122.592457,45.515743],[-122.592517,45.515582],[-122.592334,45.515326],[-122.591789,45.514917],[-122.591392,45.514399],[-122.591168,45.513877],[-122.591032,45.513399],[-122.591003,45.513186],[-122.590998,45.512394],[-122.590794,45.511818],[-122.590742,45.51156],[-122.590822,45.511063],[-122.590965,45.510466],[-122.591076,45.510251],[-122.592088,45.508739],[-122.592686,45.508171],[-122.592736,45.508048],[-122.592759,45.507431],[-122.597366,45.507407],[-122.597394,45.508199],[-122.597121,45.508479],[-122.59707,45.508579],[-122.597043,45.508739],[-122.597105,45.508959],[-122.597242,45.509147],[-122.597235,45.509269],[-122.597318,45.509466],[-122.597286,45.509817],[-122.597391,45.510013],[-122.597556,45.510094],[-122.597915,45.510126],[-122.60144,45.51013],[-122.601481,45.511973],[-122.601583,45.512093],[-122.601693,45.512137],[-122.606394,45.511967],[-122.60641,45.512112],[-122.606443,45.512149],[-122.606588,45.512238],[-122.606718,45.512258],[-122.611327,45.512257],[-122.611511,45.512231],[-122.611693,45.512152],[-122.611799,45.512081],[-122.61187,45.51195],[-122.611833,45.511836],[-122.611561,45.508023],[-122.611497,45.505547],[-122.618381,45.505504],[-122.618748,45.505452],[-122.618909,45.505395],[-122.61944,45.505073],[-122.619569,45.50504],[-122.622269,45.505036],[-122.62244,45.511831],[-122.62014,45.511828],[-122.62,45.511846],[-122.619852,45.511948],[-122.619794,45.512154],[-122.619777,45.514799],[-122.6193,45.514801],[-122.619182,45.514833],[-122.619055,45.514935],[-122.619023,45.516505],[-122.619127,45.516709],[-122.619216,45.516776],[-122.619337,45.516812],[-122.622591,45.516813],[-122.622645,45.519312],[-122.622622,45.521141],[-122.619671,45.521135],[-122.61925,45.521196],[-122.618476,45.521385],[-122.617219,45.521424],[-122.617112,45.521472],[-122.617039,45.521549],[-122.617014,45.521763],[-122.615929,45.521768],[-122.615781,45.521854],[-122.615731,45.521985],[-122.615752,45.522907],[-122.615535,45.522903],[-122.614933,45.522762],[-122.614739,45.522796],[-122.614602,45.522897],[-122.614572,45.522989],[-122.614581,45.524171],[-122.613236,45.524188],[-122.613129,45.524235],[-122.613056,45.524313],[-122.613029,45.524458],[-122.612616,45.524458],[-122.612433,45.5245],[-122.612318,45.524601],[-122.612294,45.524868],[-122.612262,45.524869],[-122.612254,45.524328],[-122.612208,45.524245],[-122.611998,45.52415],[-122.607638,45.524146],[-122.607472,45.524073],[-122.607342,45.52406],[-122.605205,45.524076],[-122.605067,45.524163],[-122.605007,45.524286],[-122.604988,45.526275],[-122.60463,45.526282],[-122.604512,45.526314],[-122.604396,45.526416],[-122.604367,45.526508],[-122.604373,45.527635],[-122.603526,45.527925],[-122.60247,45.52844],[-122.602539,45.522883],[-122.602492,45.522754],[-122.602402,45.522687],[-122.602282,45.522651],[-122.598431,45.522646],[-122.5969,45.522925],[-122.59216,45.52292],[-122.592178,45.522173],[-122.592154,45.522097],[-122.592052,45.521993],[-122.591666,45.521786]]]]}},{"type":"Feature","properties":{"name":"Ockley Green Middle School","school_label":"Ockley Green Middle School Spanish Immersion","cluster":"Jefferson","clusters":[{"name":"Jefferson","share":0.83},{"name":"Roosevelt","share":0.17}],"level":"6-8","area_sqmi":7.28},"geometry":{"type":"MultiPolygon","coordinates":[[[[-122.712732,45.575082],[-122.708882,45.57489],[-122.70778,45.574743],[-122.70765,45.574753],[-122.707543,45.574801],[-122.70747,45.574879],[-122.707441,45.574971],[-122.707403,45.583812],[-122.702169,45.583798],[-122.70205,45.583831],[-122.701924,45.583933],[-122.701894,45.584025],[-122.701796,45.594209],[-122.700096,45.593761],[-122.696404,45.592582],[-122.690837,45.590585],[-122.689801,45.59017],[-122.688276,45.589734],[-122.686669,45.589453],[-122.685466,45.589201],[-122.683339,45.588342],[-122.682464,45.588153],[-122.680636,45.588066],[-122.67935,45.587946],[-122.678168,45.587686],[-122.677344,45.587412],[-122.676526,45.587008],[-122.675904,45.586624],[-122.67532,45.586383],[-122.674677,45.586319],[-122.674244,45.586366],[-122.673342,45.58665],[-122.672901,45.586757],[-122.672556,45.586824],[-122.672295,45.586829],[-122.671857,45.586723],[-122.671483,45.586593],[-122.668803,45.585112],[-122.667968,45.584861],[-122.666934,45.584782],[-122.666782,45.584792],[-122.665965,45.585021],[-122.665315,45.585376],[-122.664578,45.586023],[-122.664407,45.58611],[-122.66363,45.586231],[-122.663281,45.586192],[-122.662862,45.586009],[-122.662363,45.585729],[-122.661187,45.585317],[-122.658028,45.584439],[-122.657004,45.584024],[-122.65327,45.582851],[-122.651979,45.582571],[-122.650651,45.582474],[-122.649591,45.582585],[-122.649181,45.582676],[-122.648232,45.582534],[-122.648206,45.582131],[-122.648116,45.582026],[-122.648016,45.581974],[-122.64668,45.581938],[-122.646711,45.579758],[-122.646707,45.579644],[-122.646649,45.579515],[-122.646439,45.57942],[-122.644017,45.579412],[-122.644082,45.576606],[-122.644055,45.576454],[-122.644053,45.575494],[-122.643951,45.575054],[-122.643949,45.574078],[-122.643903,45.573995],[-122.643814,45.573936],[-122.643596,45.573895],[-122.643612,45.572804],[-122.646499,45.572796],[-122.646617,45.572763],[-122.646702,45.572693],[-122.646763,45.57257],[-122.646767,45.568683],[-122.649839,45.568679],[-122.649969,45.568669],[-122.650065,45.568621],[-122.650139,45.568552],[-122.650168,45.568467],[-122.650127,45.568232],[-122.650143,45.566532],[-122.660979,45.566595],[-122.66122,45.566659],[-122.66463,45.566671],[-122.664832,45.566576],[-122.664893,45.566445],[-122.664933,45.562977],[-122.672779,45.562935],[-122.673005,45.56287],[-122.673078,45.562792],[-122.673108,45.562708],[-122.673115,45.561404],[-122.674884,45.561394],[-122.675056,45.561329],[-122.675149,45.561213],[-122.675179,45.5584],[-122.675107,45.558204],[-122.675114,45.55597],[-122.675442,45.555736],[-122.676506,45.555731],[-122.676666,45.555667],[-122.67676,45.555551],[-122.676768,45.554872],[-122.678657,45.554874],[-122.678818,45.554818],[-122.678911,45.554702],[-122.678976,45.553481],[-122.679011,45.548085],[-122.67979,45.546812],[-122.681241,45.545497],[-122.686888,45.541388],[-122.690693,45.544303],[-122.694725,45.548082],[-122.697657,45.550541],[-122.70001,45.5517],[-122.702524,45.552498],[-122.70874,45.554817],[-122.711181,45.55567],[-122.718134,45.558531],[-122.722321,45.560546],[-122.729754,45.565226],[-122.730841,45.566165],[-122.723653,45.570557],[-122.721376,45.57272],[-122.720994,45.572987],[-122.720826,45.573142],[-122.720776,45.573235],[-122.720779,45.573341],[-122.720535,45.573491],[-122.719862,45.573801],[-122.718522,45.574269],[-122.717866,45.574427],[-122.714046,45.575087],[-122.712732,45.575082]]]]}},{"type":"Feature","properties":{"name":"Roseway Heights Middle School","school_label":"Roseway Heights Middle School Spanish Immersion, Vietnamese Immersion","cluster":"McDaniel","clusters":[{"name":"McDaniel","share":1.0}],"level":"6-8","area_sqmi":6.96},"geometry":{"type":"MultiPolygon","coordinates":[[[[-122.604716,45.528445],[-122.604709,45.530129],[-122.604662,45.530359],[-122.60464,45.531906],[-122.604563,45.532197],[-122.60454,45.533729],[-122.604554,45.533821],[-122.604676,45.533925],[-122.604797,45.533961],[-122.614552,45.534003],[-122.614514,45.541381],[-122.613798,45.541371],[-122.613485,45.541423],[-122.613238,45.541518],[-122.612946,45.541524],[-122.612346,45.541451],[-122.611909,45.541345],[-122.611529,45.541344],[-122.611227,45.541403],[-122.611045,45.541475],[-122.610999,45.5414],[-122.61082,45.541251],[-122.610699,45.541184],[-122.610436,45.541113],[-122.607842,45.541084],[-122.607838,45.540993],[-122.607759,45.54088],[-122.607659,45.540829],[-122.607474,45.540809],[-122.604208,45.542081],[-122.604124,45.542159],[-122.604095,45.542251],[-122.604134,45.54244],[-122.604077,45.54834],[-122.604144,45.548415],[-122.60432,45.548488],[-122.609107,45.548515],[-122.608315,45.549139],[-122.608149,45.549386],[-122.608018,45.549678],[-122.608011,45.549777],[-122.608118,45.550042],[-122.608125,45.550263],[-122.608161,45.550338],[-122.608706,45.550747],[-122.609157,45.550922],[-122.609157,45.551539],[-122.609188,45.551813],[-122.609269,45.551941],[-122.609379,45.552],[-122.611833,45.552031],[-122.611943,45.55209],[-122.612085,45.55211],[-122.614463,45.552128],[-122.614404,45.555444],[-122.614365,45.555589],[-122.614313,45.559096],[-122.614374,45.559301],[-122.614362,45.560208],[-122.613929,45.560224],[-122.613779,45.560303],[-122.613728,45.560387],[-122.61367,45.562789],[-122.613695,45.56288],[-122.613763,45.562955],[-122.613993,45.563019],[-122.618715,45.563047],[-122.627104,45.562991],[-122.627096,45.563677],[-122.624274,45.563683],[-122.624048,45.563748],[-122.623954,45.563872],[-122.623956,45.564543],[-122.624038,45.564709],[-122.624021,45.565166],[-122.624134,45.565301],[-122.624133,45.566201],[-122.623962,45.566265],[-122.62387,45.566427],[-122.623868,45.568241],[-122.623992,45.568375],[-122.623996,45.570052],[-122.62402,45.570135],[-122.624088,45.57021],[-122.624253,45.570276],[-122.624255,45.571267],[-122.623873,45.571533],[-122.623831,45.571572],[-122.623813,45.571663],[-122.623848,45.574871],[-122.623181,45.575029],[-122.621918,45.57525],[-122.621811,45.575305],[-122.621728,45.575414],[-122.621704,45.577533],[-122.62,45.578486],[-122.619896,45.578618],[-122.619886,45.584585],[-122.619767,45.58897],[-122.619549,45.588943],[-122.61901,45.58845],[-122.618338,45.588158],[-122.617345,45.588031],[-122.616543,45.588061],[-122.615369,45.588357],[-122.61539,45.579859],[-122.615331,45.579731],[-122.615187,45.57965],[-122.613992,45.579634],[-122.613809,45.579668],[-122.612717,45.580427],[-122.611582,45.579648],[-122.604861,45.579634],[-122.602438,45.578634],[-122.599479,45.577835],[-122.59797,45.577855],[-122.596446,45.578363],[-122.596032,45.577075],[-122.595942,45.576962],[-122.595712,45.576898],[-122.588428,45.576939],[-122.575409,45.576916],[-122.575419,45.57338],[-122.575373,45.573297],[-122.575229,45.573208],[-122.565703,45.573075],[-122.565729,45.56998],[-122.566718,45.569993],[-122.566901,45.569959],[-122.567028,45.56985],[-122.567359,45.568739],[-122.567967,45.568751],[-122.568074,45.568703],[-122.568168,45.568587],[-122.568256,45.567008],[-122.568293,45.562961],[-122.578278,45.562917],[-122.578461,45.562884],[-122.578577,45.562782],[-122.578606,45.56269],[-122.578812,45.552764],[-122.578787,45.552673],[-122.578709,45.552598],[-122.578598,45.552547],[-122.578468,45.552534],[-122.576137,45.552607],[-122.57617,45.551341],[-122.578384,45.551347],[-122.578697,45.55131],[-122.578833,45.551163],[-122.578857,45.549951],[-122.578811,45.54986],[-122.578722,45.549801],[-122.578536,45.549759],[-122.569279,45.549751],[-122.56913,45.549837],[-122.56908,45.54996],[-122.569048,45.552559],[-122.568393,45.552426],[-122.568392,45.552076],[-122.568268,45.551933],[-122.565934,45.550969],[-122.565537,45.550756],[-122.563808,45.549377],[-122.563286,45.549013],[-122.563218,45.548945],[-122.563158,45.548771],[-122.563197,45.548633],[-122.563312,45.548502],[-122.563569,45.548406],[-122.56371,45.548395],[-122.56432,45.548461],[-122.564815,45.54836],[-122.567247,45.54837],[-122.567376,45.548352],[-122.567483,45.548297],[-122.567743,45.547965],[-122.567883,45.547604],[-122.567938,45.547321],[-122.568445,45.546572],[-122.568504,45.546411],[-122.568692,45.546179],[-122.568708,45.546027],[-122.568583,45.545526],[-122.568624,45.544809],[-122.568552,45.544604],[-122.568414,45.544386],[-122.56827,45.544305],[-122.56815,45.544284],[-122.563278,45.544272],[-122.56332,45.542618],[-122.56473,45.542615],[-122.564849,45.542583],[-122.564975,45.542481],[-122.56503,45.54088],[-122.564971,45.540752],[-122.564827,45.54067],[-122.562939,45.540651],[-122.562767,45.540715],[-122.562725,45.540746],[-122.562675,45.540877],[-122.562675,45.542157],[-122.559886,45.542139],[-122.560272,45.538123],[-122.560374,45.537633],[-122.560502,45.537219],[-122.560662,45.536836],[-122.561052,45.536165],[-122.561384,45.535717],[-122.56216,45.534903],[-122.562571,45.534568],[-122.563911,45.533752],[-122.568412,45.533709],[-122.568648,45.533643],[-122.568742,45.53352],[-122.56877,45.531782],[-122.570308,45.531731],[-122.571567,45.531739],[-122.572057,45.531776],[-122.57342,45.531987],[-122.574011,45.532136],[-122.57874,45.533705],[-122.581518,45.534691],[-122.582146,45.534984],[-122.583377,45.535427],[-122.584122,45.535649],[-122.585268,45.535865],[-122.58641,45.535943],[-122.587527,45.535915],[-122.588531,45.535783],[-122.589478,45.535544],[-122.590282,45.535271],[-122.591959,45.534478],[-122.599399,45.53063],[-122.603246,45.528601],[-122.603876,45.528315],[-122.604519,45.528082],[-122.604716,45.528445]]],[[[-122.596808,45.579736],[-122.596124,45.579733],[-122.596334,45.579234],[-122.596808,45.579736]]]]}},{"type":"Feature","properties":{"name":"Sellwood Middle School","school_label":"Sellwood Middle School Neighborhood","cluster":"Cleveland","clusters":[{"name":"Cleveland","share":1.0}],"level":"6-8","area_sqmi":4.05},"geometry":{"type":"MultiPolygon","coordinates":[[[[-122.627613,45.479131],[-122.626622,45.478989],[-122.609084,45.478948],[-122.609078,45.475952],[-122.610304,45.472515],[-122.61041,45.47182],[-122.610442,45.461751],[-122.619498,45.461683],[-122.640574,45.461726],[-122.641646,45.46169],[-122.641784,45.461604],[-122.641835,45.461519],[-122.641819,45.46014],[-122.641701,45.45893],[-122.643249,45.458901],[-122.645081,45.458936],[-122.646999,45.45893],[-122.647128,45.458913],[-122.647277,45.458818],[-122.647315,45.458681],[-122.646981,45.455935],[-122.652375,45.455606],[-122.65271,45.458343],[-122.652779,45.458464],[-122.652879,45.458523],[-122.653064,45.45855],[-122.658502,45.458219],[-122.660896,45.457884],[-122.662161,45.459346],[-122.663649,45.461597],[-122.663717,45.461664],[-122.663881,45.461722],[-122.664337,45.461729],[-122.664686,45.463033],[-122.665021,45.463606],[-122.665697,45.46556],[-122.666234,45.468476],[-122.666077,45.472923],[-122.665666,45.475705],[-122.666267,45.477378],[-122.667686,45.478875],[-122.668775,45.480539],[-122.66924,45.482352],[-122.669414,45.485107],[-122.652058,45.488453],[-122.651474,45.487877],[-122.650592,45.487162],[-122.649642,45.486654],[-122.648541,45.486156],[-122.645728,45.484783],[-122.645286,45.48454],[-122.644732,45.484192],[-122.644342,45.483887],[-122.6437,45.48319],[-122.642839,45.481827],[-122.642617,45.481389],[-122.642261,45.480504],[-122.64208,45.479959],[-122.640727,45.474154],[-122.640649,45.474071],[-122.640462,45.474006],[-122.637714,45.474149],[-122.635818,45.474161],[-122.635397,45.474215],[-122.634882,45.474346],[-122.634423,45.474568],[-122.634182,45.474786],[-122.634119,45.475169],[-122.634158,45.475358],[-122.634434,45.475795],[-122.634482,45.475947],[-122.634512,45.476495],[-122.634478,45.476747],[-122.634356,45.476986],[-122.633832,45.477491],[-122.633741,45.477675],[-122.63377,45.477881],[-122.63393,45.478129],[-122.634351,45.478388],[-122.634355,45.478495],[-122.634261,45.478611],[-122.633076,45.478816],[-122.632659,45.478984],[-122.632444,45.479033],[-122.632249,45.479029],[-122.631573,45.478905],[-122.631138,45.47889],[-122.629907,45.479004],[-122.629385,45.478953],[-122.628929,45.478946],[-122.627873,45.479118],[-122.627613,45.479131]]]]}},{"type":"Feature","properties":{"name":"Skyline K-8","school_label":"Skyline K-8 Neighborhood","cluster":"Lincoln","clusters":[{"name":"Lincoln","share":1.0}],"level":"K-8","area_sqmi":39.49},"geometry":{"type":"MultiPolygon","coordinates":[[[[-122.792532,45.619871],[-122.790871,45.619332],[-122.790113,45.616825],[-122.788449,45.613901],[-122.785602,45.609262],[-122.782839,45.604554],[-122.777952,45.597921],[-122.772718,45.591874],[-122.768362,45.588073],[-122.764162,45.584635],[-122.760135,45.582352],[-122.750098,45.578746],[-122.749369,45.578425],[-122.745904,45.576602],[-122.738762,45.571963],[-122.735959,45.56983],[-122.730467,45.565121],[-122.729864,45.564683],[-122.724064,45.56103],[-122.723688,45.560542],[-122.723659,45.554087],[-122.725342,45.552027],[-122.726476,45.552478],[-122.726704,45.552489],[-122.726865,45.552417],[-122.728525,45.55035],[-122.728508,45.550175],[-122.728339,45.55001],[-122.729281,45.549337],[-122.729479,45.549112],[-122.730115,45.548703],[-122.730501,45.548276],[-122.731165,45.547745],[-122.731663,45.547408],[-122.73246,45.54695],[-122.733073,45.546519],[-122.733621,45.546059],[-122.733848,45.545749],[-122.734682,45.545101],[-122.734904,45.544959],[-122.735251,45.544647],[-122.735866,45.544262],[-122.736706,45.544093],[-122.737501,45.543879],[-122.737639,45.543793],[-122.738125,45.54373],[-122.738297,45.543666],[-122.739011,45.543332],[-122.739373,45.543119],[-122.739704,45.54299],[-122.740406,45.542611],[-122.740494,45.542327],[-122.741919,45.543313],[-122.743436,45.544129],[-122.744255,45.544281],[-122.744513,45.544215],[-122.744651,45.544144],[-122.744926,45.543925],[-122.745495,45.543769],[-122.746097,45.544207],[-122.746934,45.544533],[-122.746903,45.548116],[-122.74693,45.548238],[-122.747053,45.548342],[-122.747239,45.548376],[-122.747542,45.548378],[-122.763144,45.548254],[-122.763366,45.5487],[-122.763273,45.554944],[-122.763298,45.555034],[-122.763366,45.555109],[-122.774032,45.562848],[-122.774125,45.569393],[-122.774255,45.569977],[-122.774387,45.570028],[-122.779615,45.570176],[-122.779809,45.570141],[-122.779935,45.57004],[-122.779965,45.569948],[-122.779861,45.563144],[-122.779818,45.557665],[-122.780305,45.557624],[-122.780834,45.557835],[-122.781085,45.557853],[-122.782367,45.557035],[-122.783059,45.55667],[-122.784801,45.555942],[-122.804456,45.555915],[-122.80505,45.556109],[-122.805033,45.562809],[-122.805598,45.563117],[-122.81774,45.563269],[-122.820344,45.563216],[-122.821895,45.563233],[-122.8219,45.56357],[-122.824246,45.563603],[-122.825003,45.564555],[-122.824976,45.565151],[-122.824989,45.566044],[-122.825232,45.57752],[-122.825236,45.577631],[-122.825433,45.577888],[-122.827478,45.578069],[-122.838058,45.578017],[-122.841446,45.578039],[-122.845841,45.578115],[-122.845821,45.580051],[-122.845702,45.584501],[-122.845769,45.591942],[-122.845772,45.592017],[-122.84583,45.592127],[-122.845997,45.59231],[-122.846106,45.592382],[-122.846401,45.592469],[-122.86646,45.592477],[-122.866425,45.605838],[-122.867475,45.606821],[-122.87753,45.606739],[-122.886485,45.606922],[-122.886807,45.60818],[-122.886814,45.617093],[-122.886783,45.620518],[-122.886846,45.620721],[-122.887013,45.620904],[-122.887283,45.621028],[-122.887577,45.621078],[-122.907761,45.621281],[-122.908071,45.628066],[-122.908051,45.634002],[-122.908145,45.63547],[-122.908174,45.635526],[-122.908392,45.63567],[-122.908687,45.635757],[-122.91012,45.6358],[-122.918574,45.635936],[-122.927018,45.635847],[-122.927931,45.636684],[-122.92807,45.65006],[-122.928057,45.658973],[-122.928152,45.670824],[-122.919641,45.670728],[-122.918298,45.671482],[-122.918496,45.672911],[-122.918061,45.674409],[-122.917737,45.678305],[-122.917773,45.678527],[-122.917942,45.678728],[-122.91805,45.678782],[-122.920123,45.678905],[-122.926486,45.678954],[-122.928016,45.679368],[-122.928164,45.692353],[-122.919148,45.692304],[-122.908561,45.692103],[-122.891642,45.69196],[-122.88952,45.691949],[-122.887487,45.692123],[-122.887335,45.692275],[-122.887292,45.692499],[-122.887346,45.699531],[-122.887415,45.703977],[-122.887403,45.705466],[-122.886515,45.70634],[-122.882299,45.706355],[-122.878052,45.706259],[-122.873122,45.706288],[-122.872361,45.702359],[-122.872243,45.700334],[-122.871738,45.697944],[-122.871654,45.697257],[-122.871761,45.694948],[-122.872003,45.694422],[-122.872174,45.693525],[-122.87203,45.692095],[-122.871813,45.691969],[-122.871652,45.691936],[-122.869981,45.691915],[-122.868625,45.691236],[-122.86827,45.690425],[-122.86721,45.686893],[-122.866818,45.68465],[-122.866845,45.681728],[-122.867595,45.679554],[-122.867998,45.678485],[-122.868462,45.676428],[-122.868241,45.675652],[-122.868155,45.675505],[-122.866604,45.673435],[-122.862962,45.671408],[-122.860749,45.669929],[-122.859503,45.668727],[-122.858384,45.666815],[-122.857766,45.666028],[-122.856828,45.664615],[-122.855482,45.663564],[-122.853349,45.662064],[-122.850919,45.660459],[-122.849557,45.659631],[-122.847963,45.658343],[-122.845259,45.655943],[-122.843993,45.654872],[-122.842567,45.653785],[-122.840992,45.652925],[-122.835081,45.651056],[-122.829558,45.648956],[-122.827725,45.647654],[-122.826729,45.646689],[-122.825582,45.645317],[-122.824837,45.644049],[-122.824011,45.64213],[-122.822908,45.638738],[-122.822935,45.640778],[-122.82134,45.635816],[-122.820543,45.633446],[-122.820282,45.632872],[-122.818901,45.630599],[-122.81771,45.629014],[-122.816898,45.627941],[-122.816454,45.627416],[-122.815314,45.626296],[-122.809764,45.622673],[-122.804625,45.620147],[-122.802366,45.619598],[-122.801534,45.619424],[-122.798951,45.619232],[-122.79808,45.619196],[-122.796358,45.619337],[-122.794649,45.619531],[-122.793795,45.619647],[-122.792532,45.619871]]]]}},{"type":"Feature","properties":{"name":"Sunnyside Environmental K-8","school_label":"Sunnyside Environmental K-8 Neighborhood","cluster":"Franklin","clusters":[{"name":"Franklin","share":1.0}],"level":"K-8","area_sqmi":0.65},"geometry":{"type":"MultiPolygon","coordinates":[[[[-122.631934,45.524108],[-122.631946,45.522584],[-122.63186,45.521983],[-122.631673,45.521911],[-122.629796,45.5219],[-122.628434,45.522024],[-122.628084,45.521947],[-122.627758,45.521922],[-122.626719,45.521987],[-122.625867,45.522125],[-122.624197,45.522469],[-122.623279,45.522569],[-122.623293,45.519551],[-122.623262,45.517722],[-122.623209,45.516496],[-122.623174,45.516421],[-122.623085,45.516354],[-122.62291,45.516311],[-122.622684,45.516361],[-122.619679,45.516356],[-122.619684,45.515258],[-122.620226,45.515241],[-122.620333,45.515193],[-122.620416,45.515085],[-122.62044,45.512646],[-122.620807,45.512288],[-122.642574,45.512318],[-122.643167,45.512513],[-122.643156,45.51284],[-122.643084,45.512948],[-122.643079,45.513116],[-122.642601,45.513384],[-122.642406,45.513388],[-122.642234,45.513452],[-122.642152,45.513568],[-122.642125,45.516221],[-122.642003,45.516757],[-122.639389,45.516744],[-122.638747,45.517008],[-122.638724,45.518837],[-122.638757,45.519447],[-122.638857,45.519521],[-122.638977,45.519557],[-122.641104,45.519563],[-122.641043,45.522155],[-122.640876,45.522654],[-122.634791,45.52266],[-122.634093,45.522879],[-122.634093,45.524114],[-122.631934,45.524108]]]]}},{"type":"Feature","properties":{"name":"Vernon K-8","school_label":"Vernon K-8 Neighborhood","cluster":"Jefferson","clusters":[{"name":"Jefferson","share":1.0}],"level":"K-8","area_sqmi":1.13},"geometry":{"type":"MultiPolygon","coordinates":[[[[-122.641489,45.568004],[-122.641489,45.566473],[-122.641073,45.566054],[-122.638468,45.566064],[-122.638278,45.56558],[-122.638286,45.562714],[-122.638261,45.562631],[-122.638182,45.562548],[-122.637323,45.562488],[-122.629486,45.562512],[-122.620784,45.562589],[-122.614324,45.562564],[-122.614356,45.560978],[-122.61495,45.560571],[-122.615011,45.56044],[-122.615025,45.559281],[-122.614963,45.559069],[-122.615008,45.555654],[-122.615057,45.555508],[-122.615081,45.553999],[-122.620128,45.554005],[-122.621135,45.553948],[-122.625356,45.553915],[-122.630186,45.553925],[-122.630184,45.555449],[-122.630219,45.55551],[-122.631027,45.555632],[-122.642348,45.555672],[-122.642422,45.556227],[-122.64241,45.557744],[-122.642456,45.557827],[-122.642545,45.557887],[-122.642731,45.557929],[-122.649711,45.557951],[-122.650209,45.558216],[-122.650186,45.560045],[-122.65091,45.560245],[-122.651778,45.560252],[-122.652149,45.560603],[-122.652138,45.56183],[-122.652185,45.561951],[-122.65233,45.56204],[-122.65246,45.562053],[-122.654566,45.562059],[-122.654648,45.562842],[-122.654826,45.562961],[-122.655131,45.562978],[-122.655629,45.563243],[-122.6556,45.566109],[-122.650106,45.566075],[-122.649497,45.566376],[-122.649488,45.566407],[-122.649475,45.568213],[-122.646436,45.568225],[-122.64621,45.56829],[-122.646137,45.568367],[-122.645983,45.568911],[-122.643627,45.568917],[-122.643588,45.568125],[-122.643477,45.568036],[-122.643302,45.568001],[-122.641489,45.568004]]]]}},{"type":"Feature","properties":{"name":"West Sylvan Middle School","school_label":"West Sylvan Middle School Spanish Immersion","cluster":"Lincoln","clusters":[{"name":"Lincoln","share":1.0}],"level":"6-8","area_sqmi":16.38},"geometry":{"type":"MultiPolygon","coordinates":[[[[-122.691564,45.489731],[-122.693463,45.489794],[-122.694395,45.489791],[-122.69514,45.489701],[-122.695236,45.489669],[-122.695352,45.489575],[-122.698085,45.489583],[-122.698211,45.489787],[-122.698378,45.48989],[-122.698773,45.490035],[-122.699112,45.49012],[-122.699202,45.490217],[-122.699284,45.490673],[-122.699433,45.490914],[-122.699614,45.491124],[-122.699704,45.491214],[-122.699859,45.491295],[-122.700407,45.49146],[-122.70043,45.491505],[-122.700295,45.491965],[-122.700283,45.492216],[-122.700331,45.49236],[-122.700512,45.49257],[-122.700733,45.49268],[-122.701243,45.492693],[-122.702274,45.492422],[-122.702601,45.492477],[-122.702844,45.492579],[-122.703261,45.493036],[-122.70316,45.493541],[-122.703212,45.493784],[-122.703336,45.493911],[-122.703546,45.494006],[-122.703709,45.494041],[-122.704089,45.494049],[-122.704013,45.494332],[-122.704054,45.494575],[-122.704135,45.494711],[-122.704359,45.494905],[-122.704611,45.494984],[-122.70486,45.494987],[-122.705656,45.494811],[-122.706122,45.49481],[-122.706428,45.494857],[-122.706001,45.495361],[-122.705895,45.495424],[-122.705697,45.495626],[-122.705646,45.495734],[-122.705664,45.495924],[-122.7058,45.496089],[-122.705944,45.496178],[-122.706196,45.496257],[-122.707119,45.496292],[-122.707915,45.496414],[-122.708189,45.4965],[-122.7084,45.496618],[-122.709015,45.49714],[-122.709748,45.497613],[-122.710368,45.498562],[-122.710718,45.499546],[-122.71065,45.500073],[-122.71066,45.500949],[-122.710569,45.501126],[-122.710733,45.501466],[-122.710957,45.501668],[-122.711123,45.501748],[-122.711884,45.501817],[-122.713175,45.502417],[-122.713348,45.502407],[-122.713455,45.502366],[-122.713866,45.502038],[-122.714449,45.501661],[-122.715135,45.501145],[-122.716668,45.500361],[-122.716893,45.500288],[-122.717001,45.500301],[-122.717497,45.500512],[-122.71778,45.500545],[-122.717931,45.500519],[-122.718102,45.500455],[-122.718249,45.50033],[-122.718539,45.499936],[-122.719229,45.499541],[-122.719753,45.499348],[-122.720356,45.499215],[-122.720659,45.499201],[-122.722533,45.499439],[-122.724369,45.498664],[-122.724766,45.498535],[-122.725607,45.498427],[-122.726088,45.498509],[-122.726521,45.498508],[-122.727049,45.498414],[-122.728016,45.498167],[-122.728959,45.498171],[-122.729404,45.498467],[-122.729423,45.500769],[-122.729482,45.500897],[-122.729691,45.500992],[-122.730007,45.501024],[-122.730064,45.501107],[-122.730241,45.501187],[-122.731195,45.501192],[-122.731313,45.501159],[-122.73144,45.501057],[-122.731468,45.50066],[-122.731989,45.500666],[-122.732078,45.500732],[-122.732199,45.500768],[-122.732622,45.500783],[-122.732653,45.501018],[-122.73272,45.501093],[-122.732885,45.501151],[-122.733254,45.501159],[-122.733266,45.502653],[-122.733325,45.502789],[-122.733424,45.502848],[-122.733675,45.502873],[-122.733996,45.50276],[-122.734261,45.502885],[-122.734598,45.502909],[-122.734716,45.502868],[-122.734811,45.502798],[-122.735952,45.501389],[-122.736028,45.501387],[-122.734967,45.502627],[-122.734896,45.502758],[-122.734978,45.502932],[-122.735741,45.503321],[-122.735678,45.503398],[-122.735238,45.503521],[-122.735049,45.50367],[-122.734804,45.504086],[-122.734724,45.504583],[-122.734794,45.504711],[-122.73497,45.504784],[-122.736154,45.50483],[-122.736391,45.504794],[-122.736507,45.504693],[-122.736711,45.504361],[-122.736899,45.50416],[-122.738084,45.503359],[-122.738135,45.503274],[-122.738141,45.503122],[-122.738526,45.502992],[-122.73891,45.50252],[-122.738896,45.502429],[-122.738598,45.501992],[-122.738679,45.501838],[-122.738956,45.501703],[-122.739048,45.501549],[-122.739057,45.493226],[-122.740433,45.493214],[-122.743531,45.493725],[-122.743538,45.498047],[-122.743629,45.498159],[-122.743783,45.498225],[-122.746398,45.498273],[-122.746592,45.498231],[-122.746984,45.498292],[-122.74721,45.498234],[-122.74747,45.498229],[-122.7477,45.498301],[-122.750304,45.498349],[-122.750462,45.498498],[-122.750572,45.498549],[-122.751007,45.498579],[-122.751232,45.498498],[-122.751323,45.498321],[-122.751853,45.4986],[-122.752895,45.498915],[-122.753142,45.498842],[-122.753463,45.498431],[-122.753912,45.498567],[-122.754096,45.498541],[-122.754285,45.498392],[-122.756045,45.498472],[-122.757411,45.498476],[-122.757626,45.498418],[-122.757812,45.498475],[-122.758452,45.498486],[-122.758612,45.498406],[-122.758663,45.498321],[-122.75868,45.497902],[-122.759175,45.498075],[-122.759628,45.498318],[-122.76009,45.498507],[-122.760529,45.498643],[-122.761053,45.498739],[-122.762733,45.498424],[-122.763549,45.498484],[-122.763599,45.500998],[-122.763645,45.501081],[-122.763789,45.501162],[-122.764343,45.501197],[-122.764337,45.501601],[-122.764164,45.501635],[-122.764069,45.501698],[-122.763948,45.501937],[-122.764059,45.502293],[-122.764137,45.502352],[-122.764313,45.50241],[-122.76398,45.502515],[-122.763907,45.502585],[-122.763878,45.50267],[-122.763962,45.502904],[-122.763956,45.505077],[-122.764015,45.505197],[-122.764159,45.505286],[-122.764105,45.505859],[-122.761671,45.505747],[-122.75999,45.505719],[-122.759155,45.50572],[-122.75818,45.50577],[-122.758043,45.505856],[-122.757993,45.505979],[-122.758002,45.507679],[-122.75103,45.507701],[-122.750912,45.507734],[-122.750796,45.507836],[-122.750767,45.507928],[-122.750766,45.508187],[-122.747286,45.508225],[-122.747156,45.508242],[-122.74705,45.508298],[-122.746988,45.508375],[-122.746969,45.508467],[-122.746796,45.50847],[-122.746649,45.508298],[-122.746528,45.508247],[-122.746212,45.50823],[-122.745997,45.507968],[-122.745766,45.507889],[-122.744949,45.508072],[-122.744843,45.508143],[-122.744783,45.508274],[-122.74487,45.512113],[-122.743806,45.512096],[-122.743593,45.512192],[-122.743533,45.512322],[-122.743498,45.523161],[-122.743589,45.523281],[-122.743755,45.523347],[-122.758986,45.523383],[-122.758991,45.526744],[-122.759016,45.526835],[-122.759139,45.526932],[-122.759314,45.526974],[-122.761734,45.52698],[-122.761724,45.527582],[-122.761815,45.527702],[-122.76198,45.527767],[-122.762837,45.527766],[-122.762815,45.529801],[-122.762919,45.529959],[-122.763138,45.530023],[-122.763116,45.53119],[-122.763141,45.531281],[-122.763209,45.531356],[-122.763374,45.531413],[-122.764101,45.531422],[-122.764182,45.531542],[-122.764292,45.531594],[-122.765703,45.531604],[-122.7657,45.533867],[-122.76576,45.533996],[-122.765904,45.534084],[-122.774842,45.534029],[-122.774991,45.53395],[-122.77504,45.53382],[-122.775059,45.530542],[-122.779551,45.530567],[-122.779474,45.531979],[-122.779438,45.533915],[-122.779486,45.534044],[-122.77963,45.534125],[-122.77975,45.534145],[-122.784517,45.534233],[-122.784389,45.542094],[-122.782371,45.542096],[-122.782187,45.54213],[-122.782052,45.54227],[-122.782057,45.5424],[-122.782977,45.543494],[-122.782827,45.543558],[-122.782616,45.543417],[-122.782375,45.543376],[-122.782215,45.543433],[-122.782008,45.543704],[-122.779728,45.542225],[-122.779488,45.542199],[-122.779286,45.542302],[-122.779238,45.542471],[-122.780173,45.54541],[-122.780389,45.545954],[-122.780269,45.545956],[-122.777392,45.544466],[-122.777272,45.544461],[-122.777101,45.544518],[-122.776545,45.54504],[-122.776485,45.545163],[-122.776499,45.545254],[-122.776611,45.545358],[-122.778083,45.546122],[-122.778005,45.548379],[-122.778053,45.548508],[-122.778143,45.548575],[-122.778263,45.54861],[-122.784375,45.548649],[-122.784386,45.555585],[-122.782175,45.556536],[-122.780946,45.557353],[-122.779581,45.556831],[-122.779321,45.556851],[-122.779226,45.556922],[-122.779175,45.557007],[-122.77921,45.562852],[-122.779304,45.569709],[-122.774783,45.569586],[-122.774679,45.562751],[-122.774631,45.56263],[-122.763932,45.554854],[-122.764025,45.548016],[-122.763966,45.547887],[-122.763821,45.547806],[-122.76369,45.547786],[-122.747558,45.54792],[-122.747582,45.544445],[-122.74761,45.544337],[-122.747552,45.544216],[-122.747407,45.544135],[-122.747091,45.544088],[-122.746718,45.543974],[-122.746374,45.543767],[-122.745771,45.543306],[-122.745594,45.543218],[-122.745419,45.543176],[-122.745223,45.543165],[-122.744943,45.543223],[-122.744709,45.54335],[-122.744258,45.543786],[-122.744195,45.543817],[-122.743978,45.543822],[-122.743813,45.543764],[-122.742507,45.543065],[-122.740436,45.541658],[-122.74025,45.541616],[-122.740121,45.541641],[-122.739972,45.541728],[-122.739932,45.54182],[-122.739823,45.542378],[-122.739503,45.542545],[-122.738968,45.542753],[-122.738257,45.543179],[-122.737882,45.5433],[-122.737407,45.543363],[-122.737001,45.543554],[-122.736107,45.543731],[-122.735128,45.543971],[-122.734752,45.54436],[-122.734405,45.544664],[-122.733338,45.545462],[-122.732945,45.545973],[-122.732742,45.546076],[-122.731865,45.546725],[-122.731259,45.54705],[-122.730878,45.547324],[-122.730495,45.547522],[-122.730211,45.547771],[-122.730118,45.547903],[-122.729959,45.54802],[-122.729574,45.548447],[-122.729042,45.548754],[-122.728781,45.549041],[-122.728622,45.549128],[-122.728316,45.54937],[-122.728167,45.549442],[-122.727787,45.549747],[-122.727652,45.549917],[-122.727626,45.550085],[-122.727829,45.550295],[-122.72649,45.551959],[-122.725322,45.551494],[-122.725073,45.551506],[-122.724936,45.551601],[-122.723232,45.553684],[-122.723025,45.553955],[-122.723006,45.554031],[-122.723031,45.560379],[-122.722709,45.560172],[-122.718499,45.558143],[-122.711503,45.555267],[-122.709029,45.554408],[-122.702824,45.552088],[-122.70031,45.551291],[-122.698067,45.550183],[-122.695235,45.547798],[-122.691181,45.543996],[-122.684677,45.539022],[-122.683074,45.537894],[-122.678796,45.535071],[-122.67464,45.53201],[-122.670788,45.528653],[-122.669219,45.527227],[-122.668189,45.52634],[-122.667877,45.523968],[-122.668088,45.522272],[-122.668697,45.519852],[-122.669796,45.517827],[-122.67028,45.516202],[-122.67086,45.513592],[-122.670894,45.512402],[-122.670048,45.509972],[-122.66804,45.506268],[-122.665805,45.502865],[-122.665693,45.502151],[-122.665731,45.501395],[-122.67435,45.500729],[-122.676836,45.500507],[-122.677148,45.500463],[-122.677718,45.500322],[-122.677856,45.500228],[-122.677876,45.500182],[-122.678105,45.500216],[-122.678249,45.500297],[-122.678317,45.50038],[-122.678354,45.500524],[-122.678378,45.500874],[-122.678413,45.500965],[-122.678547,45.501069],[-122.678743,45.501088],[-122.678872,45.501063],[-122.678998,45.500953],[-122.679173,45.500379],[-122.680334,45.500402],[-122.680669,45.500381],[-122.680849,45.50024],[-122.680856,45.500141],[-122.680493,45.499378],[-122.680055,45.498655],[-122.678617,45.496045],[-122.6784,45.495736],[-122.678175,45.495497],[-122.677788,45.494994],[-122.677568,45.494586],[-122.677239,45.493266],[-122.677233,45.492794],[-122.677318,45.492442],[-122.677429,45.492203],[-122.677593,45.491956],[-122.677833,45.491693],[-122.678276,45.491334],[-122.67869,45.491089],[-122.679182,45.490905],[-122.680472,45.490613],[-122.681428,45.490351],[-122.681918,45.490113],[-122.682404,45.489754],[-122.6844,45.489792],[-122.684391,45.490447],[-122.684482,45.490568],[-122.684647,45.490625],[-122.690146,45.490719],[-122.690276,45.490709],[-122.690456,45.490591],[-122.690791,45.489639],[-122.691116,45.489656],[-122.691266,45.489592],[-122.691564,45.489731]]]]}}]}