{"type":"FeatureCollection","features":[{"type":"Feature","properties":{"name":"Cleveland High School","school_label":"Cleveland High School Mandarin Immersion","cluster":"Cleveland","level":"9-12","area_sqmi":12.83},"geometry":{"type":"MultiPolygon","coordinates":[[[[-122.668315,45.535102],[-122.644726,45.535035],[-122.644758,45.530073],[-122.636148,45.530492],[-122.635264,45.530661],[-122.634792,45.530807],[-122.634428,45.530326],[-122.634391,45.530205],[-122.634418,45.522888],[-122.641359,45.52288],[-122.64143,45.519335],[-122.639033,45.519327],[-122.63907,45.516978],[-122.642443,45.516984],[-122.642466,45.513615],[-122.64341,45.51362],[-122.643409,45.512988],[-122.643483,45.51291],[-122.643497,45.512094],[-122.622771,45.512061],[-122.622598,45.505502],[-122.622599,45.500525],[-122.626199,45.500527],[-122.626206,45.49981],[-122.628548,45.499813],[-122.628556,45.499096],[-122.626203,45.499102],[-122.626186,45.497059],[-122.625873,45.49708],[-122.625806,45.496716],[-122.62576,45.496648],[-122.624441,45.496139],[-122.624104,45.496092],[-122.622629,45.496081],[-122.622631,45.493345],[-122.619205,45.49334],[-122.619018,45.493252],[-122.618947,45.493093],[-122.618981,45.490311],[-122.605679,45.490297],[-122.605703,45.4891],[-122.605657,45.489032],[-122.605672,45.487896],[-122.604025,45.487896],[-122.604059,45.485426],[-122.604688,45.485429],[-122.604721,45.483874],[-122.602141,45.483876],[-122.602157,45.483068],[-122.599588,45.483061],[-122.599626,45.480081],[-122.597047,45.480074],[-122.597095,45.477383],[-122.594505,45.477385],[-122.594492,45.478262],[-122.591316,45.478251],[-122.591327,45.475423],[-122.592303,45.475421],[-122.592297,45.475886],[-122.598419,45.475842],[-122.604857,45.475839],[-122.604837,45.468652],[-122.594272,45.468655],[-122.594268,45.471094],[-122.588992,45.471129],[-122.588742,45.471119],[-122.58825,45.47099],[-122.579105,45.471027],[-122.579098,45.463482],[-122.579195,45.461529],[-122.585532,45.461498],[-122.586909,45.461534],[-122.589445,45.461533],[-122.602749,45.461488],[-122.610909,45.461521],[-122.619499,45.461453],[-122.640478,45.461498],[-122.641507,45.461478],[-122.641493,45.460153],[-122.641356,45.458715],[-122.643239,45.458672],[-122.646989,45.458701],[-122.646625,45.45572],[-122.652668,45.455355],[-122.653033,45.45832],[-122.658471,45.457989],[-122.661058,45.457628],[-122.662448,45.459233],[-122.663937,45.461499],[-122.664608,45.461502],[-122.664997,45.462996],[-122.66533,45.46353],[-122.666018,45.465514],[-122.666557,45.468469],[-122.666401,45.472938],[-122.665989,45.47569],[-122.666566,45.477287],[-122.667973,45.478762],[-122.669085,45.480463],[-122.669563,45.482322],[-122.669789,45.485953],[-122.669255,45.489522],[-122.666556,45.49596],[-122.665461,45.500234],[-122.665366,45.502149],[-122.66548,45.502924],[-122.667739,45.506357],[-122.669746,45.510046],[-122.670568,45.512438],[-122.670532,45.513567],[-122.670405,45.514255],[-122.669963,45.516154],[-122.669478,45.517779],[-122.668378,45.519789],[-122.66776,45.52224],[-122.667551,45.523974],[-122.667866,45.526429],[-122.674058,45.531868],[-122.671366,45.533352],[-122.668315,45.535102]]]]}},{"type":"Feature","properties":{"name":"Franklin High School","school_label":"Franklin High School Russian Immersion, Spanish Immersion","cluster":"Franklin","level":"9-12","area_sqmi":9.44},"geometry":{"type":"MultiPolygon","coordinates":[[[[-122.596286,45.531944],[-122.596378,45.528285],[-122.596985,45.528296],[-122.596989,45.52649],[-122.593355,45.526488],[-122.59336,45.525383],[-122.592351,45.525378],[-122.592363,45.524151],[-122.591832,45.524153],[-122.591851,45.522171],[-122.591531,45.522002],[-122.590806,45.521733],[-122.589792,45.521264],[-122.587982,45.520367],[-122.58811,45.520288],[-122.58837,45.520291],[-122.588499,45.520258],[-122.588551,45.520196],[-122.58856,45.520135],[-122.588466,45.519916],[-122.588477,45.519283],[-122.588561,45.519221],[-122.578971,45.519151],[-122.578672,45.513532],[-122.578594,45.511247],[-122.578642,45.500523],[-122.578767,45.491428],[-122.578619,45.49153],[-122.576798,45.491525],[-122.576768,45.490977],[-122.576776,45.490252],[-122.574944,45.490263],[-122.573901,45.490167],[-122.571405,45.490091],[-122.5666,45.490017],[-122.558321,45.489808],[-122.555741,45.489801],[-122.555728,45.489085],[-122.555099,45.489081],[-122.555104,45.488906],[-122.553153,45.48891],[-122.553156,45.488026],[-122.554685,45.488037],[-122.554846,45.488003],[-122.558314,45.487987],[-122.558278,45.483681],[-122.553156,45.483834],[-122.553166,45.482813],[-122.552824,45.482651],[-122.552836,45.481721],[-122.552902,45.481728],[-122.552913,45.481407],[-122.55294,45.478343],[-122.558306,45.478361],[-122.558325,45.476989],[-122.555565,45.476459],[-122.555571,45.475362],[-122.555777,45.475358],[-122.555799,45.471798],[-122.553232,45.471844],[-122.553228,45.471395],[-122.555787,45.471128],[-122.555804,45.470007],[-122.556302,45.470006],[-122.556298,45.469564],[-122.55581,45.46955],[-122.555812,45.468971],[-122.556397,45.468968],[-122.556474,45.468661],[-122.556604,45.468659],[-122.556589,45.468217],[-122.555798,45.468232],[-122.555806,45.467477],[-122.557204,45.467482],[-122.557213,45.467756],[-122.557484,45.467752],[-122.557475,45.467485],[-122.558363,45.467477],[-122.55837,45.465411],[-122.558677,45.465528],[-122.559244,45.465639],[-122.559265,45.464633],[-122.553209,45.464673],[-122.553196,45.461068],[-122.558311,45.461076],[-122.568788,45.461382],[-122.572104,45.461406],[-122.579195,45.461529],[-122.579098,45.463482],[-122.579105,45.471027],[-122.58825,45.47099],[-122.588742,45.471119],[-122.588992,45.471129],[-122.594268,45.471094],[-122.594272,45.468655],[-122.604837,45.468652],[-122.604857,45.475839],[-122.598419,45.475842],[-122.592297,45.475886],[-122.592303,45.475421],[-122.591327,45.475423],[-122.591316,45.478251],[-122.594492,45.478262],[-122.594505,45.477385],[-122.597095,45.477383],[-122.597047,45.480074],[-122.599626,45.480081],[-122.599588,45.483061],[-122.602157,45.483068],[-122.602141,45.483876],[-122.604721,45.483874],[-122.604688,45.485429],[-122.604059,45.485426],[-122.604025,45.487896],[-122.605672,45.487896],[-122.605657,45.489032],[-122.605703,45.4891],[-122.605679,45.490297],[-122.618981,45.490311],[-122.618947,45.493093],[-122.619018,45.493252],[-122.619205,45.49334],[-122.622631,45.493345],[-122.622629,45.496081],[-122.624104,45.496092],[-122.624441,45.496139],[-122.62576,45.496648],[-122.625806,45.496716],[-122.625873,45.49708],[-122.626186,45.497059],[-122.626203,45.499102],[-122.628556,45.499096],[-122.628548,45.499813],[-122.626206,45.49981],[-122.626199,45.500527],[-122.622599,45.500525],[-122.622598,45.505502],[-122.622771,45.512061],[-122.643497,45.512094],[-122.643483,45.51291],[-122.643409,45.512988],[-122.64341,45.51362],[-122.642466,45.513615],[-122.642443,45.516984],[-122.63907,45.516978],[-122.639033,45.519327],[-122.64143,45.519335],[-122.641359,45.52288],[-122.634418,45.522888],[-122.634425,45.524344],[-122.631604,45.524335],[-122.631614,45.522132],[-122.629499,45.522141],[-122.628918,45.522259],[-122.628647,45.522279],[-122.627862,45.522156],[-122.627169,45.522177],[-122.625884,45.522353],[-122.624236,45.522696],[-122.62348,45.522786],[-122.622949,45.522804],[-122.622955,45.521721],[-122.622597,45.52172],[-122.622606,45.521362],[-122.619699,45.521362],[-122.619419,45.521398],[-122.618623,45.521596],[-122.618288,45.521632],[-122.617344,45.521635],[-122.617335,45.521993],[-122.616055,45.521978],[-122.616073,45.523137],[-122.615487,45.523132],[-122.614896,45.522991],[-122.614902,45.5244],[-122.613351,45.524399],[-122.61335,45.524688],[-122.612623,45.524686],[-122.612615,45.525098],[-122.611932,45.525095],[-122.611929,45.524379],[-122.607536,45.524376],[-122.607337,45.524288],[-122.605331,45.524287],[-122.605309,45.526505],[-122.604691,45.526509],[-122.604702,45.527781],[-122.604208,45.527928],[-122.603705,45.52812],[-122.603064,45.528414],[-122.596286,45.531944]]]]}},{"type":"Feature","properties":{"name":"Grant High School","school_label":"Grant High School Japanese Immersion","cluster":"Grant","level":"9-12","area_sqmi":3.98},"geometry":{"type":"MultiPolygon","coordinates":[[[[-122.633666,45.555415],[-122.630507,45.555405],[-122.630513,45.553698],[-122.625357,45.553687],[-122.621245,45.553717],[-122.620388,45.553725],[-122.620129,45.553776],[-122.614756,45.553753],[-122.614779,45.551901],[-122.612087,45.551882],[-122.612073,45.551798],[-122.609512,45.551792],[-122.609481,45.551541],[-122.609487,45.550748],[-122.609115,45.550664],[-122.608927,45.550576],[-122.608448,45.550219],[-122.608441,45.550013],[-122.608324,45.549756],[-122.608516,45.549341],[-122.608599,45.549248],[-122.609455,45.548561],[-122.609513,45.548377],[-122.609467,45.548287],[-122.604387,45.548258],[-122.604457,45.542419],[-122.604419,45.54226],[-122.607513,45.541029],[-122.607512,45.541311],[-122.610279,45.541329],[-122.610509,45.54137],[-122.610709,45.541512],[-122.610803,45.541738],[-122.610821,45.541929],[-122.611128,45.54171],[-122.611535,45.541573],[-122.611828,45.541567],[-122.612408,45.541694],[-122.61292,45.541753],[-122.613147,45.541749],[-122.613353,45.541737],[-122.613567,45.541642],[-122.613815,45.541599],[-122.614835,45.541603],[-122.614843,45.541512],[-122.614868,45.533783],[-122.604864,45.533731],[-122.604887,45.532199],[-122.604954,45.531931],[-122.604988,45.530406],[-122.605033,45.53013],[-122.605038,45.5284],[-122.604702,45.527781],[-122.604691,45.526509],[-122.605309,45.526505],[-122.605331,45.524287],[-122.607337,45.524288],[-122.607536,45.524376],[-122.611929,45.524379],[-122.611932,45.525095],[-122.612615,45.525098],[-122.612623,45.524686],[-122.61335,45.524688],[-122.613351,45.524399],[-122.614902,45.5244],[-122.614896,45.522991],[-122.615487,45.523132],[-122.616073,45.523137],[-122.616055,45.521978],[-122.617335,45.521993],[-122.617344,45.521635],[-122.618288,45.521632],[-122.618623,45.521596],[-122.619419,45.521398],[-122.619699,45.521362],[-122.622606,45.521362],[-122.622597,45.52172],[-122.622955,45.521721],[-122.622949,45.522804],[-122.62348,45.522786],[-122.624236,45.522696],[-122.625884,45.522353],[-122.627169,45.522177],[-122.627862,45.522156],[-122.628647,45.522279],[-122.628918,45.522259],[-122.629499,45.522141],[-122.631614,45.522132],[-122.631604,45.524335],[-122.634425,45.524344],[-122.634391,45.530205],[-122.634428,45.530326],[-122.634792,45.530807],[-122.635264,45.530661],[-122.636148,45.530492],[-122.644758,45.530073],[-122.644726,45.535035],[-122.664594,45.535111],[-122.664586,45.535813],[-122.663577,45.535809],[-122.663559,45.536525],[-122.66408,45.536523],[-122.664067,45.537087],[-122.661528,45.537082],[-122.661464,45.543836],[-122.661492,45.544643],[-122.661342,45.544692],[-122.658455,45.544678],[-122.658417,45.548207],[-122.658452,45.548283],[-122.654317,45.548269],[-122.654346,45.546012],[-122.655355,45.546009],[-122.655371,45.545216],[-122.640958,45.545173],[-122.640968,45.548244],[-122.640905,45.550776],[-122.640497,45.550593],[-122.640256,45.550841],[-122.640229,45.551002],[-122.64007,45.551112],[-122.638779,45.552957],[-122.638783,45.553087],[-122.633692,45.553067],[-122.633666,45.555415]]]]}},{"type":"Feature","properties":{"name":"Jefferson High School","school_label":"Jefferson High School Mandarin Immersion","cluster":"Jefferson","level":"9-12","area_sqmi":28.31},"geometry":{"type":"MultiPolygon","coordinates":[[[[-122.712896,45.636364],[-122.70602,45.63347],[-122.698795,45.629028],[-122.688108,45.623478],[-122.682508,45.62094],[-122.674791,45.617847],[-122.667864,45.61525],[-122.660608,45.613161],[-122.648796,45.609389],[-122.643358,45.607982],[-122.635024,45.606689],[-122.634921,45.600929],[-122.635051,45.599364],[-122.635206,45.598211],[-122.635388,45.596279],[-122.6354,45.595692],[-122.635499,45.595416],[-122.635505,45.594356],[-122.630411,45.594352],[-122.63042,45.590541],[-122.62009,45.589239],[-122.620211,45.584587],[-122.620212,45.578666],[-122.622022,45.577641],[-122.622055,45.575461],[-122.623274,45.575248],[-122.624179,45.575041],[-122.624137,45.571665],[-122.624583,45.57136],[-122.624581,45.570057],[-122.62432,45.570046],[-122.624313,45.568278],[-122.62419,45.568197],[-122.624194,45.566421],[-122.624454,45.566416],[-122.624455,45.565204],[-122.624344,45.565122],[-122.624361,45.564672],[-122.624279,45.564506],[-122.62428,45.563912],[-122.627428,45.563907],[-122.627432,45.562763],[-122.619998,45.562825],[-122.613994,45.562791],[-122.614043,45.560435],[-122.614684,45.560438],[-122.614698,45.55928],[-122.614637,45.559098],[-122.614691,45.555629],[-122.614729,45.555468],[-122.614756,45.553753],[-122.620129,45.553776],[-122.620388,45.553725],[-122.621245,45.553717],[-122.625357,45.553687],[-122.630513,45.553698],[-122.630507,45.555405],[-122.633666,45.555415],[-122.633692,45.553067],[-122.638783,45.553087],[-122.638779,45.552957],[-122.64007,45.551112],[-122.640229,45.551002],[-122.640256,45.550841],[-122.640497,45.550593],[-122.640905,45.550776],[-122.640968,45.548244],[-122.640958,45.545173],[-122.655371,45.545216],[-122.655355,45.546009],[-122.654346,45.546012],[-122.654317,45.548269],[-122.658452,45.548283],[-122.658417,45.548207],[-122.658455,45.544678],[-122.661342,45.544692],[-122.661492,45.544643],[-122.661464,45.543836],[-122.661528,45.537082],[-122.664067,45.537087],[-122.66408,45.536523],[-122.663559,45.536525],[-122.663577,45.535809],[-122.664586,45.535813],[-122.664594,45.535111],[-122.668315,45.535102],[-122.671366,45.533352],[-122.674058,45.531868],[-122.674394,45.532159],[-122.678562,45.535235],[-122.68284,45.538058],[-122.684442,45.539178],[-122.690891,45.544116],[-122.694979,45.54794],[-122.697833,45.550355],[-122.700142,45.551492],[-122.702667,45.552289],[-122.708883,45.554609],[-122.711335,45.555469],[-122.71831,45.558337],[-122.722519,45.560367],[-122.729997,45.565069],[-122.731297,45.566194],[-122.723864,45.570729],[-122.72163,45.572868],[-122.721259,45.573127],[-122.721091,45.573282],[-122.721237,45.573409],[-122.72002,45.573997],[-122.718648,45.57448],[-122.717949,45.574646],[-122.714086,45.575315],[-122.71199,45.575295],[-122.708846,45.575119],[-122.707766,45.574972],[-122.705673,45.574441],[-122.704652,45.574148],[-122.703629,45.573771],[-122.702621,45.573212],[-122.702618,45.577045],[-122.702568,45.577145],[-122.685043,45.577137],[-122.681992,45.57715],[-122.678532,45.577231],[-122.678467,45.579975],[-122.678483,45.581644],[-122.678596,45.582671],[-122.678713,45.583202],[-122.679017,45.584119],[-122.680904,45.588305],[-122.682362,45.588377],[-122.683237,45.588566],[-122.684295,45.588972],[-122.685331,45.589418],[-122.688152,45.589943],[-122.689677,45.590379],[-122.69068,45.590787],[-122.696269,45.592783],[-122.699972,45.59397],[-122.702429,45.594632],[-122.703552,45.59474],[-122.704777,45.594686],[-122.705854,45.594741],[-122.706994,45.595024],[-122.708039,45.595385],[-122.710005,45.596003],[-122.712455,45.596459],[-122.713105,45.596713],[-122.714792,45.597702],[-122.717352,45.59939],[-122.718984,45.600372],[-122.719183,45.60046],[-122.720885,45.600953],[-122.721323,45.601051],[-122.723034,45.601201],[-122.724435,45.601219],[-122.725296,45.601279],[-122.725908,45.601374],[-122.726346,45.601479],[-122.726851,45.601637],[-122.727249,45.601812],[-122.728146,45.602298],[-122.729413,45.603066],[-122.730127,45.603296],[-122.73051,45.60335],[-122.734236,45.603651],[-122.73534,45.603843],[-122.736052,45.604004],[-122.73647,45.604141],[-122.737035,45.604435],[-122.737973,45.605133],[-122.738976,45.606119],[-122.739301,45.606403],[-122.739736,45.606699],[-122.7402,45.606911],[-122.740442,45.606998],[-122.740967,45.607094],[-122.743495,45.607296],[-122.744472,45.607574],[-122.746049,45.607605],[-122.747231,45.608138],[-122.74838,45.608961],[-122.748767,45.609144],[-122.749459,45.609344],[-122.751184,45.609562],[-122.751753,45.60968],[-122.752182,45.609817],[-122.753506,45.61037],[-122.75589,45.608753],[-122.75472,45.606794],[-122.75483,45.606823],[-122.755395,45.606819],[-122.755502,45.606779],[-122.755701,45.606585],[-122.754685,45.606124],[-122.754899,45.606052],[-122.757262,45.605601],[-122.7583,45.605474],[-122.759085,45.605558],[-122.760058,45.605729],[-122.762394,45.606605],[-122.763053,45.606791],[-122.763971,45.606948],[-122.765037,45.606995],[-122.765753,45.606958],[-122.766303,45.606848],[-122.766338,45.606909],[-122.76709,45.606688],[-122.7677,45.60644],[-122.775065,45.606424],[-122.776387,45.606344],[-122.778481,45.605982],[-122.779067,45.605971],[-122.779261,45.605921],[-122.780872,45.605722],[-122.783048,45.605511],[-122.7853,45.609353],[-122.788263,45.614172],[-122.789811,45.616908],[-122.790583,45.619499],[-122.792497,45.620116],[-122.791767,45.621807],[-122.790396,45.626362],[-122.790303,45.627919],[-122.788844,45.631317],[-122.788001,45.632865],[-122.786809,45.634711],[-122.773212,45.634714],[-122.75978,45.634758],[-122.743323,45.634722],[-122.743213,45.645569],[-122.736642,45.643365],[-122.727563,45.640638],[-122.712896,45.636364]]]]}},{"type":"Feature","properties":{"name":"Lincoln High School","school_label":"Lincoln High School Spanish Immersion","cluster":"Lincoln","level":"9-12","area_sqmi":57.54},"geometry":{"type":"MultiPolygon","coordinates":[[[[-122.821767,45.638186],[-122.820119,45.633197],[-122.8186,45.630689],[-122.816401,45.627769],[-122.815091,45.626462],[-122.809474,45.622802],[-122.804513,45.620363],[-122.801629,45.619659],[-122.798305,45.619413],[-122.796712,45.619529],[-122.795154,45.619697],[-122.793694,45.619894],[-122.792497,45.620116],[-122.790583,45.619499],[-122.789811,45.616908],[-122.788263,45.614172],[-122.7853,45.609353],[-122.782549,45.604659],[-122.779998,45.601235],[-122.777661,45.598026],[-122.772462,45.592017],[-122.768106,45.588216],[-122.76395,45.584815],[-122.759967,45.582546],[-122.754861,45.580733],[-122.749556,45.578802],[-122.74557,45.576716],[-122.738528,45.572128],[-122.735479,45.569802],[-122.729997,45.565069],[-122.722519,45.560367],[-122.71831,45.558337],[-122.711335,45.555469],[-122.708883,45.554609],[-122.702667,45.552289],[-122.700142,45.551492],[-122.697833,45.550355],[-122.694979,45.54794],[-122.690891,45.544116],[-122.684442,45.539178],[-122.68284,45.538058],[-122.678562,45.535235],[-122.674394,45.532159],[-122.670532,45.528795],[-122.667866,45.526429],[-122.667551,45.523974],[-122.66776,45.52224],[-122.668378,45.519789],[-122.669478,45.517779],[-122.669963,45.516154],[-122.670405,45.514255],[-122.670532,45.513567],[-122.670569,45.512454],[-122.669746,45.510053],[-122.667739,45.506364],[-122.665481,45.502931],[-122.665367,45.502156],[-122.665408,45.501188],[-122.674329,45.5005],[-122.676783,45.500278],[-122.677074,45.500242],[-122.677558,45.500119],[-122.677575,45.500012],[-122.677801,45.499954],[-122.677974,45.499951],[-122.678247,45.500007],[-122.678446,45.500102],[-122.678514,45.500169],[-122.678616,45.500297],[-122.678677,45.500486],[-122.678701,45.500859],[-122.678837,45.50043],[-122.67887,45.50014],[-122.68053,45.500169],[-122.680179,45.499452],[-122.679753,45.498736],[-122.678465,45.496382],[-122.678269,45.496058],[-122.677498,45.495097],[-122.67736,45.494871],[-122.67718,45.49441],[-122.676913,45.493295],[-122.676905,45.492776],[-122.67706,45.492248],[-122.677347,45.491793],[-122.677661,45.491482],[-122.678051,45.491169],[-122.678508,45.490894],[-122.679053,45.490693],[-122.680967,45.490245],[-122.681406,45.490092],[-122.6818,45.489879],[-122.682242,45.48952],[-122.684727,45.489571],[-122.684713,45.490402],[-122.690104,45.49049],[-122.690158,45.490489],[-122.690541,45.489384],[-122.691042,45.489428],[-122.691264,45.489279],[-122.69163,45.489508],[-122.693486,45.489564],[-122.694396,45.489562],[-122.694807,45.489524],[-122.695055,45.489481],[-122.695061,45.489343],[-122.698346,45.489357],[-122.698396,45.489539],[-122.698465,45.489644],[-122.698916,45.489826],[-122.699156,45.489875],[-122.699332,45.489947],[-122.699433,45.490037],[-122.699512,45.490142],[-122.699549,45.490263],[-122.699583,45.49059],[-122.699721,45.490809],[-122.699969,45.491071],[-122.700429,45.491199],[-122.700672,45.491324],[-122.700729,45.491399],[-122.700746,45.491589],[-122.70062,45.491981],[-122.700605,45.492171],[-122.70063,45.49227],[-122.700744,45.492413],[-122.700832,45.492457],[-122.701212,45.492465],[-122.70208,45.492204],[-122.702275,45.492193],[-122.70258,45.492225],[-122.702986,45.49237],[-122.703153,45.492496],[-122.703571,45.49296],[-122.703587,45.493097],[-122.703484,45.493549],[-122.703522,45.493708],[-122.703732,45.493811],[-122.704188,45.493825],[-122.704342,45.493898],[-122.704412,45.494027],[-122.704336,45.494325],[-122.704352,45.494462],[-122.704456,45.494635],[-122.7046,45.494739],[-122.704894,45.494749],[-122.705517,45.494592],[-122.706015,45.494575],[-122.706559,45.494641],[-122.706714,45.494714],[-122.706773,45.494858],[-122.706743,45.494912],[-122.706255,45.495508],[-122.706106,45.495594],[-122.706002,45.495711],[-122.705971,45.495772],[-122.705986,45.495879],[-122.706054,45.495946],[-122.706263,45.496034],[-122.707175,45.496069],[-122.708178,45.496233],[-122.708531,45.496386],[-122.709101,45.496871],[-122.710001,45.497471],[-122.710252,45.497816],[-122.710667,45.498487],[-122.711015,45.49941],[-122.711036,45.499699],[-122.710974,45.500074],[-122.710985,45.50098],[-122.710892,45.501112],[-122.711032,45.501368],[-122.711177,45.501495],[-122.711299,45.501554],[-122.711831,45.501574],[-122.712126,45.501644],[-122.713241,45.502195],[-122.713631,45.501882],[-122.714213,45.501497],[-122.714921,45.500973],[-122.716507,45.500165],[-122.716882,45.500051],[-122.717133,45.500092],[-122.717563,45.500282],[-122.717792,45.500315],[-122.717952,45.500229],[-122.718189,45.499896],[-122.718389,45.499725],[-122.719047,45.499346],[-122.719636,45.499137],[-122.720292,45.498987],[-122.720562,45.498974],[-122.722458,45.499211],[-122.722905,45.498997],[-122.724208,45.498461],[-122.724669,45.498315],[-122.725478,45.4982],[-122.725793,45.498217],[-122.726143,45.498286],[-122.726457,45.498288],[-122.726964,45.498194],[-122.727984,45.497938],[-122.729124,45.497962],[-122.729747,45.498391],[-122.729747,45.500762],[-122.730313,45.500827],[-122.730318,45.500964],[-122.731131,45.500964],[-122.731144,45.50043],[-122.732261,45.500439],[-122.732265,45.500545],[-122.732949,45.500555],[-122.732951,45.500928],[-122.733581,45.500939],[-122.733589,45.502653],[-122.734178,45.502436],[-122.73425,45.502625],[-122.734327,45.502662],[-122.734523,45.502681],[-122.735768,45.501163],[-122.736593,45.50117],[-122.73522,45.502774],[-122.736137,45.503221],[-122.736118,45.503313],[-122.735868,45.503585],[-122.73546,45.503692],[-122.735333,45.503778],[-122.735119,45.504156],[-122.735047,45.504561],[-122.736209,45.504599],[-122.736424,45.50426],[-122.736643,45.504012],[-122.737818,45.503226],[-122.737819,45.50296],[-122.73828,45.502836],[-122.738582,45.502487],[-122.738239,45.502006],[-122.738412,45.501691],[-122.738721,45.501547],[-122.738721,45.492996],[-122.740467,45.492992],[-122.743848,45.493543],[-122.74386,45.498002],[-122.746399,45.498043],[-122.746407,45.497967],[-122.746996,45.498062],[-122.747027,45.498008],[-122.747709,45.497995],[-122.747701,45.498071],[-122.750381,45.498118],[-122.750479,45.498123],[-122.750693,45.498333],[-122.750986,45.49835],[-122.751039,45.498013],[-122.751443,45.498105],[-122.751985,45.498391],[-122.752896,45.498686],[-122.753321,45.498151],[-122.753935,45.498338],[-122.754134,45.498166],[-122.754992,45.49818],[-122.755199,45.498221],[-122.756056,45.498242],[-122.757412,45.498246],[-122.757357,45.497638],[-122.757845,45.497643],[-122.757835,45.498246],[-122.758345,45.498274],[-122.758363,45.497587],[-122.759042,45.497764],[-122.760244,45.498305],[-122.761087,45.498517],[-122.762701,45.498188],[-122.763865,45.498279],[-122.763921,45.500953],[-122.76466,45.501007],[-122.764669,45.501823],[-122.764333,45.501829],[-122.764272,45.501937],[-122.764334,45.502165],[-122.764638,45.502166],[-122.764631,45.50257],[-122.764191,45.502678],[-122.764296,45.502867],[-122.76428,45.50507],[-122.764486,45.505081],[-122.764488,45.505408],[-122.764405,45.506088],[-122.761288,45.505967],[-122.759162,45.505948],[-122.758317,45.50598],[-122.758323,45.507908],[-122.751091,45.507928],[-122.751087,45.508416],[-122.747293,45.508453],[-122.747323,45.508681],[-122.746608,45.50871],[-122.746404,45.508455],[-122.746035,45.508462],[-122.745751,45.508117],[-122.745106,45.508274],[-122.745202,45.51235],[-122.743857,45.512323],[-122.743853,45.519594],[-122.743821,45.523116],[-122.759312,45.523155],[-122.759315,45.526745],[-122.76206,45.526752],[-122.762046,45.527537],[-122.763163,45.52753],[-122.763139,45.529794],[-122.763465,45.529803],[-122.76344,45.531191],[-122.764417,45.531202],[-122.764413,45.531377],[-122.766019,45.531376],[-122.766025,45.533868],[-122.774713,45.533818],[-122.774734,45.530312],[-122.779889,45.530347],[-122.779792,45.532102],[-122.779762,45.533916],[-122.784843,45.534013],[-122.784739,45.539305],[-122.784711,45.542324],[-122.782367,45.542325],[-122.783423,45.543577],[-122.782761,45.543849],[-122.782426,45.543604],[-122.782108,45.544083],[-122.77956,45.542426],[-122.780495,45.545357],[-122.780807,45.546159],[-122.780179,45.546187],[-122.777312,45.544689],[-122.776809,45.545171],[-122.778414,45.546008],[-122.778329,45.54838],[-122.784701,45.548421],[-122.784704,45.555715],[-122.805369,45.555683],[-122.80536,45.562886],[-122.817806,45.563039],[-122.820323,45.562988],[-122.825809,45.563049],[-122.825771,45.565171],[-122.826025,45.577502],[-122.83634,45.577456],[-122.841447,45.57748],[-122.846663,45.577576],[-122.846502,45.58465],[-122.846561,45.591906],[-122.867255,45.591901],[-122.867212,45.606267],[-122.877532,45.60618],[-122.887626,45.606394],[-122.887578,45.620519],[-122.908531,45.620743],[-122.908859,45.627918],[-122.908848,45.635213],[-122.918442,45.635361],[-122.928713,45.63527],[-122.92885,45.649744],[-122.928868,45.653],[-122.928845,45.653075],[-122.928838,45.656946],[-122.928947,45.671383],[-122.919057,45.671279],[-122.919321,45.672985],[-122.918931,45.673719],[-122.918534,45.678342],[-122.928793,45.678401],[-122.928959,45.692912],[-122.918856,45.692868],[-122.90864,45.692658],[-122.888087,45.6925],[-122.888134,45.696444],[-122.88811,45.6965],[-122.888208,45.703327],[-122.888183,45.706881],[-122.882962,45.706936],[-122.877971,45.706818],[-122.872988,45.706848],[-122.872433,45.706897],[-122.871535,45.702264],[-122.871452,45.700424],[-122.871017,45.698423],[-122.870859,45.697273],[-122.870963,45.694871],[-122.871226,45.694251],[-122.871466,45.693092],[-122.871492,45.692496],[-122.868122,45.692437],[-122.867957,45.691696],[-122.867508,45.69057],[-122.866416,45.686909],[-122.866024,45.684685],[-122.866047,45.681651],[-122.867198,45.678389],[-122.867667,45.676444],[-122.867452,45.675779],[-122.866664,45.674754],[-122.865984,45.673782],[-122.862451,45.671827],[-122.860406,45.670549],[-122.858718,45.668947],[-122.857681,45.667089],[-122.856836,45.665972],[-122.856178,45.664907],[-122.85478,45.663857],[-122.851171,45.661364],[-122.849019,45.660032],[-122.847702,45.659018],[-122.844639,45.65629],[-122.842436,45.654419],[-122.840508,45.653362],[-122.835486,45.651828],[-122.832174,45.650613],[-122.829074,45.649393],[-122.827132,45.648019],[-122.825777,45.646726],[-122.824878,45.645554],[-122.824077,45.644212],[-122.823248,45.642257],[-122.822942,45.641313],[-122.82295,45.64188],[-122.821767,45.638186]]]]}},{"type":"Feature","properties":{"name":"McDaniel High School","school_label":"McDaniel High School Spanish Immersion, Vietnamese Immersion","cluster":"McDaniel","level":"9-12","area_sqmi":10.13},"geometry":{"type":"MultiPolygon","coordinates":[[[[-122.595707,45.577127],[-122.588434,45.577168],[-122.575079,45.577143],[-122.575094,45.573424],[-122.573672,45.573427],[-122.565384,45.573302],[-122.565395,45.56975],[-122.56672,45.569764],[-122.56707,45.568561],[-122.567285,45.568512],[-122.56785,45.568532],[-122.567929,45.567006],[-122.567969,45.562738],[-122.578279,45.562689],[-122.578485,45.552762],[-122.575807,45.552849],[-122.575846,45.55111],[-122.578505,45.551116],[-122.578532,45.549987],[-122.569404,45.549962],[-122.56937,45.552813],[-122.569143,45.552817],[-122.568061,45.5526],[-122.568066,45.55212],[-122.565788,45.551178],[-122.565313,45.550919],[-122.563562,45.549526],[-122.563029,45.549162],[-122.562869,45.548936],[-122.562832,45.548777],[-122.562889,45.548555],[-122.563077,45.548346],[-122.563194,45.548275],[-122.563484,45.548178],[-122.563831,45.548172],[-122.564322,45.548232],[-122.564527,45.548205],[-122.564731,45.548133],[-122.567238,45.548141],[-122.567445,45.547871],[-122.567516,45.547709],[-122.567631,45.547258],[-122.568147,45.546471],[-122.568217,45.546287],[-122.568323,45.546209],[-122.568373,45.546109],[-122.568381,45.546025],[-122.568252,45.54541],[-122.568298,45.544845],[-122.568146,45.544512],[-122.562948,45.544499],[-122.562996,45.542387],[-122.559512,45.542366],[-122.559578,45.54206],[-122.559652,45.541342],[-122.559944,45.538098],[-122.560184,45.537164],[-122.560354,45.536757],[-122.560765,45.536071],[-122.561108,45.5356],[-122.561893,45.534763],[-122.562337,45.534412],[-122.563782,45.533525],[-122.568413,45.533479],[-122.568588,45.522586],[-122.567362,45.522585],[-122.567404,45.520275],[-122.567794,45.520283],[-122.567977,45.520226],[-122.567995,45.520119],[-122.568624,45.520123],[-122.568653,45.5184],[-122.564434,45.518415],[-122.564405,45.514026],[-122.563646,45.514017],[-122.563741,45.51105],[-122.563786,45.507536],[-122.567268,45.507572],[-122.567282,45.504463],[-122.552929,45.504256],[-122.552963,45.50203],[-122.55305,45.502028],[-122.553068,45.499658],[-122.558176,45.499673],[-122.558218,45.49705],[-122.563815,45.497132],[-122.563822,45.496393],[-122.564452,45.496412],[-122.56471,45.495379],[-122.564897,45.493546],[-122.56339,45.493543],[-122.560613,45.493478],[-122.560631,45.493379],[-122.560825,45.493025],[-122.560832,45.491615],[-122.558293,45.491546],[-122.558321,45.489808],[-122.5666,45.490017],[-122.571405,45.490091],[-122.573901,45.490167],[-122.574944,45.490263],[-122.576776,45.490252],[-122.576768,45.490977],[-122.576798,45.491525],[-122.578619,45.49153],[-122.578767,45.491428],[-122.578642,45.500523],[-122.578594,45.511247],[-122.578672,45.513532],[-122.578971,45.519151],[-122.588561,45.519221],[-122.588477,45.519283],[-122.588466,45.519916],[-122.58856,45.520135],[-122.588551,45.520196],[-122.588499,45.520258],[-122.58837,45.520291],[-122.58811,45.520288],[-122.587982,45.520367],[-122.589792,45.521264],[-122.590806,45.521733],[-122.591531,45.522002],[-122.591851,45.522171],[-122.591832,45.524153],[-122.592363,45.524151],[-122.592351,45.525378],[-122.59336,45.525383],[-122.593355,45.526488],[-122.596989,45.52649],[-122.596985,45.528296],[-122.596378,45.528285],[-122.596286,45.531944],[-122.603064,45.528414],[-122.603705,45.52812],[-122.604208,45.527928],[-122.604702,45.527781],[-122.605038,45.5284],[-122.605033,45.53013],[-122.604988,45.530406],[-122.604954,45.531931],[-122.604887,45.532199],[-122.604864,45.533731],[-122.614868,45.533783],[-122.614835,45.541603],[-122.613815,45.541599],[-122.613567,45.541642],[-122.613353,45.541737],[-122.61292,45.541753],[-122.612408,45.541694],[-122.611828,45.541567],[-122.611535,45.541573],[-122.611128,45.54171],[-122.610821,45.541929],[-122.610803,45.541738],[-122.610709,45.541512],[-122.610509,45.54137],[-122.610279,45.541329],[-122.607512,45.541311],[-122.607513,45.541029],[-122.604419,45.54226],[-122.604457,45.542419],[-122.604387,45.548258],[-122.609467,45.548287],[-122.609513,45.548377],[-122.609455,45.548561],[-122.608599,45.549248],[-122.608516,45.549341],[-122.608324,45.549756],[-122.608441,45.550013],[-122.608448,45.550219],[-122.608927,45.550576],[-122.609115,45.550664],[-122.609487,45.550748],[-122.609481,45.551541],[-122.609512,45.551792],[-122.612073,45.551798],[-122.612087,45.551882],[-122.614779,45.551901],[-122.614729,45.555468],[-122.614691,45.555629],[-122.614637,45.559098],[-122.614698,45.55928],[-122.614684,45.560438],[-122.614043,45.560435],[-122.613994,45.562791],[-122.619998,45.562825],[-122.627432,45.562763],[-122.627428,45.563907],[-122.62428,45.563912],[-122.624279,45.564506],[-122.624361,45.564672],[-122.624344,45.565122],[-122.624455,45.565204],[-122.624454,45.566416],[-122.624194,45.566421],[-122.62419,45.568197],[-122.624313,45.568278],[-122.62432,45.570046],[-122.624581,45.570057],[-122.624583,45.57136],[-122.624137,45.571665],[-122.624179,45.575041],[-122.623274,45.575248],[-122.622055,45.575461],[-122.622022,45.577641],[-122.620212,45.578666],[-122.620211,45.584587],[-122.62009,45.589239],[-122.619359,45.589153],[-122.618787,45.588615],[-122.618279,45.588388],[-122.617363,45.58826],[-122.616615,45.588289],[-122.61514,45.588659],[-122.615042,45.588661],[-122.615063,45.579858],[-122.613988,45.579863],[-122.612716,45.580755],[-122.611447,45.579864],[-122.60477,45.579864],[-122.602314,45.57885],[-122.59942,45.578057],[-122.598042,45.578082],[-122.596217,45.578695],[-122.595707,45.577127]],[[-122.564667,45.542388],[-122.564703,45.540878],[-122.563,45.540878],[-122.562996,45.542387],[-122.564667,45.542388]]],[[[-122.597423,45.579968],[-122.595696,45.579962],[-122.596217,45.578695],[-122.597423,45.579968]]]]}},{"type":"Feature","properties":{"name":"Roosevelt High School","school_label":"Roosevelt High School Spanish Immersion","cluster":"Roosevelt","level":"9-12","area_sqmi":7.65},"geometry":{"type":"MultiPolygon","coordinates":[[[[-122.746049,45.607605],[-122.744472,45.607574],[-122.743495,45.607296],[-122.740967,45.607094],[-122.740442,45.606998],[-122.7402,45.606911],[-122.739736,45.606699],[-122.739301,45.606403],[-122.738976,45.606119],[-122.737973,45.605133],[-122.737035,45.604435],[-122.73647,45.604141],[-122.735975,45.603983],[-122.734236,45.603651],[-122.73051,45.60335],[-122.730127,45.603296],[-122.729413,45.603066],[-122.728146,45.602298],[-122.727249,45.601812],[-122.726851,45.601637],[-122.726346,45.601479],[-122.725908,45.601374],[-122.725296,45.601279],[-122.724435,45.601219],[-122.723034,45.601201],[-122.721323,45.601051],[-122.720885,45.600953],[-122.719183,45.60046],[-122.718984,45.600372],[-122.717352,45.59939],[-122.714792,45.597702],[-122.713105,45.596713],[-122.712455,45.596459],[-122.710005,45.596003],[-122.708039,45.595385],[-122.706994,45.595024],[-122.705854,45.594741],[-122.704777,45.594686],[-122.703552,45.59474],[-122.702429,45.594632],[-122.699972,45.59397],[-122.696269,45.592783],[-122.69068,45.590787],[-122.689677,45.590379],[-122.688152,45.589943],[-122.685331,45.589418],[-122.684295,45.588972],[-122.683237,45.588566],[-122.682362,45.588377],[-122.680904,45.588305],[-122.679017,45.584119],[-122.678713,45.583202],[-122.678596,45.582671],[-122.678483,45.581644],[-122.678467,45.579975],[-122.678532,45.577231],[-122.681992,45.57715],[-122.685043,45.577137],[-122.702568,45.577145],[-122.702618,45.577045],[-122.702621,45.573212],[-122.703629,45.573771],[-122.704652,45.574148],[-122.705673,45.574441],[-122.707766,45.574972],[-122.708846,45.575119],[-122.71199,45.575295],[-122.714086,45.575315],[-122.717949,45.574646],[-122.718648,45.57448],[-122.72002,45.573997],[-122.721237,45.573409],[-122.721091,45.573282],[-122.721259,45.573127],[-122.72163,45.572868],[-122.723864,45.570729],[-122.731297,45.566194],[-122.735479,45.569802],[-122.738528,45.572128],[-122.74557,45.576716],[-122.749556,45.578802],[-122.754861,45.580733],[-122.759967,45.582546],[-122.76395,45.584815],[-122.768106,45.588216],[-122.772462,45.592017],[-122.777661,45.598026],[-122.779998,45.601235],[-122.782549,45.604659],[-122.783048,45.605511],[-122.780872,45.605722],[-122.779261,45.605921],[-122.779067,45.605971],[-122.778481,45.605982],[-122.776387,45.606344],[-122.775065,45.606424],[-122.7677,45.60644],[-122.76709,45.606688],[-122.766338,45.606909],[-122.766303,45.606848],[-122.765753,45.606958],[-122.765037,45.606995],[-122.763971,45.606948],[-122.763053,45.606791],[-122.762394,45.606605],[-122.760058,45.605729],[-122.759085,45.605558],[-122.7583,45.605474],[-122.757262,45.605601],[-122.754899,45.606052],[-122.754685,45.606124],[-122.755701,45.606585],[-122.755502,45.606779],[-122.755395,45.606819],[-122.75483,45.606823],[-122.75472,45.606794],[-122.75589,45.608753],[-122.753506,45.61037],[-122.752182,45.609817],[-122.751698,45.609666],[-122.751184,45.609562],[-122.749689,45.609385],[-122.748943,45.609209],[-122.74838,45.608961],[-122.747286,45.608175],[-122.747042,45.608035],[-122.746049,45.607605]]]]}},{"type":"Feature","properties":{"name":"Wells-Barnett High School","school_label":"Wells-Barnett High School","cluster":"Wells-Barnett","level":"9-12","area_sqmi":15.57},"geometry":{"type":"MultiPolygon","coordinates":[[[[-122.736593,45.50117],[-122.735768,45.501163],[-122.734523,45.502681],[-122.734327,45.502662],[-122.73425,45.502625],[-122.734178,45.502436],[-122.733589,45.502653],[-122.733581,45.500939],[-122.732951,45.500928],[-122.732949,45.500555],[-122.732265,45.500545],[-122.732261,45.500439],[-122.731144,45.50043],[-122.731131,45.500964],[-122.730318,45.500964],[-122.730313,45.500827],[-122.729725,45.500762],[-122.729736,45.498392],[-122.729102,45.497962],[-122.727974,45.497946],[-122.726436,45.498288],[-122.726132,45.498286],[-122.725609,45.498205],[-122.725101,45.498246],[-122.724648,45.498323],[-122.724198,45.498461],[-122.722894,45.498997],[-122.722447,45.499212],[-122.720551,45.498974],[-122.720281,45.498987],[-122.719614,45.499137],[-122.719122,45.499307],[-122.718378,45.499725],[-122.718178,45.499896],[-122.717941,45.500229],[-122.717781,45.500316],[-122.717552,45.500282],[-122.717122,45.500092],[-122.717002,45.500072],[-122.716785,45.500061],[-122.716485,45.500165],[-122.71491,45.500973],[-122.714203,45.501498],[-122.71362,45.501882],[-122.71323,45.502195],[-122.712115,45.501645],[-122.71182,45.501574],[-122.711288,45.501554],[-122.711021,45.501369],[-122.710881,45.501112],[-122.710974,45.500981],[-122.710963,45.500074],[-122.711025,45.499699],[-122.711004,45.49941],[-122.710656,45.498487],[-122.710241,45.497817],[-122.70999,45.497471],[-122.70909,45.496871],[-122.708642,45.496468],[-122.708167,45.496233],[-122.707414,45.496095],[-122.706903,45.496044],[-122.706263,45.496034],[-122.706054,45.495946],[-122.705975,45.495879],[-122.705961,45.495773],[-122.705991,45.495711],[-122.706095,45.495595],[-122.706244,45.495508],[-122.706743,45.494912],[-122.706762,45.494858],[-122.706703,45.494714],[-122.706559,45.494641],[-122.706004,45.494575],[-122.705614,45.494583],[-122.704894,45.494749],[-122.70459,45.494747],[-122.704399,45.494576],[-122.704328,45.494402],[-122.704405,45.494126],[-122.704401,45.494027],[-122.704342,45.493898],[-122.704188,45.493825],[-122.703732,45.493811],[-122.703578,45.493761],[-122.703522,45.493708],[-122.703475,45.493602],[-122.703576,45.493097],[-122.703571,45.49296],[-122.703153,45.492496],[-122.702986,45.49237],[-122.70258,45.492225],[-122.702264,45.492193],[-122.70207,45.492204],[-122.701212,45.492465],[-122.700821,45.492464],[-122.700744,45.492413],[-122.700676,45.492345],[-122.700594,45.492172],[-122.700609,45.491988],[-122.700746,45.491589],[-122.700729,45.491399],[-122.700583,45.491257],[-122.699958,45.491071],[-122.699721,45.490809],[-122.699583,45.49059],[-122.699549,45.490263],[-122.699512,45.490142],[-122.699433,45.490037],[-122.699332,45.489947],[-122.699156,45.489875],[-122.698916,45.489826],[-122.698575,45.48971],[-122.698465,45.489644],[-122.698396,45.489539],[-122.698346,45.489357],[-122.695061,45.489343],[-122.695055,45.489481],[-122.694807,45.489524],[-122.694396,45.489562],[-122.693486,45.489564],[-122.69163,45.489508],[-122.691264,45.489279],[-122.691042,45.489428],[-122.690541,45.489384],[-122.690158,45.490489],[-122.684713,45.490402],[-122.684727,45.489571],[-122.682242,45.48952],[-122.681715,45.489934],[-122.681256,45.490148],[-122.680365,45.490394],[-122.679257,45.490636],[-122.678519,45.490894],[-122.678051,45.491169],[-122.677577,45.491552],[-122.677306,45.491847],[-122.67706,45.49224],[-122.676962,45.492532],[-122.676899,45.492891],[-122.676924,45.493294],[-122.677254,45.494645],[-122.677498,45.495097],[-122.677896,45.495616],[-122.67811,45.49584],[-122.678372,45.496216],[-122.679752,45.498728],[-122.680179,45.499444],[-122.68053,45.500162],[-122.67887,45.50014],[-122.678837,45.500422],[-122.678701,45.500859],[-122.678677,45.500486],[-122.678615,45.500289],[-122.678513,45.500162],[-122.678446,45.500094],[-122.678247,45.500007],[-122.677801,45.499947],[-122.677575,45.500004],[-122.677558,45.500119],[-122.676793,45.500271],[-122.671464,45.500722],[-122.665419,45.50118],[-122.665461,45.500234],[-122.666556,45.49596],[-122.669255,45.489522],[-122.669789,45.485953],[-122.669563,45.482322],[-122.669085,45.480463],[-122.667973,45.478762],[-122.666566,45.477287],[-122.665989,45.47569],[-122.666401,45.472938],[-122.666557,45.468469],[-122.666018,45.465514],[-122.66533,45.46353],[-122.664997,45.462996],[-122.664608,45.461502],[-122.674578,45.461526],[-122.674976,45.452921],[-122.672938,45.451359],[-122.672757,45.451149],[-122.672686,45.450975],[-122.67285,45.447055],[-122.672893,45.446749],[-122.673588,45.432803],[-122.70223,45.43298],[-122.702374,45.432787],[-122.702601,45.432173],[-122.703973,45.432367],[-122.704204,45.432469],[-122.704428,45.432686],[-122.704716,45.432856],[-122.705856,45.433246],[-122.707214,45.433646],[-122.707626,45.433669],[-122.707927,45.43361],[-122.708162,45.433514],[-122.708491,45.433324],[-122.708945,45.433598],[-122.70933,45.43375],[-122.709592,45.433829],[-122.710268,45.433953],[-122.710962,45.433963],[-122.711512,45.433914],[-122.712305,45.433677],[-122.712617,45.433618],[-122.712888,45.433621],[-122.713378,45.433695],[-122.713763,45.433855],[-122.71434,45.434233],[-122.715263,45.434588],[-122.715661,45.434824],[-122.716417,45.434162],[-122.71662,45.433807],[-122.716595,45.433716],[-122.716232,45.433251],[-122.716139,45.433077],[-122.719487,45.433112],[-122.719691,45.43246],[-122.719679,45.432148],[-122.719585,45.431936],[-122.719315,45.431667],[-122.718348,45.430977],[-122.718657,45.430834],[-122.718797,45.430808],[-122.719221,45.430868],[-122.719715,45.431049],[-122.720134,45.431262],[-122.720401,45.431455],[-122.720952,45.432001],[-122.722198,45.433509],[-122.722553,45.433746],[-122.722718,45.433819],[-122.723079,45.433911],[-122.724602,45.434079],[-122.725448,45.434436],[-122.725852,45.43452],[-122.726264,45.43452],[-122.726608,45.43446],[-122.730044,45.433341],[-122.730516,45.433217],[-122.733634,45.433187],[-122.736105,45.43323],[-122.743959,45.433282],[-122.743816,45.45266],[-122.743821,45.460145],[-122.743756,45.475161],[-122.745046,45.475174],[-122.745062,45.475311],[-122.745055,45.475418],[-122.744893,45.475421],[-122.744884,45.475482],[-122.744612,45.475731],[-122.74447,45.475711],[-122.744383,45.475416],[-122.743949,45.475401],[-122.743948,45.475958],[-122.743731,45.475954],[-122.743777,45.476914],[-122.74378,45.482584],[-122.743831,45.488681],[-122.744215,45.488795],[-122.743957,45.489151],[-122.743837,45.489123],[-122.743845,45.491409],[-122.743642,45.491489],[-122.743703,45.491679],[-122.744044,45.491794],[-122.74385,45.492118],[-122.743848,45.493543],[-122.740467,45.492992],[-122.738721,45.492996],[-122.738721,45.501547],[-122.738412,45.501691],[-122.738239,45.502006],[-122.738582,45.502487],[-122.73828,45.502836],[-122.737819,45.50296],[-122.737818,45.503226],[-122.736643,45.504012],[-122.736424,45.50426],[-122.736209,45.504599],[-122.735047,45.504561],[-122.735119,45.504156],[-122.735333,45.503778],[-122.73546,45.503692],[-122.735868,45.503585],[-122.736118,45.503313],[-122.736137,45.503221],[-122.73522,45.502774],[-122.736593,45.50117]]]]}}]}