{"type":"FeatureCollection","features":[{"type":"Feature","properties":{"name":"Roosevelt High School Spanish Immersion","kind":"high"},"geometry":{"type":"Point","coordinates":[-122.738069,45.589349]}},{"type":"Feature","properties":{"name":"Jefferson High School Mandarin Immersion","kind":"high"},"geometry":{"type":"Point","coordinates":[-122.671876,45.560412]}},{"type":"Feature","properties":{"name":"McDaniel High School Spanish Immersion, Vietnamese Immersion","kind":"high"},"geometry":{"type":"Point","coordinates":[-122.580604,45.541994]}},{"type":"Feature","properties":{"name":"Grant High School Japanese Immersion","kind":"high"},"geometry":{"type":"Point","coordinates":[-122.626865,45.539149]}},{"type":"Feature","properties":{"name":"Metro. Learning Center K-12 Focus/Option","kind":"focus"},"geometry":{"type":"Point","coordinates":[-122.693209,45.526516]}},{"type":"Feature","properties":{"name":"Benson High School","kind":"high"},"geometry":{"type":"Point","coordinates":[-122.652541,45.527322]}},{"type":"Feature","properties":{"name":"Lincoln High School Spanish Immersion","kind":"high"},"geometry":{"type":"Point","coordinates":[-122.688918,45.518854]}},{"type":"Feature","properties":{"name":"Franklin High School Russian Immersion, Spanish Immersion","kind":"high"},"geometry":{"type":"Point","coordinates":[-122.60685,45.502113]}},{"type":"Feature","properties":{"name":"Cleveland High School Mandarin Immersion","kind":"high"},"geometry":{"type":"Point","coordinates":[-122.638949,45.498561]}},{"type":"Feature","properties":{"name":"Wells-Barnett High School","kind":"high"},"geometry":{"type":"Point","coordinates":[-122.689847,45.477261]}}]}