{"type":"FeatureCollection","features":[{"type":"Feature","properties":{"name":"Sitton K-5 Spanish Immersion","kind":"k5"},"geometry":{"type":"Point","coordinates":[-122.758136,45.59994]}},{"type":"Feature","properties":{"name":"James John K-5 Spanish Immersion","kind":"k5"},"geometry":{"type":"Point","coordinates":[-122.751687,45.59038]}},{"type":"Feature","properties":{"name":"Rosa Parks K-5 Neighborhood","kind":"k5"},"geometry":{"type":"Point","coordinates":[-122.712922,45.587799]}},{"type":"Feature","properties":{"name":"C\u00e9sar Ch\u00e1vez K-8 Spanish Immersion","kind":"k8"},"geometry":{"type":"Point","coordinates":[-122.719196,45.584465]}},{"type":"Feature","properties":{"name":"Astor K-8 Neighborhood","kind":"k8"},"geometry":{"type":"Point","coordinates":[-122.729452,45.578812]}},{"type":"Feature","properties":{"name":"Peninsula K-5 Neighborhood","kind":"k5"},"geometry":{"type":"Point","coordinates":[-122.700017,45.582187]}},{"type":"Feature","properties":{"name":"Woodlawn K-5 Neighborhood","kind":"k5"},"geometry":{"type":"Point","coordinates":[-122.652931,45.575088]}},{"type":"Feature","properties":{"name":"Chief Joseph K-5 Neighborhood","kind":"k5"},"geometry":{"type":"Point","coordinates":[-122.691463,45.572936]}},{"type":"Feature","properties":{"name":"Faubion K-8 Neighborhood","kind":"k8"},"geometry":{"type":"Point","coordinates":[-122.634516,45.570875]}},{"type":"Feature","properties":{"name":"Beach K-5 Spanish Immersion","kind":"k5"},"geometry":{"type":"Point","coordinates":[-122.685219,45.558084]}},{"type":"Feature","properties":{"name":"Vernon K-8 Neighborhood","kind":"k8"},"geometry":{"type":"Point","coordinates":[-122.643456,45.562432]}},{"type":"Feature","properties":{"name":"MLK Jr K-5 Mandarin Immersion","kind":"k5"},"geometry":{"type":"Point","coordinates":[-122.658957,45.558179]}},{"type":"Feature","properties":{"name":"Rigler K-5 Spanish Immersion","kind":"k5"},"geometry":{"type":"Point","coordinates":[-122.60759,45.556047]}},{"type":"Feature","properties":{"name":"Scott K-5 Spanish Immersion","kind":"k5"},"geometry":{"type":"Point","coordinates":[-122.594008,45.555123]}},{"type":"Feature","properties":{"name":"Sabin K-5 Neighborhood","kind":"k5"},"geometry":{"type":"Point","coordinates":[-122.647577,45.552202]}},{"type":"Feature","properties":{"name":"Boise-Eliot/Humboldt K-5 Neighborhood","kind":"k5"},"geometry":{"type":"Point","coordinates":[-122.672725,45.547797]}},{"type":"Feature","properties":{"name":"Alameda K-5 Neighborhood","kind":"k5"},"geometry":{"type":"Point","coordinates":[-122.636874,45.547687]}},{"type":"Feature","properties":{"name":"Forest Park K-5 Neighborhood","kind":"k5"},"geometry":{"type":"Point","coordinates":[-122.777615,45.542611]}},{"type":"Feature","properties":{"name":"Irvington K-5 Neighborhood","kind":"k5"},"geometry":{"type":"Point","coordinates":[-122.651821,45.540172]}},{"type":"Feature","properties":{"name":"Rose City Park K-5 Vietnamese Immersion","kind":"k5"},"geometry":{"type":"Point","coordinates":[-122.603949,45.53934]}},{"type":"Feature","properties":{"name":"Sunrise K-5 Neighborhood","kind":"k5"},"geometry":{"type":"Point","coordinates":[-122.567398,45.538124]}},{"type":"Feature","properties":{"name":"Beverly Cleary K-8 Neighborhood","kind":"k8"},"geometry":{"type":"Point","coordinates":[-122.631035,45.536887]}},{"type":"Feature","properties":{"name":"Chapman K-5 Neighborhood","kind":"k5"},"geometry":{"type":"Point","coordinates":[-122.70544,45.533234]}},{"type":"Feature","properties":{"name":"Laurelhurst K-8 Neighborhood","kind":"k8"},"geometry":{"type":"Point","coordinates":[-122.619856,45.52916]}},{"type":"Feature","properties":{"name":"Metro. Learning Center K-12 Focus/Option","kind":"focus"},"geometry":{"type":"Point","coordinates":[-122.693209,45.526516]}},{"type":"Feature","properties":{"name":"Vestal K-5 Neighborhood","kind":"k5"},"geometry":{"type":"Point","coordinates":[-122.579492,45.524581]}},{"type":"Feature","properties":{"name":"Buckman K-5 Neighborhood","kind":"k5"},"geometry":{"type":"Point","coordinates":[-122.648764,45.520392]}},{"type":"Feature","properties":{"name":"Glencoe K-5 Neighborhood","kind":"k5"},"geometry":{"type":"Point","coordinates":[-122.610823,45.517211]}},{"type":"Feature","properties":{"name":"Clark K-5 Mandarin Immersion","kind":"k5"},"geometry":{"type":"Point","coordinates":[-122.56975,45.513681]}},{"type":"Feature","properties":{"name":"Odyssey K-8 Focus/Option","kind":"focus"},"geometry":{"type":"Point","coordinates":[-122.737438,45.51057]}},{"type":"Feature","properties":{"name":"Sunnyside Environmental K-8 Neighborhood","kind":"k8"},"geometry":{"type":"Point","coordinates":[-122.628793,45.514721]}},{"type":"Feature","properties":{"name":"Ainsworth K-5 Spanish Immersion","kind":"k5"},"geometry":{"type":"Point","coordinates":[-122.699467,45.509843]}},{"type":"Feature","properties":{"name":"Bridger Creative Science K-8 Neighborhood","kind":"k8"},"geometry":{"type":"Point","coordinates":[-122.582098,45.510621]}},{"type":"Feature","properties":{"name":"Abernethy K-5 Neighborhood","kind":"k5"},"geometry":{"type":"Point","coordinates":[-122.651279,45.505921]}},{"type":"Feature","properties":{"name":"Richmond K-5 Japanese Immersion","kind":"k5"},"geometry":{"type":"Point","coordinates":[-122.604573,45.505022]}},{"type":"Feature","properties":{"name":"Atkinson K-5 Spanish Immersion","kind":"k5"},"geometry":{"type":"Point","coordinates":[-122.604573,45.505022]}},{"type":"Feature","properties":{"name":"Winterhaven K-8 Focus/Option","kind":"focus"},"geometry":{"type":"Point","coordinates":[-122.650906,45.4951]}},{"type":"Feature","properties":{"name":"Creston K-5 Neighborhood","kind":"k5"},"geometry":{"type":"Point","coordinates":[-122.613759,45.495454]}},{"type":"Feature","properties":{"name":"Bridlemile K-5 Neighborhood","kind":"k5"},"geometry":{"type":"Point","coordinates":[-122.724317,45.491694]}},{"type":"Feature","properties":{"name":"Grout K-5 Neighborhood","kind":"k5"},"geometry":{"type":"Point","coordinates":[-122.633146,45.491045]}},{"type":"Feature","properties":{"name":"Marysville K-5 Neighborhood","kind":"k5"},"geometry":{"type":"Point","coordinates":[-122.583412,45.48681]}},{"type":"Feature","properties":{"name":"Lent K-5 Spanish Immersion","kind":"k5"},"geometry":{"type":"Point","coordinates":[-122.564179,45.485333]}},{"type":"Feature","properties":{"name":"Arleta K-5 Neighborhood","kind":"k5"},"geometry":{"type":"Point","coordinates":[-122.596288,45.48608]}},{"type":"Feature","properties":{"name":"Woodstock K-5 Mandarin Immersion","kind":"k5"},"geometry":{"type":"Point","coordinates":[-122.611819,45.48209]}},{"type":"Feature","properties":{"name":"Hayhurst K-5 Neighborhood","kind":"k5"},"geometry":{"type":"Point","coordinates":[-122.729333,45.480349]}},{"type":"Feature","properties":{"name":"ACCESS 2-8 Focus/Option","kind":"focus"},"geometry":{"type":"Point","coordinates":[-122.67542,45.478345]}},{"type":"Feature","properties":{"name":"Llewellyn K-5 Neighborhood","kind":"k5"},"geometry":{"type":"Point","coordinates":[-122.652256,45.477153]}},{"type":"Feature","properties":{"name":"Rieke K-5 Neighborhood","kind":"k5"},"geometry":{"type":"Point","coordinates":[-122.694975,45.476553]}},{"type":"Feature","properties":{"name":"Woodmere K-5 Neighborhood","kind":"k5"},"geometry":{"type":"Point","coordinates":[-122.582377,45.475144]}},{"type":"Feature","properties":{"name":"Lewis K-5 Neighborhood","kind":"k5"},"geometry":{"type":"Point","coordinates":[-122.617287,45.473575]}},{"type":"Feature","properties":{"name":"Kelly K-5 Russian Immersion","kind":"k5"},"geometry":{"type":"Point","coordinates":[-122.570762,45.472519]}},{"type":"Feature","properties":{"name":"Maplewood K-5 Neighborhood","kind":"k5"},"geometry":{"type":"Point","coordinates":[-122.730192,45.470871]}},{"type":"Feature","properties":{"name":"Duniway K-5 Neighborhood","kind":"k5"},"geometry":{"type":"Point","coordinates":[-122.62878,45.468596]}},{"type":"Feature","properties":{"name":"Whitman K-5 Neighborhood","kind":"k5"},"geometry":{"type":"Point","coordinates":[-122.588037,45.468412]}},{"type":"Feature","properties":{"name":"Capitol Hill K-5 Neighborhood","kind":"k5"},"geometry":{"type":"Point","coordinates":[-122.695723,45.463927]}},{"type":"Feature","properties":{"name":"Markham K-5 Neighborhood","kind":"k5"},"geometry":{"type":"Point","coordinates":[-122.725918,45.449332]}},{"type":"Feature","properties":{"name":"Stephenson K-5 Neighborhood","kind":"k5"},"geometry":{"type":"Point","coordinates":[-122.70433,45.440705]}},{"type":"Feature","properties":{"name":"Skyline K-8 Neighborhood","kind":"k8"},"geometry":{"type":"Point","coordinates":[-122.855866,45.607651]}}]}